{"type":"FeatureCollection","name":"pf-07_mueang_chiang_rai_routing","crs":{"type":"name","properties":{"name":"urn:ogc:def:crs:OGC:1.3:CRS84"}},"features":[
{"type":"Feature","properties":{"id":"pf-07_se2_routing_geometry","frame_id":"pf-07","case":"SE2","rule":"The union of the pf-07 units, buffered by 3,000 m in EPSG:32647 (16 segments per quarter circle), projected to WGS84 and intersected with the COD-AB tha_admin0 polygon of Thailand.","decision":"Decision log R12, owner choice 15(b), as recommended.","buffer_m":3000.0,"buffer_epsg":32647,"buffer_quad_segs":16,"area_km2":2422.32,"geometry_sha256":"6e53dfd51eb66e9b3b737518250b626cff6e83c1f8d1b996e509a2b41d8fe84b","boundary_sha256":"09e62345481bb80030ff6779e074bfb2c16629b70ae1e373ebd31945f1c6e0d8","source_timestamp":"2022-01-22","source_timestamp_note":"COD-AB valid_on date of the tambon boundaries.","confidence_class":"low","confidence_basis":"Administrative boundaries valid on 2022-01-22 and OpenStreetMap records retrieved on 2026-07-10, neither checked on the ground. The rules are owner decisions; the build has not yet been reviewed by Rachmania.","assumptions":["The routing geometry is the area the SE2 context build may route through. It is not a flood extent.","Roads and hospitals outside it are left out of SE2 routing, even where a route would leave and re-enter it.","Thailand is the COD-AB tha_admin0 polygon; roads in neighbouring countries are not used."],"official_warning":false,"operational_status":"non_operational","review_status":"Built by the AI coding agent from the rule the owners decided (R12); awaiting Rachmania's review."},"geometry":{"type":"Polygon","coordinates":[[[99.42583525596433,19.99127424974314],[99.4267988449831,19.99455552637415],[99.42720103953336,19.995652469880017],[99.42721200049893,19.99564887856288],[99.4279370673997,19.997520645524],[99.42905546792728,19.999753608864825],[99.4297699362412,20.000897455509072],[99.4297628984019,20.000901279759475],[99.42998165290787,20.00126100361514],[99.43025538637076,20.00167463816364],[99.4303843120354,20.00188104049797],[99.4305626276944,20.002138902783575],[99.43111562505915,20.002974514750093],[99.43204460083177,20.004169863034342],[99.43206910574257,20.004261510870602],[99.43302064779321,20.006759976946878],[99.43422625612362,20.00915845083982],[99.43429614356594,20.009281541897774],[99.43558172196038,20.011325261509743],[99.43705184578212,20.013254632220498],[99.43869520895699,20.01505480778032],[99.43876091097549,20.015120699961873],[99.43909248646146,20.015870678621386],[99.43831424407638,20.017726103811654],[99.43824950486682,20.01791794557515],[99.43755990406629,20.02034460400298],[99.43754147655771,20.020423963398265],[99.43721149863386,20.022093093602496],[99.43717940908891,20.022289255221068],[99.43692406884112,20.02438967375869],[99.43684268864396,20.02650251114681],[99.43684287165554,20.02656860640828],[99.43701890400132,20.029497261021334],[99.43705470912826,20.029801208734163],[99.43715798465627,20.030576200384832],[99.43718649111226,20.03076780653207],[99.43771798529045,20.03339351374885],[99.43852055920516,20.035956975944405],[99.43896416570593,20.036987605354273],[99.4389818024638,20.03725975137541],[99.43898598166221,20.03729258414955],[99.43948503571586,20.04002546968609],[99.44027694745112,20.04269586594058],[99.44028931223198,20.04273061191006],[99.44137013324689,20.04531955318978],[99.44272618415418,20.047790117965455],[99.44434318124465,20.05011626055883],[99.44620408758945,20.052273456795305],[99.44828929235189,20.05423896277634],[99.44833233360119,20.054275565341925],[99.45024343934958,20.05576480219994],[99.45228340841672,20.057092678360938],[99.45241653567113,20.05717154939431],[99.455019906093,20.058541293714818],[99.45610020591022,20.05897786263172],[99.45750448537754,20.06008110784183],[99.45801177407995,20.060399297131397],[99.4597284022087,20.061626031269537],[99.46221731745977,20.063054830718894],[99.46367258143223,20.063709562197456],[99.46391643944649,20.063833720732386],[99.46419415619074,20.063944217339603],[99.46484674384834,20.064237811662178],[99.46529520594787,20.064413776882546],[99.46530698349345,20.064386977744],[99.4664455274386,20.064839960102837],[99.46906481456357,20.065613247785887],[99.4717503274454,20.066146506139415],[99.47374644317782,20.06635756400312],[99.4741025181703,20.066701724975207],[99.47410741636823,20.066705559883374],[99.47418557148622,20.066815652099873],[99.47631700795053,20.06945335653107],[99.47877365000912,20.071825182276637],[99.4791379809129,20.072136319105713],[99.48105077028919,20.073633139343112],[99.48309167227468,20.074966982674955],[99.48524695976418,20.07612918535813],[99.48750050473878,20.077111049625586],[99.48754658396845,20.077128885282285],[99.48801097873404,20.07730861553351],[99.49119396931012,20.07833903199687],[99.49448277582903,20.07901025267576],[99.49463155495398,20.079032082763497],[99.49467535520536,20.079042087388427],[99.49507875964376,20.079162682852832],[99.49596030995677,20.07941159487111],[99.49741549261898,20.079798564000722],[99.50032385685198,20.08041985984103],[99.50160245663834,20.08062768389516],[99.50222622722454,20.080722400288533],[99.50281526967981,20.08080556682326],[99.50290706660113,20.080821469449766],[99.50308933682902,20.0808506656613],[99.50432387926706,20.081022408278283],[99.50448536352494,20.08104149288913],[99.50549259539302,20.08114350024971],[99.50557344017452,20.081150326100463],[99.50634867648014,20.081205787618437],[99.50642951632912,20.081210531118636],[99.50736305432194,20.081250900497256],[99.50744382720086,20.081253148576348],[99.50859897456331,20.081263314588046],[99.50867961440937,20.08126249014846],[99.51011032430802,20.081214111484403],[99.51019901742025,20.081209016296967],[99.51159258894097,20.081096687772256],[99.51168092876982,20.08108751290886],[99.51297046831858,20.080925548208175],[99.5130583467662,20.080912588730133],[99.51434805175269,20.080693779656027],[99.51443530469916,20.080677024577792],[99.51571899996969,20.080401397644735],[99.5158048312005,20.08038100101381],[99.51678751678976,20.080129882391223],[99.51687275848927,20.080106558328435],[99.51724124663255,20.080001070149926],[99.51737252383717,20.079971412886945],[99.51746165157657,20.079950242117054],[99.51817490617066,20.079771575306314],[99.51826330847304,20.079748277223132],[99.5191427194685,20.079502130060195],[99.51922457637136,20.079477866887668],[99.52002594417056,20.079228043646715],[99.52010696153411,20.07920153216463],[99.5208442433633,20.07894955715227],[99.52092439718832,20.078920987398167],[99.5216577621721,20.07864866108091],[99.52173696742118,20.07861805606952],[99.52253720797299,20.078295373291265],[99.52261527754932,20.078262562015542],[99.52353917226304,20.077855535713915],[99.52361584001085,20.077820179153065],[99.52464209599233,20.077322521004387],[99.52471287531895,20.077286481482844],[99.52566526054838,20.0767791833635],[99.52573447595583,20.0767406546138],[99.52665142217393,20.076208093223407],[99.5267189996414,20.076167174282322],[99.52766931434539,20.075566168714374],[99.52773505578288,20.075522774606572],[99.52876887417241,20.074807391960178],[99.52883247742666,20.074761282708153],[99.529958910466,20.07390113199019],[99.53002447549324,20.07384842616388],[99.53095657334191,20.07306550701401],[99.53101980009043,20.07301002813002],[99.53171054397298,20.072383045610714],[99.5321543089672,20.072023028621782],[99.53236666065803,20.071845097030288],[99.53272938606868,20.0715359120756],[99.53328710216003,20.071052313711185],[99.53432761008385,20.07006246565793],[99.53485803921119,20.069619146752437],[99.53514803902738,20.06937005451399],[99.53602911139234,20.068580442717877],[99.536307344511,20.068320301506986],[99.53778225174354,20.066833524886277],[99.53913476490153,20.065246253901616],[99.53935895299414,20.064961897660243],[99.54011148810712,20.06395884853744],[99.5405540126997,20.063718004434342],[99.54091431394956,20.063609273280758],[99.54099995005545,20.063581911627796],[99.54180473621247,20.063312094874956],[99.54188948872063,20.06328233090134],[99.54266699321172,20.062997057476377],[99.5427507430879,20.062964997210603],[99.54358639020849,20.062630466004016],[99.5436689023477,20.062595969445667],[99.54464744178975,20.0621658851006],[99.54472837000185,20.062128550225175],[99.54592969992449,20.061540791893105],[99.54600855991367,20.061499952663553],[99.54737538079108,20.060745038187864],[99.54745162926626,20.06070021261357],[99.54853315906047,20.060032001507217],[99.54860736426181,20.059983865688118],[99.5493853513599,20.059460986168094],[99.54945801159246,20.05941041019644],[99.55023521996043,20.058849868227703],[99.55037723839403,20.058743773029818],[99.55107005312772,20.058209409900577],[99.55120876966176,20.058098969538857],[99.55164547364018,20.057744138609266],[99.55171363628648,20.057687620400177],[99.5522354506532,20.05724415528283],[99.5523686144242,20.05712816984606],[99.55297302536322,20.056583718336245],[99.55311875200019,20.056539803448043],[99.55354112657682,20.057039817350606],[99.55366234367895,20.05716876987858],[99.55558313260883,20.059024915939766],[99.5576830553107,20.060698910413333],[99.55994285111709,20.062175395400594],[99.56234179080637,20.063440824699132],[99.5648578668862,20.064483588236044],[99.56746799568059,20.06529411872486],[99.56766947395049,20.06534672752461],[99.56842625783406,20.06550890524465],[99.57042227621207,20.06629674136437],[99.57106355241412,20.06648348311007],[99.57112046706841,20.066643042994937],[99.57112333993736,20.06665074145581],[99.57139240042136,20.067341678832946],[99.5713954933442,20.067349300321002],[99.57169989946323,20.0680684965228],[99.57170322144616,20.068076031037833],[99.57201038641958,20.068747064888786],[99.57201392246226,20.068754512427915],[99.5723542401117,20.06944512748744],[99.57235799721938,20.069452480049964],[99.57270262941522,20.07010438683813],[99.57270659058878,20.07011163442085],[99.5730972834148,20.070801836964403],[99.57310146566061,20.07080897556756],[99.57348323890963,20.071440471701607],[99.5734876252247,20.071447506322194],[99.57391516052358,20.072111232524612],[99.5739197569154,20.072118143161312],[99.57428922693836,20.072659261601398],[99.57429320748501,20.072664942142765],[99.57435370294418,20.072751264558683],[99.57455781106508,20.073038511252133],[99.5745660202079,20.073049906357305],[99.57456711575223,20.073051401189375],[99.5746123092405,20.0734654993865],[99.57461302725798,20.073471059525144],[99.57476395486616,20.07448128121989],[99.57476489390679,20.07448681239217],[99.57493039938038,20.075368331088722],[99.57493128964529,20.0753726562468],[99.57509754070561,20.07612349398487],[99.57509856098919,20.076127797162002],[99.57533627682227,20.07705378402863],[99.57533783691076,20.077059426292752],[99.57563200386997,20.078046568033198],[99.5756337890021,20.07805215132803],[99.57578941759408,20.07850716078829],[99.57608421822363,20.08110827002741],[99.57668401212938,20.083793733409667],[99.57670223664113,20.083858821489976],[99.57775271869697,20.086880807832276],[99.57917068832548,20.089765730082775],[99.57921897205313,20.08985054811374],[99.5800298987611,20.091137761897166],[99.58001776712946,20.091144606684527],[99.58006601583804,20.091220930489946],[99.58022213217657,20.091442897317513],[99.58049316071181,20.091873103151226],[99.5806559356067,20.092107668393012],[99.58067944790695,20.09209310610365],[99.58159311339358,20.09339213004089],[99.58165035388645,20.093465587523294],[99.5828162969516,20.094863311246282],[99.58293974024119,20.095001695454496],[99.58568774812693,20.097683480182642],[99.58578400206542,20.097765304400454],[99.58867441333051,20.09992194207785],[99.58881267830252,20.10001212335727],[99.58941815168222,20.10039478995429],[99.58944559070768,20.100498195618027],[99.58951419358064,20.10071147896959],[99.58958397095553,20.100925238641327],[99.58958715347708,20.10093484716522],[99.58968176188257,20.101220409722526],[99.59081866266793,20.104076840880744],[99.59088356517567,20.1042156360738],[99.59092353500257,20.104449289739016],[99.59164648010454,20.10702974747294],[99.59263460609391,20.10953052506621],[99.59387834269539,20.111927370901302],[99.59536563921912,20.114197040227786],[99.59708208107759,20.116317520747295],[99.59901102931477,20.118268246273512],[99.60113378180392,20.12003029638635],[99.60342975455589,20.121586580134988],[99.6058766813812,20.122922001998756],[99.60845082996713,20.124023608486915],[99.61112723226695,20.124880713946748],[99.613879926957,20.125485004351763],[99.61668221159593,20.125830618056714],[99.61950690202438,20.125914202730534],[99.62232659647044,20.125734947911702],[99.62511394177935,20.125294592867842],[99.62784189916505,20.12459740968378],[99.6280914080734,20.124521004387663],[99.62825321125614,20.124475547804376],[99.62978763109824,20.123999685594764],[99.63008612123018,20.123898241326934],[99.63026245617458,20.123831174655763],[99.63128797232265,20.12375089714862],[99.63165312861494,20.123711948949094],[99.6343064406563,20.12330932793556],[99.63456527886254,20.123258205349916],[99.63787046249404,20.122408100814297],[99.63814442224087,20.12232074174588],[99.64090894530119,20.12128557590828],[99.64344803896522,20.12003361858267],[99.6434678101565,20.120032891076264],[99.64652815291565,20.119764688630266],[99.64954056098047,20.119188849632682],[99.65247046929372,20.118311981971377],[99.6552842609513,20.117144147481557],[99.65592219211162,20.116839891530635],[99.65850709373558,20.11544353757251],[99.66092485148512,20.11380166522582],[99.66314943097949,20.1119319583056],[99.66515688095728,20.10985455374756],[99.66692559119608,20.10759182448385],[99.6684365250808,20.10516813824961],[99.66864592344137,20.104735001097822],[99.67027045324805,20.103860922894818],[99.67123125483583,20.10321581938625],[99.67361981643126,20.102815599447684],[99.67457766309205,20.10261382780273],[99.67710049480688,20.10196712461996],[99.67946420354723,20.101250497353778],[99.68184849775757,20.100415819768553],[99.68414518563856,20.0993850016733],[99.68506669116807,20.098872380354017],[99.6851517272981,20.09885084842949],[99.68801890059471,20.097969912651248],[99.69077236379883,20.0968096001661],[99.69338170861481,20.095382726661974],[99.69581812074127,20.093705051458887],[99.69805469832525,20.091795103216004],[99.70006674915659,20.089673975040736],[99.7004541713356,20.08921961255551],[99.70125026042093,20.088179168718888],[99.70172063757094,20.087728162995425],[99.7036437027767,20.08543503191873],[99.70395831940098,20.085015161253388],[99.70423922291904,20.08464028252545],[99.70552191735652,20.08276987903111],[99.70663762288567,20.080806241201454],[99.70719464064648,20.079721047252658],[99.70738002087768,20.079359881674463],[99.70854630964425,20.07674790792652],[99.70941747468335,20.07403513336815],[99.70977858252513,20.072260670284024],[99.71002282457393,20.07196731943128],[99.711575468809,20.06965583486804],[99.71272537416127,20.067487314768385],[99.71443927567293,20.069575154224452],[99.71651637170488,20.071622005358922],[99.71748621152243,20.072482687778184],[99.71963215419916,20.07420771912421],[99.72194687221192,20.075725527070787],[99.72440803722925,20.077021468029848],[99.72593652074016,20.077735708529126],[99.72696082317873,20.078190806376824],[99.72853994590285,20.07885677980765],[99.72888496212887,20.078999723992478],[99.73087148744129,20.079808096292606],[99.73363465509513,20.080776739874928],[99.73648844541688,20.081472414861356],[99.73859681889061,20.081772918781592],[99.7399082728286,20.08293125080705],[99.74018788028165,20.083135632968226],[99.74172398510638,20.08458145201321],[99.74401728791662,20.086335736737876],[99.74648921933277,20.087858185251957],[99.74911362849531,20.089132689067732],[99.75186274908314,20.09014576288497],[99.75470749339111,20.09088668745967],[99.75540352329008,20.0910320428381],[99.75596355372525,20.091148994279777],[99.75910634765916,20.0916342947768],[99.76228671714118,20.091787539431003],[99.76370338661573,20.091781417478625],[99.76494964398576,20.091750436055673],[99.76681117885786,20.091665880391798],[99.7693135962709,20.091448099498695],[99.77178623339107,20.091024267628374],[99.77424042113503,20.090497746113723],[99.77469752275104,20.090399674964342],[99.77657084709566,20.08990856902189],[99.77774387740372,20.091425153034336],[99.77953851968195,20.09333741635603],[99.77999925092685,20.093743803782697],[99.78000583247284,20.093936786432476],[99.78044653959878,20.096863370202673],[99.78069528033275,20.09804770006057],[99.78139937732227,20.100694259825094],[99.7823816065352,20.103260528800362],[99.7836320252282,20.10572049538048],[99.785137970574,20.10804922432131],[99.78643916197655,20.109669099814354],[99.78766973657235,20.111398836740314],[99.78935927695666,20.113353058901005],[99.79001043689354,20.1140384549484],[99.79194130479713,20.11588478447471],[99.79251055971858,20.116379340669386],[99.79438582816803,20.117873891155707],[99.79638943106593,20.11921165141116],[99.79850671922102,20.120382838826362],[99.79909403361611,20.120676609358064],[99.79964312236318,20.120951258052813],[99.80193801859026,20.121978998880564],[99.80432015179251,20.12281104038959],[99.80606370112133,20.12333842852942],[99.80813082446065,20.123884065378046],[99.81023535037662,20.124282234374583],[99.81101839753072,20.1244018051032],[99.81198396626877,20.125006639299826],[99.81227736754198,20.125174636657768],[99.81258127768649,20.125348649314642],[99.81312031967511,20.12569612201947],[99.81515524399408,20.126893326014212],[99.81728888672687,20.127925912291772],[99.81740436257812,20.12797616051728],[99.81911501436323,20.128720512788522],[99.82135300640063,20.129588258203913],[99.82298775681002,20.130147269003317],[99.82350697266409,20.13059033273048],[99.82559325149903,20.132069134041636],[99.82781310495355,20.133362898250876],[99.82836575994827,20.133653096149583],[99.82888410693897,20.13392527604726],[99.82958449643279,20.134356180592057],[99.83110091363963,20.13522725897965],[99.8338635236838,20.13670560373211],[99.83481039310749,20.137179224474096],[99.83672744199184,20.13851225075355],[99.83912176717047,20.13986000532624],[99.84017731387706,20.140390321476836],[99.84249890212098,20.14143349801307],[99.84491004331296,20.142276256681928],[99.8473913834213,20.14291183271619],[99.84992300412746,20.143335124430486],[99.8508143764132,20.14344553755257],[99.85377060401949,20.143665778942974],[99.85673511378039,20.143596735356134],[99.85967624612627,20.143239144730725],[99.86256259166008,20.142596826497645],[99.86536332708954,20.14167664070463],[99.8680485448473,20.14048841462431],[99.87058957285439,20.139044837636444],[99.87108812317423,20.138727366210443],[99.87183622515201,20.139334973027562],[99.87406857273868,20.140824217475757],[99.87644082432276,20.142106143437676],[99.87719455000465,20.1424695904695],[99.87779351247518,20.14278245675559],[99.87856111051585,20.14316917466869],[99.8802094026707,20.14396950494416],[99.88050979778978,20.14411536110096],[99.88368606191163,20.14543480922322],[99.88700775104184,20.14638257427901],[99.88932640909873,20.146901997330925],[99.89067740902601,20.147255207494826],[99.89328667990007,20.147815134529754],[99.8948267997807,20.14807498723332],[99.89774979759478,20.148423072798032],[99.9006951834577,20.148486313438415],[99.90363191058299,20.14826404316186],[99.90652902372787,20.147758605458726],[99.908778301254,20.147135394070066],[99.91111769607029,20.148315809950013],[99.9113991546923,20.148442338987422],[99.91408184363179,20.149494562017434],[99.91686343939834,20.150285283702058],[99.91971543911659,20.150806401854588],[99.92004482990474,20.15085039307824],[99.92248167399107,20.15104596624092],[99.9232835230234,20.15180551937735],[99.92367035959506,20.152128741978785],[99.92554074265477,20.153563945496053],[99.92606901332407,20.15390403605038],[99.92641521184512,20.154292606692405],[99.92659715114611,20.15448249447721],[99.92941148396469,20.157044986714663],[99.9294895067212,20.157106920632234],[99.93115087662075,20.15833030824785],[99.93117524545917,20.15834693146756],[99.93346294668082,20.15975607670115],[99.93588215950896,20.160953480217593],[99.9384109722192,20.161928295906492],[99.93843435266167,20.1619361050217],[99.94109644340816,20.162690450717196],[99.94382333034903,20.163198107432937],[99.94658943660347,20.1634543140778],[99.94936881696856,20.16345666806162],[99.94939121580583,20.16345566173616],[99.9516628240928,20.163267968047077],[99.95170107046276,20.163263356011857],[99.95364802593357,20.162964045719278],[99.95372075055339,20.16295042797729],[99.95525822331668,20.162620847492157],[99.95528805286804,20.162613634119143],[99.9562032105622,20.1623604295857],[99.956877729789,20.162230623720017],[99.95689335912353,20.16222650895109],[99.95691604380387,20.162220531441527],[99.95969554886962,20.161341228432924],[99.96236555658582,20.16019879046781],[99.96489821354069,20.158805137111568],[99.96492704369467,20.158787350489952],[99.96733957322422,20.15711023139576],[99.96797330653162,20.157070616214135],[99.967998447718,20.157067599533313],[99.97061684528806,20.156636255607655],[99.97318174510424,20.155978009765175],[99.97319620316561,20.155973610968015],[99.97557598852762,20.155138149564436],[99.97672997031025,20.154619222095814],[99.97732022422444,20.154477631914155],[99.97739465287245,20.154455212840247],[99.97973281450645,20.15364375753002],[99.98052171403658,20.153293935011476],[99.98185311293417,20.152798727041574],[99.98420929740944,20.15167632129291],[99.98422464586967,20.151668153021586],[99.98704109701461,20.14995748227425],[99.98706238821529,20.14994282420902],[99.9895099243493,20.14805440327423],[99.99172270783497,20.14592327376604],[99.99367390996082,20.143575284759347],[99.99368832929292,20.143555813930266],[99.9950039384411,20.141600967601438],[99.99647734075356,20.139974986140178],[99.99799881940902,20.13794538614426],[99.99806950840218,20.13782993579728],[99.99845956868266,20.13791366943974],[99.99913310643315,20.13808541632472],[99.99942519436718,20.13814438308937],[99.99943025121537,20.138122040191117],[100.0003828510779,20.13832652344334],[100.00299443898926,20.138653143541802],[100.0051738900265,20.138735154119143],[100.00534229443868,20.13874765173788],[100.00535441753107,20.138747921694435],[100.00544791727236,20.138745463574317],[100.0056267389726,20.13875219097472],[100.00564064936891,20.138752110858736],[100.00584190176363,20.13874803195801],[100.00878005293903,20.13888485783627],[100.0088085808535,20.13888469459796],[100.01259922319792,20.13862530032621],[100.01261822633789,20.138622796769727],[100.01612488789029,20.137948014934572],[100.01614893850366,20.137941889773465],[100.01896416154243,20.137075485889866],[100.01969881738755,20.13676710335456],[100.02049988841357,20.13648789570953],[100.02051506529659,20.136481821677254],[100.02348238210196,20.135098536110934],[100.0235196526,20.13507855900528],[100.02547150433699,20.13393240106047],[100.02567416013156,20.13380248918473],[100.02608388779844,20.133534898304024],[100.02608850040392,20.133531829599953],[100.02637733560034,20.13334885940331],[100.02862296870475,20.131771064326195],[100.03069515175868,20.129994152054476],[100.03257417582788,20.12803502895439],[100.03424217176057,20.125912334254934],[100.03568328006189,20.123646262533935],[100.03688380155597,20.121258371425263],[100.03783232740956,20.118771376384583],[100.03851984729071,20.116208934473317],[100.03893983464746,20.113595419223685],[100.03908830831104,20.110955688731295],[100.03896386985578,20.10831484918422],[100.03856771637982,20.10569801607971],[100.03790362860437,20.103130075399186],[100.03752295661711,20.102104223641632],[100.03744472740028,20.101075472167118],[100.03743627580786,20.100988103195355],[100.03740512511551,20.1007396106008],[100.0374828695751,20.10028410241222],[100.03749688897314,20.100196710866438],[100.03759035377514,20.099563811731304],[100.03760218200779,20.099476179534157],[100.03768740443832,20.09877140256347],[100.03769543183878,20.098696315873315],[100.03777900546781,20.09774853329262],[100.03778947104412,20.097597954809537],[100.03783799773916,20.09664171224579],[100.03784041297881,20.09656629245679],[100.03785338067705,20.09583533648337],[100.03785368563354,20.095747302132132],[100.03784678479299,20.095057559261885],[100.0378447177975,20.094969516289012],[100.03782344087428,20.094366283351896],[100.03781929795399,20.094278275708195],[100.03778498447868,20.093692336371916],[100.03777882466409,20.093604417045693],[100.03772695472982,20.092975289162442],[100.0377186300649,20.09288752717382],[100.03764347792028,20.09219530962408],[100.03763270135886,20.092107205018138],[100.03754741962298,20.09147520264588],[100.03753445128268,20.091387341373416],[100.03744039870638,20.090797629704426],[100.03742538460418,20.090710041738635],[100.03731389185563,20.090103370821097],[100.0372967720297,20.090016108165983],[100.03716872453958,20.089402959523667],[100.03715090310187,20.089322516906076],[100.03703841613907,20.088837011187618],[100.03701902894852,20.088756858792788],[100.03688079327493,20.088211397498792],[100.03683848949,20.088051782202328],[100.03667292607581,20.087455917949697],[100.0366267790068,20.087297200177154],[100.03648494804303,20.08682609265379],[100.03646036081504,20.086747140968743],[100.03633615963356,20.086359061426048],[100.03631032767235,20.08628047290289],[100.0360868919165,20.085629814813196],[100.03602811573295,20.085465736794056],[100.03573952925782,20.084698288968177],[100.03564358888185,20.08445480888281],[100.03535431908129,20.083750838137615],[100.03528569343975,20.083590486281864],[100.03501876167833,20.082987771164287],[100.03498247343968,20.08290852995049],[100.034710786742,20.082333667575753],[100.0346726170839,20.082255359555578],[100.0342822332732,20.081486518272087],[100.03424152242398,20.081409471497953],[100.03373843339838,20.08050078126666],[100.03369600779497,20.08042755756493],[100.03324281309628,20.079674214162715],[100.03319790534647,20.079602265659144],[100.03281912288098,20.07901267418949],[100.03277225782962,20.07894177582663],[100.03228819028689,20.07823418369702],[100.03218977693798,20.078095115265434],[100.03171771081993,20.077448509455788],[100.03166639348481,20.077380352349405],[100.03130461986186,20.076910600568848],[100.03125179815905,20.07684353552467],[100.0308052393023,20.076291476541215],[100.03075065836384,20.076225763553804],[100.03017032126132,20.07554969914668],[100.03011356728864,20.075485711207282],[100.0294037325073,20.074715354628086],[100.02934386566739,20.07465280278447],[100.02873774736555,20.07403888157829],[100.0286757784772,20.073978031733407],[100.02804797503133,20.07338042321753],[100.02791983916875,20.073262180480096],[100.02738886122317,20.0727845668286],[100.02725731293616,20.072669230014643],[100.02680799984299,20.072283564589814],[100.02675457341807,20.072238671703452],[100.02656944129302,20.07176935014405],[100.02653611447293,20.071690013575342],[100.02615188651404,20.070819785254788],[100.02611555846859,20.07074137302163],[100.02571662891587,20.069918017222562],[100.02563817739338,20.069762994364236],[100.0253315261789,20.06917539185511],[100.02524886084035,20.069021699413142],[100.02508708327862,20.068725444242734],[100.02491750884955,20.068419540757265],[100.02483235323257,20.068267105069193],[100.02470374269227,20.06803864332358],[100.02454441827261,20.067759570198632],[100.02445702958599,20.067608619160993],[100.02411468410499,20.067033978968226],[100.02402382881824,20.066885722183557],[100.02353310804325,20.066114757281255],[100.02348531786349,20.06604242004384],[100.02294878226434,20.065260539882125],[100.02289855709529,20.065190032781565],[100.02211741345548,20.064147349862246],[100.02206386769224,20.06407933290869],[100.02103722855024,20.062850940906763],[100.02097918252203,20.062785466124108],[100.0200800697664,20.0618188479068],[100.02001865020779,20.061755895166623],[100.0193326826061,20.06107678379227],[100.0192687851288,20.061015679052684],[100.01876387264248,20.060544629102825],[100.0186981949412,20.060484853347468],[100.01820745659958,20.060048592997646],[100.01807269267654,20.059931577432685],[100.01766802687385,20.059586844211168],[100.01746171978824,20.0594144187711],[100.01726242589882,20.05924939809242],[100.01698475961408,20.059021615754748],[100.01675021485053,20.058831291794128],[100.01654010463541,20.058662645168038],[100.01608448189525,20.05830452396025],[100.01594317162504,20.058195766926385],[100.01542805164208,20.057808515648006],[100.01528535168029,20.057703741288048],[100.0147144082111,20.05729523334543],[100.0145691357111,20.05719396171242],[100.01398264085513,20.0567957795423],[100.01390874682815,20.05674693207243],[100.01336121213501,20.05639381676711],[100.01328618275943,20.056346620144176],[100.01262485681654,20.05594288152865],[100.01254785326097,20.05589727376154],[100.01199341014947,20.055577093071626],[100.01191528421357,20.05553311713164],[100.01135405462445,20.05522528080136],[100.01119557296619,20.055140602555596],[100.01073331672511,20.054898894552704],[100.01057304003444,20.0548168999936],[100.01021332405914,20.054635985283955],[100.00997097160884,20.05451617606003],[100.00955768154965,20.054315871418147],[100.00939481637326,20.05423850428903],[100.00878577684786,20.05395765210634],[100.00862112878275,20.053883988498328],[100.00771084841718,20.0534949148641],[100.00755005905239,20.053429352144803],[100.00683028980407,20.053146758110756],[100.00666764354958,20.053085334808568],[100.00605910097022,20.052863067343058],[100.00589503858714,20.05280516153072],[100.00515455071714,20.05255468042855],[100.00498895731008,20.052501073976227],[100.00484134542594,20.052456040546407],[100.0048413531668,20.052258578307118],[100.00483948345149,20.05217738122732],[100.0047871309066,20.051027338859832],[100.00478162036971,20.050946371353568],[100.00468024307786,20.04982247176579],[100.00467118181736,20.049741871809744],[100.00455464084851,20.048847132294178],[100.00454665846472,20.048793252955424],[100.00443856881913,20.048124546599954],[100.00441974236763,20.04801707635122],[100.00424709895194,20.04712452260612],[100.00422944896494,20.04704118396614],[100.00405580840034,20.046278499459753],[100.00403558978951,20.046195518187265],[100.00384578280703,20.04546323527795],[100.00382309961043,20.045380706348215],[100.00359891474135,20.0446117249352],[100.00357364403267,20.04452977135393],[100.00330851165033,20.043717568668672],[100.0032800743261,20.04363506851547],[100.00305230246092,20.043000976273582],[100.00302167362138,20.04291904739437],[100.00278962181024,20.042320811036895],[100.0027241891006,20.042158067782513],[100.00255143878367,20.041738912346563],[100.00248305778652,20.041576980436915],[100.00241369348646,20.041414251310986],[100.00210078677317,20.04068696481253],[100.00205120999881,20.040572482579673],[100.0019810385407,20.040411491865953],[100.00181894237377,20.040047166557322],[100.00174657768444,20.03988778207004],[100.00149018626595,20.039339863213073],[100.00145234850861,20.03926135913376],[100.00115709231227,20.038667908391623],[100.00111745520606,20.03859067948148],[100.00066829349224,20.037752815236562],[100.00062611133606,20.03767739854687],[99.99994323831501,20.036525320615596],[99.99989752052537,20.03645241319406],[99.99885496745966,20.034910904058137],[99.99880441161801,20.034841434926072],[99.99737432964679,20.033041262610336],[99.9973169822398,20.03297499381325],[99.99695503641983,20.032584720404827],[99.99697751764775,20.03255808279848],[99.99700523996817,20.032522660348917],[99.99803877983253,20.031110583174883],[99.99807701737382,20.031054632271132],[99.99903310771604,20.02955099579472],[99.99906804478904,20.02949179121],[99.99987788385877,20.028014596588925],[99.99990934262519,20.02795262840307],[100.00064284053474,20.026382078907513],[100.00067038208074,20.026317658225274],[100.00138460964641,20.024453495170437],[100.00141185983641,20.024373325564742],[100.00198719780295,20.02243663695396],[100.00200829875652,20.022353928268707],[100.00240084827688,20.020547689589797],[100.00241650095136,20.020460759770952],[100.00261753123279,20.01915200946515],[100.00262877739273,20.019063690349693],[100.00266798450423,20.018698959746317],[100.00272215158206,20.018323004461386],[100.00273342981706,20.01823507833803],[100.00284188932314,20.01723444851548],[100.00284973531387,20.017145881942234],[100.00290412247854,20.01641244883562],[100.00290944233119,20.016323409668857],[100.00291941572799,20.016104645044233],[100.00295144697995,20.016064325237505],[100.00305774622883,20.015926593977408],[100.00349231281936,20.01534775824065],[100.00359493254416,20.015207206271953],[100.00396525253333,20.01468723978172],[100.00406445794906,20.014544407113032],[100.00452816473592,20.01385430958306],[100.00462274849976,20.013708742357633],[100.00507124119295,20.012994162636282],[100.00511720856403,20.01291829663213],[100.00546325366456,20.012329168415977],[100.00575280986473,20.01187953576365],[100.00590204373887,20.011645144288583],[100.00596772221607,20.011540799119242],[100.00598305930357,20.01151763135923],[100.006285716378,20.01104999420427],[100.00639779519857,20.010872819658495],[100.00676720113361,20.010271478606036],[100.00704118398109,20.009811996752504],[100.00742335499373,20.009149692031748],[100.00750461804775,20.009004077317993],[100.00784280596302,20.0083785689454],[100.00788318494823,20.008301433592692],[100.00816212095968,20.00775319136109],[100.00823919587609,20.007597245108187],[100.00860211200525,20.00683232217439],[100.00867402554645,20.006674245581795],[100.00899723864413,20.00593381365381],[100.00903069679906,20.005853834190233],[100.00936421210729,20.005016421381452],[100.00942123087283,20.004865757799067],[100.00971383246883,20.004052157297693],[100.00976581615885,20.003899724433722],[100.00996294904708,20.00329779410431],[100.01001120200901,20.003144157785627],[100.01016206741664,20.002643484615742],[100.010244979966,20.00239696199425],[100.01029813574006,20.00223439300409],[100.0105384331905,20.001458662662728],[100.01058704469997,20.001292591355003],[100.01079028917063,20.000558406877325],[100.01085580375262,20.000307452531512],[100.01101305577954,19.9996723371178],[100.01105242392256,19.99950424521227],[100.01116631237515,19.99899483531213],[100.01118426074905,19.998910561126994],[100.01128205138389,19.998428916947297],[100.01129836359131,19.998344454016596],[100.01141510341024,19.99769547614541],[100.01142922042229,19.997610786558642],[100.01155952038225,19.996736772694852],[100.01157070117506,19.996651782572503],[100.01168593239083,19.99561269795909],[100.01169327471902,19.99553140841724],[100.01175575443182,19.99468275714253],[100.01176039965749,19.994601202032516],[100.01179515556497,19.993730581929896],[100.01179890389722,19.993566930597694],[100.01180424516548,19.99271443444426],[100.01180169264694,19.992468295751383],[100.01178548475963,19.99178481647666],[100.01177636242313,19.99153869782375],[100.0117354363293,19.990757098870734],[100.01172436506651,19.990593518882903],[100.01165900392827,19.989807413421985],[100.01165096649274,19.989725935315253],[100.01156418733004,19.9889631475225],[100.01155372412373,19.9888819947864],[100.01141201260208,19.987925179681152],[100.0113972954986,19.98783725264554],[100.0112458301831,19.9870146117859],[100.01122824044494,19.98692708017265],[100.01109580573667,19.986307529262852],[100.0110760423077,19.986220321962538],[100.01096149053046,19.985736497497868],[100.01094002336436,19.985649565438433],[100.0107861959671,19.985056853209127],[100.01073910635172,19.98488385066487],[100.01050117062489,19.984063277610225],[100.01044837513085,19.983891801829717],[100.01017921982324,19.983066796140868],[100.01014996820358,19.982981956117136],[100.00980349270374,19.98203662402163],[100.0097476833994,19.981892977247018],[100.00931662967658,19.980850510207357],[100.00925460500194,19.980709184144956],[100.00890264649989,19.979940960157144],[100.0088693498151,19.979871254369435],[100.00858254036909,19.979289296761397],[100.00854750920581,19.97922036014757],[100.00820363604817,19.978566380272497],[100.00816333882324,19.978492264341455],[100.00785564892432,19.97794198085042],[100.00781353728456,19.97786871507965],[100.00747487236795,19.97729612982509],[100.00738683835384,19.977151427597686],[100.00699181926224,19.976521947177513],[100.00685350242514,19.97630816280522],[100.00647177648855,19.97573439988947],[100.0063758353237,19.975594115218726],[100.0059067921703,19.974929944695955],[100.0058025783075,19.974786981805725],[100.00533717987608,19.974167309007274],[100.00522460138791,19.9740217768654],[100.00497346795673,19.973702086103142],[100.00485858839491,19.973558067057336],[100.00472370476842,19.973390329560264],[100.00418847212696,19.972730066879716],[100.00365620596907,19.972066340999326],[100.0035061165412,19.971880846256933],[100.00338959369407,19.97173811426222],[100.00299550182758,19.97126628962953],[100.00287630043148,19.97112678464969],[100.00228330863389,19.970455247125685],[100.00222179098562,19.970387822625867],[100.00207608338502,19.97023367796695],[100.00202007555964,19.96997751118153],[100.00200297586906,19.96991126828291],[100.00140079889626,19.96791400357401],[100.00137845830453,19.9678494023657],[100.00060904593279,19.965884956054985],[100.00058612003353,19.96583271472308],[99.99973048226953,19.964064866289466],[99.99970361551411,19.964014237361443],[99.9985176675548,19.961998235325673],[99.9984715793235,19.961927184852467],[99.99722510922167,19.96016423413],[99.99717274316502,19.960096097054677],[99.99620692451435,19.958909722672058],[99.9961500470757,19.95884371080451],[99.99544100703228,19.958052215307877],[99.99538095375199,19.957987721546946],[99.99470954926741,19.957291449089624],[99.99458359786153,19.95716530670559],[99.9940622323365,19.95665662991701],[99.9938667662001,19.956470839927547],[99.99363557049475,19.956253572747425],[99.99343786343468,19.956069876711354],[99.99318320434779,19.955836175576472],[99.99305049307368,19.955715885100027],[99.99249853445737,19.955228609646678],[99.99236377378827,19.95511274391486],[99.99154445094474,19.95443471801783],[99.99147553923873,19.95437983995459],[99.99056198563983,19.953682059490255],[99.99049141811258,19.953630381188958],[99.9891449070538,19.952702207914683],[99.98907200312928,19.952654959228106],[99.98710710337491,19.951489087545127],[99.98703098453863,19.951447883229033],[99.98598539017782,19.950946502022603],[99.98563237879331,19.95049034964993],[99.98552112150752,19.950351067099316],[99.98492005060588,19.94962462035238],[99.9848620920219,19.949556975635268],[99.98423109608326,19.948845774177],[99.9841707995701,19.948780129492967],[99.9833672509388,19.94794133226005],[99.98330419473629,19.947878209571478],[99.9826184301827,19.94721483369324],[99.98255304605522,19.94715371198008],[99.98204078376646,19.946686587510808],[99.98197369941958,19.946626915764476],[99.98159855279754,19.94629912805143],[99.98153024601092,19.946240502272715],[99.98117020849052,19.945936677949675],[99.98103128197528,19.945821413317663],[99.98069696198235,19.94554831604968],[99.98034434711309,19.945264729770106],[99.98015948649468,19.945117323225745],[99.97980430593054,19.94483651879136],[99.97935047014353,19.944485112502473],[99.97913393248054,19.944320916567847],[99.97845454582867,19.943821405941172],[99.97830656888489,19.943715938710422],[99.97782380018262,19.94337928604088],[99.97759832314249,19.943225469348512],[99.97723330964169,19.94298053622028],[99.97700530897956,19.942830058243292],[99.97664412174558,19.942595538574373],[99.97649055385489,19.94249745072104],[99.97600969975952,19.942196927561834],[99.97585940052944,19.942105032988085],[99.97547967933929,19.941878005915004],[99.97525113697732,19.94172918980847],[99.97502704702369,19.941585713028775],[99.97461652933313,19.94132771158198],[99.97446554597748,19.941234581153925],[99.97407348062686,19.940997014135284],[99.97399726288785,19.94095165230018],[99.97335617639975,19.940581102917605],[99.97320145430568,19.940494285833054],[99.97233162287037,19.940025431676162],[99.9722628225874,19.939989837615492],[99.9714568508063,19.939588463151054],[99.97131691360283,19.93952143752547],[99.97025351933485,19.939037843296337],[99.9701018359496,19.938972462503468],[99.96923042722395,19.938613233015715],[99.96907267801687,19.93855112478967],[99.96651464407128,19.937235058924717],[99.96540640444843,19.936736883942473],[99.9626220343114,19.935650899111195],[99.95973256561147,19.934847153499057],[99.9586790283335,19.934610167387074],[99.9565338223473,19.93420868405201],[99.95596895677542,19.934123994247326],[99.95576712953267,19.933783209286506],[99.95568046521811,19.93364289273551],[99.95512684663824,19.932783563722698],[99.955034201235,19.932645588630955],[99.95447446807844,19.931843747297417],[99.95437697765828,19.93170933047288],[99.9538325687004,19.930984488042338],[99.95378170492835,19.930919065716193],[99.95327113949506,19.93028224653847],[99.95321843157427,19.93021847926478],[99.95252260547784,19.92940923011069],[99.95246753667305,19.929347643874955],[99.9514975884358,19.928317256101135],[99.95143944210979,19.92825856386629],[99.95016248124104,19.92704845037615],[99.95009579585938,19.9269891205813],[99.94893142625521,19.92600824727703],[99.94886125056097,19.925952292340927],[99.94793518804904,19.92524447882252],[99.94786237262997,19.92519114973128],[99.94711085905371,19.92465913496357],[99.94703601662572,19.92460793871761],[99.94638819342755,19.924177552015458],[99.94631172481891,19.92412822661312],[99.94569721097209,19.92374269741007],[99.9456193301071,19.923695189838764],[99.94496399285757,19.92330716580893],[99.94488474774737,19.92326164003661],[99.9441153668201,19.922834988155795],[99.94403465954844,19.922791814125848],[99.94318239466635,19.922353729810293],[99.943110548058,19.922318274760148],[99.94233817722407,19.9219510280095],[99.94226520626687,19.92191762570318],[99.9415158828587,19.921587151687117],[99.94144190649278,19.921555746119125],[99.94066132218688,19.921237425922303],[99.94058635939808,19.92120809507079],[99.93974205152374,19.92089245476732],[99.93965916329854,19.92086289394666],[99.93870011320095,19.920539144323655],[99.93853193408128,19.920485536869084],[99.93776985551153,19.92025377729819],[99.93759985336504,19.920204543178674],[99.93744463021237,19.92016076366191],[99.93736093152816,19.920078307402136],[99.93729577819518,19.92001670970142],[99.93669172196617,19.919462148610055],[99.93662438156146,19.9194021168925],[99.93618783274269,19.919020950183356],[99.93611893199632,19.91896202944284],[99.93562858218756,19.91855222734857],[99.93541664313314,19.91837913602178],[99.93514375243407,19.91815906801177],[99.93421186444034,19.917417027709416],[99.9340932185718,19.917323068435877],[99.93394943766641,19.91720982678551],[99.93359993848792,19.916938944556993],[99.93345468753802,19.916828164736508],[99.93294744060245,19.9164501360047],[99.93287376230143,19.916396487965404],[99.93232329788741,19.916005538800047],[99.93224850429235,19.915953735612455],[99.93146093724961,19.915427272292224],[99.93138457762254,19.915378028879726],[99.93026518838255,19.914691681352377],[99.93018668205,19.91464596359325],[99.92876603314733,19.913870769958553],[99.92868355448475,19.91382869181443],[99.928043458472,19.913520298856234],[99.92794177780794,19.912822972400917],[99.92793896487967,19.912805890957646],[99.92778987857949,19.91198392236875],[99.92778650771947,19.91196691200765],[99.92767668589063,19.911441443191222],[99.92767109167369,19.911416000227206],[99.92756776187144,19.910965312745514],[99.92756171072645,19.91093996284625],[99.92741339368983,19.910349471396685],[99.92740896299608,19.910332670185614],[99.9271679922306,19.90947847294392],[99.92716324277879,19.909462675766136],[99.92686825725397,19.908543714927816],[99.92686320304979,19.908528917778575],[99.92661059161932,19.90782269592406],[99.92660510951394,19.907808036827962],[99.92632916603675,19.90710153951738],[99.92632325403703,19.907087026472446],[99.92595235205908,19.906221280401216],[99.92594552808774,19.906206108476297],[99.92570907916244,19.905695065319744],[99.92570550122302,19.905687543875004],[99.92549389283359,19.905252994682066],[99.92548646003782,19.90523807882078],[99.92517679848049,19.904636050276963],[99.92516898380511,19.90462132245241],[99.92484827714782,19.90403483258866],[99.92484418437145,19.904027566193008],[99.92454107230512,19.9035034151373],[99.92453681358559,19.90349623975552],[99.92413346297138,19.90283843257551],[99.92412857926604,19.902830719268824],[99.92366834034584,19.902128330489884],[99.92365806911418,19.9021131759119],[99.92329387673134,19.901589508934496],[99.9232639553762,19.901431623087564],[99.92326067964596,19.901415343705498],[99.92312820718236,19.90079634157648],[99.92312460456472,19.90078046123829],[99.92297779833127,19.900168008490887],[99.92297388782838,19.900152528192855],[99.92282632221483,19.899594616683228],[99.92281993555218,19.899571513807807],[99.92264587476241,19.898970208912328],[99.9226412433924,19.89895490271214],[99.92244906740329,19.898346782967014],[99.92244368093887,19.898330437880052],[99.92227205993801,19.8978269990083],[99.92226060915557,19.897794497920508],[99.92217903199614,19.897566339046744],[99.92216139292535,19.897517717972722],[99.9221137106113,19.897387365481936],[99.92210476310761,19.897363104960597],[99.92198302899058,19.89703963254584],[99.9219737615663,19.897015492063023],[99.92179848048126,19.89657106459431],[99.921795243377,19.896563071117548],[99.92160375102345,19.896102826153058],[99.92159674982602,19.89608643926975],[99.92142069764762,19.89568372224493],[99.92141341552443,19.89566743639297],[99.92131264246706,19.89544484195649],[99.92130148734608,19.895420502703704],[99.92124402909208,19.895295990858756],[99.92122145692174,19.89524740938138],[99.92115951839061,19.895115060926802],[99.92114809734518,19.895090831702262],[99.92103374812143,19.894851371717102],[99.92102597013942,19.894835291917726],[99.92083330705475,19.894445207256897],[99.92082519413744,19.894429115494635],[99.92062594312944,19.894041853603333],[99.92061749227994,19.894025754877475],[99.92048201972193,19.89377105303068],[99.92046475513443,19.893739014613313],[99.92041047319606,19.893638796892027],[99.92030603093826,19.893446953466636],[99.92026848952158,19.893378236905683],[99.92024660413043,19.89333831716223],[99.92015801214141,19.893178032655225],[99.91984285639701,19.892612439604903],[99.91980256330108,19.89253306571569],[99.91976536289202,19.89246006391937],[99.91974888010138,19.89242784142317],[99.91953768461673,19.892023581246853],[99.91952486089733,19.89199954017081],[99.91925452455263,19.891506389425906],[99.91921910978014,19.89143227671209],[99.9192041099324,19.891401148029157],[99.91914435196016,19.891277951238507],[99.91911781731181,19.891223606322438],[99.91898794530749,19.890961308686506],[99.9189801904606,19.89094586187071],[99.91888487426134,19.890758965894523],[99.91852062885665,19.889947816467036],[99.91832048895016,19.88952986743228],[99.9181092777662,19.889098883513117],[99.91786189123698,19.888605456434387],[99.91772790741787,19.88830821213577],[99.9176962219914,19.88823790472217],[99.91751508344666,19.887853859211617],[99.91702945343208,19.886558563911656],[99.91581564365791,19.88412114427193],[99.91435208576819,19.88180974004036],[99.91265324507346,19.879647180423785],[99.91073590867383,19.87765482373305],[99.90872516678637,19.875942729977343],[99.90975764802315,19.874616402014656],[99.91091532780615,19.872971977111604],[99.91102509143336,19.87281488140059],[99.91143491609623,19.872223877235747],[99.91316310107653,19.86936734040366],[99.91442202867528,19.866537224383933],[99.91601890395391,19.864245066165548],[99.91654657283702,19.86430700280916],[99.91711929512762,19.86433501362967],[99.91931838445672,19.86436258426708],[99.92151322668813,19.864230460213268],[99.92202007267983,19.864181407698727],[99.92516017708884,19.863709700937704],[99.92609152362304,19.863519134983527],[99.9284946320648,19.86292314547328],[99.92957246966387,19.862607983914067],[99.93169985105222,19.861897966039127],[99.93282611967008,19.861474186351128],[99.93415514195019,19.860936990735905],[99.93531366147626,19.860435644000052],[99.93749667516647,19.859381870221366],[99.93957648790648,19.858155416950055],[99.94128756540958,19.857047508307065],[99.94343971717099,19.85550833507549],[99.94524286957937,19.854087685083012],[99.94662146121993,19.85292840729695],[99.9474689573085,19.852168135861977],[99.94757725575735,19.85207047341756],[99.94824814876269,19.851462293911236],[99.9487290961479,19.850973733947],[99.95117517324925,19.84990560303463],[99.95355317678754,19.848591620774837],[99.95578681977841,19.847067648130007],[99.95785546050953,19.845347772004526],[99.95973998428212,19.843447889547363],[99.9614229800646,19.8413855610445],[99.96288890131295,19.83917984744715],[99.96344284712539,19.838249957415528],[99.96429024888383,19.836714744886326],[99.96476336358414,19.83578648641796],[99.96541192486954,19.834418530071495],[99.96563664204173,19.833907127519733],[99.96575577545995,19.83368251554965],[99.96644916833974,19.83227615969652],[99.96696847915379,19.83113899281146],[99.96714700318948,19.83073930882302],[99.96738949762117,19.830184051636966],[99.96821297871676,19.828048956303547],[99.96884453683201,19.825856081152406],[99.96927973944996,19.823620844637773],[99.96928702369702,19.823572024434384],[99.97035401219019,19.823889152265025],[99.97035807375114,19.823890637786555],[99.97196651287994,19.824427402544053],[99.97235846850242,19.82454590992952],[99.97252439424463,19.824595551933264],[99.97273137038238,19.82465682138789],[99.97415238412478,19.82503968133694],[99.97436149797025,19.825090542177687],[99.976148058414,19.825467908747925],[99.97636149427332,19.825506259565675],[99.97885306800846,19.82584736814703],[99.97904000149772,19.825865064751316],[99.98315829000559,19.825973104792837],[99.98327255323508,19.825968314173128],[99.98592789944738,19.825739410805873],[99.98854923518942,19.825277804938718],[99.98862605889705,19.825260740661157],[99.99135673542867,19.82451717227522],[99.99196155048342,19.82428894551646],[99.9923642955488,19.824228828278574],[99.99240381276115,19.824221587823544],[99.99487357910553,19.82366050174824],[99.99728109017516,19.822894540224635],[99.99960740798099,19.82192972918374],[100.00183423422371,19.820773658671605],[100.00223666746697,19.820518403293267],[100.00268266539655,19.82032877427583],[100.00420287753063,19.819485933377724],[100.00444509083181,19.819364681398447],[100.00482122478704,19.819159472212114],[100.00564545869545,19.818692182547696],[100.0059598128464,19.818507111191526],[100.00877551683406,19.81661754348662],[100.00898693165634,19.816456700194006],[100.01076948765895,19.81498167045894],[100.01092169285201,19.814844811867147],[100.01322497533658,19.81251467310974],[100.01333973138762,19.812383933449137],[100.01366602392581,19.81195614711888],[100.01522383366226,19.810227490954446],[100.01531216916146,19.810118338189003],[100.01686265268849,19.808001132931913],[100.0169508301731,19.807867587693984],[100.01818279524123,19.80580657202142],[100.01921998216825,19.803651653489666],[100.01939541053332,19.80324044236536],[100.01938510516689,19.803236504005902],[100.02014831603223,19.801286862821126],[100.02017411303494,19.80121083746062],[100.02036490546823,19.800625955275002],[100.02039073317954,19.800543486939123],[100.02060682359901,19.79975927124318],[100.02075556362693,19.799333266886613],[100.02133090911562,19.796933030822807],[100.02163901887592,19.795896236479507],[100.02177175674488,19.795127911089715],[100.02229335407792,19.794481180148246],[100.02369981712204,19.7923551091886],[100.02474472549467,19.79039275928604],[100.02489332347547,19.790239410437923],[100.02497075271823,19.790150939224795],[100.02625558997431,19.788567603552877],[100.0262843128537,19.788529370991448],[100.02752671624872,19.786728343890307],[100.02861431914653,19.78483973471464],[100.02864497061853,19.784781083705518],[100.02870448550509,19.784646103574705],[100.02937663729448,19.783435671701717],[100.02938066725787,19.783427751173825],[100.02998023432276,19.782168216763175],[100.0299838561638,19.782160059286767],[100.03037340498106,19.781235504840758],[100.03037672573942,19.78122718240477],[100.03064261568952,19.780532295901157],[100.03064571138883,19.780523847496482],[100.03092163820133,19.779731654129552],[100.0309272894846,19.77971454839742],[100.03098488925454,19.779538092948055],[100.03110708976183,19.779159161774267],[100.03120534543362,19.7788943713519],[100.03120785318183,19.778886550028094],[100.03136790617596,19.778285970168124],[100.03142421516527,19.778119700152416],[100.03142665987605,19.77811172983847],[100.03160472932618,19.777464769941865],[100.03163767273972,19.777362347383136],[100.03164250117591,19.777346516763625],[100.03180418588667,19.7767882866668],[100.03251472514067,19.775438733073205],[100.03341981826684,19.773270522903086],[100.03342513202941,19.773255994209126],[100.03423590681444,19.77061176366327],[100.03475912723123,19.76790331093936],[100.0347612794867,19.767887734724006],[100.03497555255635,19.765561721950416],[100.03497634450572,19.765544657960795],[100.03498578934233,19.76338972448962],[100.0349273931165,19.762657599133345],[100.03492580478569,19.762488029459025],[100.03492558500155,19.762483603528427],[100.03479871361061,19.760908649229776],[100.0347982218447,19.760904242340946],[100.03461853717222,19.75974794874182],[100.03457259825616,19.75941255633282],[100.03648319356263,19.758233083930296],[100.03699859291433,19.757866408942316],[100.03767690781314,19.757368591133638],[100.03799270369697,19.75712956648777],[100.04006283514227,19.755401418061435],[100.04126622612283,19.75418262788462],[100.04169082036807,19.753882777384543],[100.0427887377418,19.75307576603607],[100.04498651621032,19.751284207589585],[100.04698153707331,19.749291311268106],[100.04875333119747,19.74711753287682],[100.05028372293171,19.744785183872967],[100.05155701641907,19.742318202160718],[100.05256015634927,19.73974190622336],[100.05328286151489,19.737082735125433],[100.05371772981742,19.734367977061183],[100.05386031366591,19.73162548924128],[100.05370916501722,19.72888341199665],[100.05326584962016,19.726169880034966],[100.05253493034276,19.723512733812775],[100.05152391977818,19.720939233981934],[100.05123825035027,19.72031136393588],[100.05102621334261,19.719846083262368],[100.05085365307906,19.719442635835357],[100.04911449747144,19.716068892338185],[100.04874293392234,19.71545920666414],[100.04756108721644,19.713682615416936],[100.04623760460643,19.711997974755988],[100.04576474352363,19.711442368732758],[100.04415686917028,19.709709514358035],[100.04239927765657,19.708112382620808],[100.04210834398135,19.707869658417675],[100.03968163255368,19.70606040644598],[100.03936742882884,19.70550371119423],[100.03875396769058,19.704656095780546],[100.03877531557474,19.704218358815332],[100.03877407234046,19.7040257985411],[100.03860898518036,19.701279604372207],[100.03815090493343,19.698563391602367],[100.03809454502243,19.698311898110628],[100.03735890973635,19.69568527887223],[100.0372701162234,19.695461563949724],[100.03726395219789,19.693631785393364],[100.03697834839707,19.690978731593],[100.0364189024733,19.688365094566823],[100.03559104152757,19.685816168016295],[100.03450278918075,19.683356618285742],[100.03316468749291,19.6810102457815],[100.03312771089624,19.680958350295555],[100.03327631679113,19.679629122684346],[100.03328833896143,19.67889989505102],[100.0335848134685,19.67800091453598],[100.03412156578449,19.675669581245902],[100.03414024806291,19.675566916141655],[100.03416818549034,19.67539910869202],[100.03427203533977,19.674966839055273],[100.03461103131885,19.672637191136413],[100.034618296358,19.67256386857754],[100.03474298533503,19.669866217423575],[100.03474256263459,19.669800267012093],[100.03460857728345,19.667339593831258],[100.0342392866854,19.664900609168374],[100.0336377522018,19.66250346247746],[100.03280895322554,19.66016795672445],[100.03277755789821,19.66009122278563],[100.03196919209897,19.65830773052681],[100.03183982161681,19.658048330268283],[100.03101508326928,19.656521628310774],[100.03099165925677,19.656481453711706],[100.02971167713727,19.65449304617247],[100.02825628798689,19.652616052653567],[100.02821421532524,19.65257056102213],[100.02764361204956,19.65146170858622],[100.02624523348271,19.64938198814394],[100.02625981740546,19.6493727888757],[100.02616069811032,19.649231748293783],[100.02598334890507,19.648992496158165],[100.02589837758524,19.64886612070632],[100.02566400519089,19.648557697403028],[100.0256620421208,19.64855903634828],[100.02534366714998,19.64812952871028],[100.02526186142953,19.648024799293967],[100.02317016705342,19.645644384204513],[100.02306701451273,19.645539774068492],[100.02184728364055,19.644375501072442],[100.02175071786955,19.644288740410634],[100.01951247046244,19.642475602283053],[100.01746607010986,19.641136488542145],[100.01650617424325,19.63841209275212],[100.01639330888513,19.63814458875693],[100.01541583256245,19.63608186741444],[100.01426034734298,19.634103496967608],[100.0129348967646,19.632223238721725],[100.01261900031788,19.631813224794545],[100.01190237766923,19.630922335496845],[100.01151354167678,19.630459111687966],[100.01125654950343,19.63014873812256],[100.00885750083522,19.62759984827184],[100.00856268186881,19.62732377961459],[100.00828802404767,19.62706659274515],[100.00791477487694,19.62672338215807],[100.00763018309557,19.626466410693276],[100.00737773400128,19.626241211334463],[100.00703220037497,19.62593669484967],[100.00488350885733,19.624221547401568],[100.00256767294135,19.622714344752538],[100.00224308929717,19.62252462012053],[99.99921343815635,19.620983754053146],[99.99888915313775,19.620841903590666],[99.99687864077718,19.620048943819214],[99.99481031290051,19.619403176561235],[99.9942940214699,19.619262378545404],[99.99118931563352,19.61859044649403],[99.99067337584019,19.61850709544154],[99.98845572811823,19.618232846377122],[99.98782880590136,19.61817882674208],[99.98578747587658,19.618083660235847],[99.98512780551461,19.616143226014056],[99.98511985583843,19.6161234892924],[99.98395111165456,19.61361160370032],[99.9825203018593,19.611224599594195],[99.98084210741644,19.608986951074105],[99.980477042674,19.60859186097201],[99.98021383799137,19.60825282936832],[99.97820061911365,19.60615850834894],[99.97818881027017,19.60614744464336],[99.97628539241518,19.604517411223746],[99.97423555630789,19.603055521672406],[99.97205578670795,19.60177353035802],[99.96976361181585,19.600681745004618],[99.96974922466424,19.60067564184733],[99.9670417382285,19.599680145898272],[99.9642417194993,19.598949908037575],[99.96358030684908,19.598844256483765],[99.96102538206283,19.5980918325313],[99.95986394435484,19.597869007916348],[99.95986617015299,19.597859681891958],[99.95950251576113,19.597781730037998],[99.95935277478682,19.59774966294131],[99.9572975243897,19.597383796865998],[99.95718399403489,19.59736763272528],[99.9552962716443,19.59715935827054],[99.95517862130723,19.59715011896761],[99.95235255728947,19.597061068353465],[99.95225474465528,19.597062570419524],[99.9496847912123,19.59721185679808],[99.94958182501776,19.59722226238452],[99.94751525409995,19.597503713584345],[99.94739673769394,19.597524062497396],[99.94461250189802,19.598139697935963],[99.9445532744161,19.5981557900234],[99.94382484390091,19.598385458795097],[99.94306220565511,19.598267562516728],[99.94295783491056,19.598254735905204],[99.94084610240543,19.59807032736233],[99.93985154693647,19.59805360694805],[99.9396584532548,19.59799474461781],[99.93953158281585,19.597962662936155],[99.9384127975133,19.59773408647021],[99.93586742552426,19.59683442929906],[99.93312180443513,19.596148680499685],[99.93053197430723,19.595756638397933],[99.93011874804152,19.595533183645976],[99.92998036766008,19.59546850255614],[99.92791969839558,19.594599273031687],[99.92579318562059,19.593886602621236],[99.92568062138704,19.59385354815841],[99.9253046909858,19.593757947754085],[99.92433610797401,19.593399295509887],[99.92427685466326,19.593380912044907],[99.92144576170388,19.592652548095863],[99.91855085751914,19.592202788350466],[99.91562257778662,19.592036361979424],[99.91269170868598,19.59215501932596],[99.90978906371372,19.59255751350441],[99.90972801218015,19.592569036257277],[99.90686123351513,19.59325783145506],[99.90408479225209,19.59422344900682],[99.90155704526623,19.595395884313884],[99.9007069226677,19.595175727971068],[99.90063975925135,19.59516092793483],[99.89761026108499,19.59465428488994],[99.89454088024445,19.594458860335337],[99.89445462371293,19.594457773945567],[99.89104414085618,19.594607910823623],[99.89091802345007,19.59462064292346],[99.88836515103858,19.594989446911388],[99.88826622638769,19.59500810228706],[99.88660921121998,19.59536940923239],[99.88647840951839,19.59540183729386],[99.88521815029665,19.59576008415092],[99.88368338580175,19.596124944905487],[99.88150605970716,19.596822852756134],[99.88143432392572,19.596848934373675],[99.88042818130818,19.59727681354313],[99.87745755115274,19.59791301245635],[99.87740012945491,19.59792843168356],[99.8750120165257,19.59867866824241],[99.87270267525315,19.599624842860177],[99.87048996455964,19.600759639386542],[99.87044696921745,19.600784064784133],[99.8698697583258,19.601120846931966],[99.86981880928789,19.6011513685166],[99.86804990188972,19.602301204815458],[99.86802576765615,19.60231955712152],[99.86466001003359,19.604421804203426],[99.86462062387828,19.60445037638387],[99.86256595589302,19.606091507689452],[99.86068280877886,19.607908084301744],[99.86064945150493,19.607943440456605],[99.8580925779014,19.611089886552886],[99.85805928952865,19.611137729368366],[99.85676002627858,19.613198061358332],[99.85673153640226,19.613248149655774],[99.85566818140738,19.615324717339398],[99.85479507158176,19.617479470748993],[99.85477854442843,19.617526099568785],[99.85383427002695,19.62089342016537],[99.8538280228888,19.620923325895617],[99.85296620121407,19.621572050011515],[99.85291520813463,19.62161486667746],[99.8505799217667,19.62381569968161],[99.84852700541023,19.626256257235617],[99.84850469400159,19.626286163471747],[99.84726168118273,19.62810195177036],[99.84724296501632,19.628131841367633],[99.84714386613645,19.6283126739309],[99.84595920101339,19.629916130582465],[99.84477694614982,19.631833108081043],[99.84475447737371,19.631873226150436],[99.84373697175876,19.633885929792207],[99.84362190486759,19.634171790656108],[99.84271870747617,19.63599788070977],[99.84171636375453,19.63876943451467],[99.84103552903302,19.641627286604432],[99.84102716999463,19.6416740026147],[99.84096340737295,19.64227807160119],[99.8397688597979,19.64563463259593],[99.83975734501693,19.645676177104015],[99.83921685469699,19.648056813684935],[99.83890402352412,19.650473795867942],[99.83889961195642,19.650527907536926],[99.83884100265934,19.652065850552628],[99.83872748145363,19.654069559501227],[99.83889767948364,19.657004888467963],[99.83891078292142,19.65711819224433],[99.83908034962465,19.658330944885535],[99.83909408149768,19.658414606543452],[99.83938953265869,19.65992967113333],[99.83939673248585,19.65996149943161],[99.83970468914757,19.66099386527971],[99.83991265536055,19.661991865872515],[99.84057668682864,19.66418650080032],[99.84059097892003,19.664227183149432],[99.84084878963749,19.664855882486194],[99.8412105828352,19.666019094036972],[99.8412208939743,19.666046461705495],[99.84146554351265,19.6666144203399],[99.8403549377362,19.6670033224607],[99.83775307321169,19.66821020286865],[99.835293309727,19.669660062171246],[99.83300085034475,19.67133804779589],[99.83296427327366,19.671367739023786],[99.8309430596745,19.673176969132747],[99.82972670444201,19.674499999444524],[99.82893229542145,19.675304095029],[99.82889355935322,19.67534749945895],[99.82732995594492,19.677267509816343],[99.82595370589173,19.679312182153392],[99.82477582600266,19.681465160138657],[99.82380574737891,19.683709220344024],[99.82379256913327,19.68374407458769],[99.82325024726848,19.685564258504016],[99.82234077250413,19.685903502189323],[99.8194765070932,19.687345500883005],[99.8192510511085,19.68747503081865],[99.81670935790589,19.68911855401572],[99.81436861616505,19.69101103350462],[99.81225588786302,19.693130596362565],[99.81224123734937,19.693148884561126],[99.81213101077661,19.693187567404458],[99.81212959254242,19.693184009265583],[99.81199499713094,19.69323213516399],[99.8119443543804,19.693253072286733],[99.81161028799093,19.69337030837335],[99.81112836017081,19.6935625608512],[99.8111388267604,19.69358609720484],[99.80934154697417,19.694329119057365],[99.80681863899807,19.695674347873997],[99.80445208083698,19.697254063160237],[99.80226608308455,19.69905210765643],[99.8017136439824,19.699608707774125],[99.80102359765132,19.699963747718925],[99.80046911079825,19.700320426152942],[99.79904428619278,19.700607316230723],[99.79630550091136,19.701438158239416],[99.79366853388639,19.702525053360173],[99.79115999530437,19.703857034877128],[99.78880520128251,19.70542066270975],[99.78662791859537,19.70720015884551],[99.7846501249339,19.709177566353475],[99.78289178711042,19.711332930383968],[99.78137065944513,19.713644499338308],[99.78010210437195,19.716088944188385],[99.77909893708079,19.71864159374278],[99.77837129577593,19.721276683493816],[99.77792653887468,19.72396761554169],[99.77776917020319,19.726687226978658],[99.77780936751702,19.727518178578755],[99.77772710775946,19.727720295804595],[99.777406829358,19.728605269808334],[99.77668195238387,19.730946940263436],[99.77618237440245,19.733340845682868],[99.77591215325911,19.735767590329665],[99.7758798105265,19.736277161381995],[99.7758568199556,19.739114251287766],[99.7761471244023,19.741938076909207],[99.77619642761533,19.742248233963306],[99.77601079604936,19.742437353807734],[99.77509680009601,19.743603207641787],[99.77368037353047,19.745063184999967],[99.77233956465811,19.746674471151596],[99.7722446283602,19.746797891380627],[99.77204876494571,19.74705567878437],[99.77198611430816,19.747139163965944],[99.77185979965101,19.74730885683227],[99.77181424258056,19.747370559123627],[99.77018927817976,19.74984460600018],[99.77016085253169,19.74989356926869],[99.76887276397746,19.752412092641688],[99.7678657211088,19.755042910878604],[99.76715046668262,19.757757996491005],[99.76714299949073,19.75779421054734],[99.76673926635237,19.760440261595313],[99.76661279666648,19.763111094241783],[99.76676483437333,19.76578073113024],[99.76719391443427,19.768423205265385],[99.76720172747012,19.768459347674987],[99.76722062886728,19.768528621080332],[99.76719328341339,19.768836941441414],[99.76719260483878,19.76884578138843],[99.76714616696998,19.769593506082714],[99.76714532580463,19.76961122505809],[99.76712131258819,19.770328822023245],[99.76712114000334,19.77033768805008],[99.76711645076682,19.7709310046372],[99.76711648318403,19.77093986869625],[99.76712879557647,19.77164639455707],[99.76712907199958,19.771655253654355],[99.76716693712714,19.772461703281188],[99.76716744369843,19.772469779409576],[99.76722023061737,19.773161624476828],[99.76722095620006,19.77316969563912],[99.76730781981806,19.773988598282774],[99.76730978702591,19.77400468368597],[99.76743054028404,19.774852487786436],[99.76738705119753,19.774903703290942],[99.76733691951301,19.774960151620416],[99.76618149206764,19.776350873727104],[99.76609694273431,19.77645977405293],[99.76598769423481,19.776596291368026],[99.76421348908579,19.779093278080136],[99.76311625104015,19.780239534230464],[99.76279922431874,19.78061814279663],[99.76244172504735,19.781111978946555],[99.76230050443546,19.78125913783357],[99.76168523616026,19.78194879892811],[99.76070246558719,19.78297400406515],[99.76021093807314,19.78353443334554],[99.75878212657437,19.785307052137387],[99.75751201158184,19.787184814080923],[99.75714813471568,19.78777487562661],[99.7562734580734,19.789313090689426],[99.75616544833194,19.789308276004142],[99.75523739483077,19.789199569595404],[99.75516703371407,19.789194689018156],[99.75402789402158,19.789137231935282],[99.75375898760174,19.789128746858708],[99.7536442677162,19.78912534468526],[99.75329719955073,19.789115710367724],[99.75329692459722,19.78912458466374],[99.75220291741883,19.78909746526088],[99.75212567349902,19.789097789779568],[99.7521010469165,19.789097894072682],[99.7517999220164,19.789100667920923],[99.75172567457619,19.789101721335143],[99.74965118202734,19.78920245510001],[99.7495949323887,19.78920712701859],[99.74780717859946,19.789409380050767],[99.74775406419813,19.789416998514408],[99.74447505978277,19.790075077384227],[99.74443446879133,19.79008560649536],[99.74235411446621,19.79070676158234],[99.74032972273191,19.791475970320587],[99.7403031968921,19.791487177511247],[99.7379377679811,19.79261342519607],[99.73569229963341,19.793941610803767],[99.73358598050375,19.79546038649683],[99.73163681185773,19.79715677563747],[99.73161969268148,19.797173119723755],[99.72998021173888,19.798877536120514],[99.7297470871822,19.799165686543027],[99.72933684510832,19.799484791107986],[99.72880316096233,19.798981092113255],[99.7286478477913,19.798848606378126],[99.72603735758447,19.796870489596284],[99.72320112550831,19.79519380642833],[99.72306139629738,19.795121573592418],[99.7213410294533,19.794121002157983],[99.71885466183996,19.792971531771325],[99.71770426062646,19.792564523035324],[99.71755012665729,19.792410588944463],[99.71536462774263,19.7906273760427],[99.71300070661754,19.789061331868975],[99.71293648357907,19.789023197071934],[99.71100541118855,19.78797327997751],[99.70899401555442,19.787068540860083],[99.70887529415528,19.7870204007604],[99.70692609082649,19.786340070115813],[99.70651384712576,19.786118643656174],[99.7049925441234,19.78535826451012],[99.70243819417091,19.784229992774836],[99.69977907219906,19.783344841450123],[99.6970409274932,19.78271138178354],[99.69425027346809,19.78233574785115],[99.69143413129841,19.782221577232836],[99.68861976866563,19.782369975826217],[99.68583443613282,19.78277950713833],[99.6831051036805,19.78344620615839],[99.68045819993574,19.78436361767915],[99.67791935660156,19.785522858698762],[99.6755131605447,19.78691270430396],[99.67326291592835,19.788519696208994],[99.67119041868175,19.79032827290661],[99.66931574548278,19.792320920178955],[99.66765705929244,19.79447834051957],[99.66623043332417,19.796779639834632],[99.66504969515607,19.799202529624313],[99.66412629250287,19.801723542694386],[99.66384525220109,19.802833290203044],[99.66236495685393,19.803298690358737],[99.66215497773545,19.80337318291555],[99.65933091901988,19.80454268214178],[99.65665595775067,19.805992614400658],[99.65416106825253,19.807706193204098],[99.65187514273144,19.809663578992062],[99.65175876266215,19.809774577979248],[99.64989246509695,19.81182705123233],[99.64939402910723,19.81208509651538],[99.64909874234162,19.812255715496217],[99.64580104011942,19.814478335685944],[99.6455448111853,19.814678294683574],[99.64515598456794,19.815008017402455],[99.64610867807262,19.81399245815068],[99.6463683791387,19.8136952139907],[99.64813135802808,19.811450979378392],[99.649640618346,19.80904678096938],[99.64969961645512,19.808940690991538],[99.64987349956384,19.808651920247176],[99.65092074728113,19.806739940873072],[99.65140309095923,19.80576650451891],[99.65147251319195,19.805625346714976],[99.65184762065002,19.804856866821417],[99.65229087201268,19.803821160644773],[99.65313552066176,19.803335320104942],[99.65324634991602,19.803262099901414],[99.65499966131678,19.802006330582756],[99.65513600033242,19.80190065082418],[99.65720542639652,19.800130385775052],[99.65908305688747,19.798177967445476],[99.66075108480129,19.79606192000232],[99.66083181790991,19.795948354722466],[99.6617804127128,19.794477028759395],[99.66181056776863,19.794442967299926],[99.66318903971465,19.7925915073653],[99.66345666383867,19.792198115944164],[99.66375956176367,19.79171186048046],[99.66507542291409,19.79001219170143],[99.66513038056677,19.789932344653064],[99.66662116424865,19.787499029207854],[99.66678418359575,19.787155067367884],[99.66755714490078,19.78576595498332],[99.66856912344414,19.783450926959286],[99.66888062796257,19.782497284805693],[99.67003068912142,19.78036174134141],[99.6700884579689,19.780231779470366],[99.67088260831822,19.778227192074322],[99.67150715870413,19.776169530387314],[99.67155039303714,19.77600249656208],[99.67185291897218,19.77469480363728],[99.67190139939567,19.774457325297718],[99.67224912586134,19.772284556995718],[99.67226185955903,19.772175226553216],[99.67243412303064,19.76909656466166],[99.67243376583355,19.76901144715199],[99.67243359820512,19.76897154879777],[99.67237873706354,19.76739864991426],[99.67236112257959,19.767130198039183],[99.67233835925164,19.766813289922755],[99.6722943548396,19.766249481673217],[99.67226274583308,19.766251692707055],[99.67213388073279,19.76467050421659],[99.67212367379311,19.764595608180233],[99.67158982816237,19.761823101216223],[99.67075486102407,19.75911803998618],[99.67042828953497,19.758362250914708],[99.6703995983772,19.758211496583506],[99.66950702384167,19.75535940081665],[99.66828980357235,19.752617052479025],[99.6667626062896,19.75001746379668],[99.6667294240407,19.749967629336037],[99.6653333277993,19.748057496930603],[99.66376968118905,19.746267521039627],[99.66204996620529,19.744610839779938],[99.66199369948214,19.744561089787926],[99.65948093465745,19.74258108074107],[99.65674622716992,19.740885143759314],[99.65382521967724,19.73949537954232],[99.65377236954593,19.739473717652512],[99.65102428225777,19.738502358331722],[99.64818567700311,19.737802292656063],[99.64528633626377,19.737380865937716],[99.64522365875152,19.7373748466388],[99.6427709231991,19.737239607267025],[99.64031497184536,19.73730394497235],[99.63898602339715,19.7374473687602],[99.63879962925202,19.737362045217786],[99.63869834142993,19.737313317949003],[99.63823347461114,19.737069300298195],[99.63557151226935,19.73583790289326],[99.63278944315319,19.734873530695463],[99.62991704515956,19.734186505749065],[99.62698506165026,19.733784181580955],[99.62402487286059,19.73367086459229],[99.6210681605379,19.73384776801705],[99.6181465693732,19.734312998937646],[99.61611970284885,19.7347388683866],[99.61252629788352,19.735731146883573],[99.61114985884164,19.736205657828773],[99.60869838632905,19.737174939651734],[99.60858941931252,19.737229758560034],[99.60755113870964,19.737277638368912],[99.60747596018832,19.737284082971353],[99.60533036386066,19.737545702007274],[99.60321174374519,19.737959946165475],[99.6031039421107,19.737985078677895],[99.60105350424453,19.738540555326296],[99.59905240696844,19.739238989758753],[99.59896425509025,19.73927333918759],[99.59652048867763,19.740355708126742],[99.59419513110504,19.741651037658677],[99.594074429261,19.74172573602827],[99.59359174802684,19.742054240846763],[99.59348506672146,19.74210859575153],[99.59336549728674,19.74217344589406],[99.59327967105962,19.742198998045573],[99.59303476345362,19.742286497596165],[99.59053793682762,19.743309325968262],[99.5901886746435,19.743471462764887],[99.58966894056785,19.743718967955953],[99.58938171800104,19.743859226448553],[99.58807405372906,19.744539192499182],[99.58795005008108,19.744607712369472],[99.58564924340685,19.74602315288238],[99.58350205365991,19.747640590066606],[99.58329993435329,19.747808424973485],[99.58087793293761,19.75007452747535],[99.57950233205597,19.751710537826323],[99.57916831157266,19.75184220500352],[99.57848169060338,19.75213378968155],[99.57814512629704,19.75227919570794],[99.57757813628116,19.752528353071863],[99.57641369928335,19.753032968802696],[99.5746074111062,19.753889931395246],[99.57399727198822,19.754205367822433],[99.57342988928804,19.75450666823411],[99.57327503652466,19.754591103609265],[99.5725935887348,19.75495109585848],[99.57187835319486,19.75519377531024],[99.56974253436931,19.756111499145916],[99.56918314608708,19.7563785289743],[99.56642925918814,19.757880066024548],[99.56580810592764,19.758312043306862],[99.56543569965794,19.758426810533706],[99.56268683844439,19.759588571425667],[99.56008194848607,19.761017088897784],[99.55964987560753,19.761283690932054],[99.55842499622457,19.762083142498266],[99.55813121801344,19.76228573965187],[99.55771598634267,19.762556613333377],[99.55590678400152,19.763839377129457],[99.55528689640477,19.764316165565816],[99.55478208241914,19.764697064023302],[99.55353516489065,19.765694205001818],[99.5531316745086,19.766035987902036],[99.55284477203368,19.766271420520148],[99.55284998758992,19.766277116800694],[99.55142526206768,19.767446383410224],[99.549539442115,19.769320755667984],[99.54919685112186,19.76969557023382],[99.54737045011973,19.771917084363945],[99.54579719657492,19.774305903748278],[99.54449406187724,19.776836277064643],[99.54438029378102,19.777089820424436],[99.54338635355239,19.77965771378676],[99.54267075528013,19.782307333537922],[99.54258298661102,19.782717535677996],[99.54217345785052,19.785233694745475],[99.54201507645337,19.7877751224158],[99.54200502911543,19.788570906285678],[99.54200313092181,19.788981689915328],[99.54200553773127,19.78969303625464],[99.54200851535661,19.790573175097826],[99.54200967957668,19.79091718505431],[99.541979909215,19.79138357181717],[99.54192792109873,19.793105347103282],[99.54192987861352,19.79368407092084],[99.54201987557875,19.795746424266138],[99.5420889345526,19.796568345632085],[99.5423753635685,19.798800750656394],[99.54243814402793,19.799163563401482],[99.54245160893238,19.799408670756613],[99.54246595193926,19.799649154407224],[99.54248864240361,19.800001751494428],[99.54251165363654,19.80032707961056],[99.54251937903112,19.800427256652043],[99.54252264159364,19.800479797764286],[99.5429690185383,19.80391104302202],[99.54300546681458,19.804094045414203],[99.54333106418048,19.80551759232863],[99.54338189049797,19.805714118881014],[99.54416712476032,19.808220222968483],[99.54507577906793,19.810343976260228],[99.54572994644957,19.812626617457294],[99.5458055489506,19.81284482757808],[99.54581749063017,19.812879285789773],[99.54669968885328,19.815093457902744],[99.54744872327656,19.81656880784109],[99.54716678116776,19.81775820572005],[99.54712320387844,19.817967938284447],[99.54676395677369,19.819342910581675],[99.54637693743621,19.82169173237745],[99.54634840451482,19.821934368948533],[99.54620753443668,19.82359521631687],[99.54619744283475,19.823788534569626],[99.54620948117707,19.82667727573393],[99.5462208767225,19.826865440345202],[99.54644446700902,19.829031090816635],[99.5464719814921,19.829219206911596],[99.54703265836163,19.83198531603225],[99.54766008579712,19.833950140688508],[99.54756898813953,19.834166259795218],[99.54744277859493,19.834516293234152],[99.54685285436014,19.836365492554442],[99.54674232532994,19.836762576255758],[99.54607912888345,19.839875147804896],[99.54601412153342,19.840310523495102],[99.54599636847983,19.84043138415119],[99.54590923953349,19.841034496092224],[99.54565387109244,19.84404093576872],[99.54564260918698,19.844475012884946],[99.5456860787394,19.846774457598915],[99.54571300568728,19.847196362670964],[99.54593843560934,19.84932636668938],[99.54632141548562,19.851331466210198],[99.54621065220076,19.853114746168398],[99.54624685227456,19.855159421064105],[99.54626209314628,19.855423868616246],[99.5465590136714,19.858108186523534],[99.5471365875511,19.860751263858216],[99.5472164349901,19.86104264521017],[99.547289135915,19.86125376699113],[99.54733271587924,19.86210190864649],[99.54735498742511,19.862325647113746],[99.54780360272595,19.865186715940958],[99.54783274210672,19.865322265007386],[99.5488445834027,19.86881515654318],[99.54892418172035,19.869031931206155],[99.5490878567569,19.869391112546907],[99.54888847840986,19.87173215550529],[99.54887698138783,19.87209389427503],[99.54901133129015,19.8750145348722],[99.54807011532382,19.8772524043935],[99.54791862940591,19.877674856267326],[99.547086195456,19.88048532211613],[99.54657795614321,19.883364159168035],[99.54654079847512,19.883677748675126],[99.54636472459205,19.88635547152115],[99.54638903681503,19.886978744799055],[99.54625498746191,19.887879315458047],[99.54507574723176,19.888306164354447],[99.54282380937875,19.889342722279736],[99.54067610458264,19.89056127715401],[99.54039629265709,19.89073619721421],[99.53797129232433,19.892432019120516],[99.53574805094387,19.894359475337875],[99.53375118573587,19.896497230730034],[99.53338929816887,19.896978351848954],[99.53306453425081,19.89713317040191],[99.53041984379368,19.89856551580108],[99.52992374496579,19.898868410253794],[99.5292082098463,19.899319806700642],[99.528933684615,19.89949867688051],[99.52862347453983,19.899693233760356],[99.52840332604326,19.899832695422667],[99.52764015989405,19.900320997384927],[99.52599221050758,19.90145830038771],[99.52539458508224,19.901902402235574],[99.52448968720952,19.90260354659857],[99.52407015867216,19.902942372133683],[99.5211666394,19.905647701589874],[99.52077287105557,19.906070841091225],[99.519427481007,19.907629588347287],[99.51820801122923,19.90927842353706],[99.51804308375114,19.909520038087884],[99.51690684288282,19.9113359817598],[99.5159233510637,19.913230006132597],[99.51570812873807,19.913688789369427],[99.51464001860775,19.916329023818246],[99.5141674034276,19.91800178642926],[99.51235737834672,19.920397739245715],[99.5120909891159,19.920808438166812],[99.51119127206312,19.922299493114735],[99.51088705953083,19.92284292293197],[99.51065622921463,19.923310757181543],[99.51060581423522,19.92339256793194],[99.51032690157108,19.923875637361068],[99.5103431301181,19.923884018234215],[99.5089262396485,19.926535035905985],[99.50883446345618,19.92673800015598],[99.50858696889259,19.927349218969397],[99.5064181164618,19.929348659716158],[99.50610361919212,19.92967509003471],[99.50527406143691,19.930575154310976],[99.50508827937344,19.930785920890624],[99.5032080184955,19.93317440191378],[99.50307951413963,19.933357876275995],[99.50212706737283,19.934815824863986],[99.50204858930603,19.9349449073794],[99.50078854857416,19.93726999828132],[99.49977100466981,19.93969898996223],[99.49900541830146,19.94220932582364],[99.49896292083952,19.942378991890024],[99.49843079139664,19.945128739787126],[99.49841128072981,19.94536529954346],[99.49794419604191,19.945705163298147],[99.4974403160745,19.945649101553077],[99.4972114189892,19.945633097404194],[99.4970079630252,19.945619559749066],[99.49675560098,19.945603620505175],[99.49453310576942,19.94554494005312],[99.49231248286517,19.945649275729913],[99.49210715939154,19.945666489117794],[99.4917604082016,19.945709431763227],[99.49035288634596,19.945342441733622],[99.48988074276515,19.945241343716507],[99.4889721304508,19.945061355700556],[99.48891497430243,19.945050943924034],[99.48862035325018,19.944877821435973],[99.48838792573737,19.94475411803268],[99.48467142679881,19.943095662240065],[99.48435394565085,19.942979496529286],[99.48212112372264,19.942260869725374],[99.4798334049068,19.94171821238815],[99.47939225916686,19.941631636162533],[99.47747036355764,19.94131850960131],[99.47702931221869,19.941261178633543],[99.47580568351997,19.941127376932926],[99.47532600069928,19.941084775400352],[99.47256426819132,19.940966085901294],[99.47223941166777,19.940966949629697],[99.46924043050646,19.94112368651156],[99.46627523566038,19.941576233489887],[99.46591191893904,19.94165032917314],[99.46309288387589,19.942369050424315],[99.46036574235156,19.94335514747883],[99.45775877028406,19.94459839707805],[99.4552989994984,19.94608590958974],[99.45505968181465,19.946247436207777],[99.45290237285961,19.947856436327072],[99.45091781433685,19.949653307736536],[99.45009815270413,19.950552798711097],[99.44940548211106,19.950881940704598],[99.44719803586591,19.951720371724356],[99.44685750899502,19.95187112300909],[99.44422401312134,19.953199136960947],[99.44175074685486,19.954778799365528],[99.44147440114654,19.954975852701963],[99.44042309874835,19.955593331621383],[99.44034369549125,19.95563848225867],[99.43739304959601,19.95756029424002],[99.43667313559888,19.95809484195525],[99.43495171354655,19.959480129130792],[99.43335103126556,19.960989324430287],[99.4329704340625,19.961377635257275],[99.43228480295306,19.962102828457752],[99.43165102220449,19.962797874725904],[99.43001937102012,19.964763575880554],[99.42858603949892,19.966862963953208],[99.42789187184654,19.967990549916813],[99.42656664667396,19.97041648255222],[99.42550620512057,19.97295613871974],[99.42472131540526,19.975583760714407],[99.42421995233224,19.97827269736472],[99.42400721587397,19.980995674243683],[99.42408527886543,19.983725070253673],[99.4244533643625,19.986433197783153],[99.42510775291916,19.98909258359469],[99.42573648017394,19.99083167705578],[99.42583525596433,19.99127424974314]]]}}
]}
