{"type": "FeatureCollection", "features": [{"type": "Feature", "properties": {"osm_id": 93026769, "exposed_to_flood": false, "amenity": ""}, "geometry": {"type": "Point", "coordinates": [99.8802836, 20.4435798]}}, {"type": "Feature", "properties": {"osm_id": 105136156, "exposed_to_flood": false, "amenity": "bus_station"}, "geometry": {"type": "Point", "coordinates": [99.8822229, 20.4049083]}}, {"type": "Feature", "properties": {"osm_id": 105265493, "exposed_to_flood": false, "amenity": ""}, "geometry": {"type": "Point", "coordinates": [99.879918, 20.4469212]}}, {"type": "Feature", "properties": {"osm_id": 105265494, "exposed_to_flood": false, "amenity": ""}, "geometry": {"type": "Point", "coordinates": [99.8793321, 20.4467744]}}, {"type": "Feature", "properties": {"osm_id": 105569577, "exposed_to_flood": false, "amenity": ""}, "geometry": {"type": "Point", "coordinates": [99.8827855, 20.4046659]}}, {"type": "Feature", "properties": {"osm_id": 105569578, "exposed_to_flood": false, "amenity": ""}, "geometry": {"type": "Point", "coordinates": [99.8828682, 20.4041434]}}, {"type": "Feature", "properties": {"osm_id": 105569579, "exposed_to_flood": false, "amenity": ""}, "geometry": {"type": "Point", "coordinates": [99.8847341, 20.4048266]}}, {"type": "Feature", "properties": {"osm_id": 105569580, "exposed_to_flood": false, "amenity": ""}, "geometry": {"type": "Point", "coordinates": [99.8828278, 20.4050929]}}, {"type": "Feature", "properties": {"osm_id": 105569581, "exposed_to_flood": false, "amenity": ""}, "geometry": {"type": "Point", "coordinates": [99.8816134, 20.4052114]}}, {"type": "Feature", "properties": {"osm_id": 105569582, "exposed_to_flood": false, "amenity": ""}, "geometry": {"type": "Point", "coordinates": [99.8824279, 20.4055376]}}, {"type": "Feature", "properties": {"osm_id": 105569583, "exposed_to_flood": false, "amenity": ""}, "geometry": {"type": "Point", "coordinates": [99.8820486, 20.4055537]}}, {"type": "Feature", "properties": {"osm_id": 105692247, "exposed_to_flood": false, "amenity": "police"}, "geometry": {"type": "Point", "coordinates": [99.8010782, 20.2670753]}}, {"type": "Feature", "properties": {"osm_id": 105706543, "exposed_to_flood": false, "amenity": ""}, "geometry": {"type": "Point", "coordinates": [99.8830173, 20.4513354]}}, {"type": "Feature", "properties": {"osm_id": 105706554, "exposed_to_flood": false, "amenity": ""}, "geometry": {"type": "Point", "coordinates": [99.8788017, 20.4473405]}}, {"type": "Feature", "properties": {"osm_id": 105706571, "exposed_to_flood": false, "amenity": ""}, "geometry": {"type": "Point", "coordinates": [99.8834152, 20.4511227]}}, {"type": "Feature", "properties": {"osm_id": 106085056, "exposed_to_flood": false, "amenity": ""}, "geometry": {"type": "Point", "coordinates": [99.8813825, 20.4298975]}}, {"type": "Feature", "properties": {"osm_id": 106085057, "exposed_to_flood": false, "amenity": ""}, "geometry": {"type": "Point", "coordinates": [99.8823497, 20.4293824]}}, {"type": "Feature", "properties": {"osm_id": 106085059, "exposed_to_flood": false, "amenity": ""}, "geometry": {"type": "Point", "coordinates": [99.8805638, 20.4299213]}}, {"type": "Feature", "properties": {"osm_id": 106085061, "exposed_to_flood": false, "amenity": ""}, "geometry": {"type": "Point", "coordinates": [99.8827045, 20.4294676]}}, {"type": "Feature", "properties": {"osm_id": 106085062, "exposed_to_flood": false, "amenity": ""}, "geometry": {"type": "Point", "coordinates": [99.882441, 20.4298451]}}, {"type": "Feature", "properties": {"osm_id": 106085063, "exposed_to_flood": false, "amenity": ""}, "geometry": {"type": "Point", "coordinates": [99.8804538, 20.4296609]}}, {"type": "Feature", "properties": {"osm_id": 106085064, "exposed_to_flood": false, "amenity": ""}, "geometry": {"type": "Point", "coordinates": [99.8832078, 20.4281139]}}, {"type": "Feature", "properties": {"osm_id": 106085065, "exposed_to_flood": false, "amenity": ""}, "geometry": {"type": "Point", "coordinates": [99.8813512, 20.4296442]}}, {"type": "Feature", "properties": {"osm_id": 106085169, "exposed_to_flood": false, "amenity": "bank"}, "geometry": {"type": "Point", "coordinates": [99.8838943, 20.4373085]}}, {"type": "Feature", "properties": {"osm_id": 106085170, "exposed_to_flood": false, "amenity": ""}, "geometry": {"type": "Point", "coordinates": [99.8854203, 20.4360498]}}, {"type": "Feature", "properties": {"osm_id": 106085171, "exposed_to_flood": false, "amenity": "place_of_worship"}, "geometry": {"type": "Point", "coordinates": [99.8846143, 20.4365345]}}, {"type": "Feature", "properties": {"osm_id": 106085323, "exposed_to_flood": false, "amenity": "police"}, "geometry": {"type": "Point", "coordinates": [99.8810986, 20.440911]}}, {"type": "Feature", "properties": {"osm_id": 133805314, "exposed_to_flood": false, "amenity": ""}, "geometry": {"type": "Point", "coordinates": [99.8756882, 20.4532705]}}, {"type": "Feature", "properties": {"osm_id": 135170805, "exposed_to_flood": false, "amenity": ""}, "geometry": {"type": "Point", "coordinates": [99.8847657, 20.3369356]}}, {"type": "Feature", "properties": {"osm_id": 135170806, "exposed_to_flood": false, "amenity": ""}, "geometry": {"type": "Point", "coordinates": [99.8846619, 20.337237]}}, {"type": "Feature", "properties": {"osm_id": 136602665, "exposed_to_flood": false, "amenity": ""}, "geometry": {"type": "Point", "coordinates": [99.8847179, 20.4158548]}}, {"type": "Feature", "properties": {"osm_id": 136602666, "exposed_to_flood": false, "amenity": ""}, "geometry": {"type": "Point", "coordinates": [99.8845534, 20.4163852]}}, {"type": "Feature", "properties": {"osm_id": 136602667, "exposed_to_flood": false, "amenity": ""}, "geometry": {"type": "Point", "coordinates": [99.8844713, 20.4148193]}}, {"type": "Feature", "properties": {"osm_id": 136602671, "exposed_to_flood": false, "amenity": ""}, "geometry": {"type": "Point", "coordinates": [99.886284, 20.41484]}}, {"type": "Feature", "properties": {"osm_id": 136602672, "exposed_to_flood": false, "amenity": ""}, "geometry": {"type": "Point", "coordinates": [99.8879792, 20.4148651]}}, {"type": "Feature", "properties": {"osm_id": 222735500, "exposed_to_flood": false, "amenity": "place_of_worship"}, "geometry": {"type": "Point", "coordinates": [99.8330006, 20.3242687]}}, {"type": "Feature", "properties": {"osm_id": 222735519, "exposed_to_flood": false, "amenity": "place_of_worship"}, "geometry": {"type": "Point", "coordinates": [99.8257575, 20.3279162]}}, {"type": "Feature", "properties": {"osm_id": 222735521, "exposed_to_flood": false, "amenity": "place_of_worship"}, "geometry": {"type": "Point", "coordinates": [99.8258642, 20.3276145]}}, {"type": "Feature", "properties": {"osm_id": 222735527, "exposed_to_flood": false, "amenity": ""}, "geometry": {"type": "Point", "coordinates": [99.8260717, 20.3275044]}}, {"type": "Feature", "properties": {"osm_id": 222735533, "exposed_to_flood": false, "amenity": "place_of_worship"}, "geometry": {"type": "Point", "coordinates": [99.8256164, 20.32744]}}, {"type": "Feature", "properties": {"osm_id": 222739913, "exposed_to_flood": false, "amenity": ""}, "geometry": {"type": "Point", "coordinates": [99.8143954, 20.2861638]}}, {"type": "Feature", "properties": {"osm_id": 222739914, "exposed_to_flood": false, "amenity": ""}, "geometry": {"type": "Point", "coordinates": [99.8146457, 20.2857806]}}, {"type": "Feature", "properties": {"osm_id": 222739916, "exposed_to_flood": false, "amenity": ""}, "geometry": {"type": "Point", "coordinates": [99.8141057, 20.2866251]}}, {"type": "Feature", "properties": {"osm_id": 222739917, "exposed_to_flood": false, "amenity": ""}, "geometry": {"type": "Point", "coordinates": [99.8138619, 20.2859468]}}, {"type": "Feature", "properties": {"osm_id": 222739926, "exposed_to_flood": false, "amenity": ""}, "geometry": {"type": "Point", "coordinates": [99.8095588, 20.287285]}}, {"type": "Feature", "properties": {"osm_id": 222739927, "exposed_to_flood": false, "amenity": ""}, "geometry": {"type": "Point", "coordinates": [99.8113511, 20.2896057]}}, {"type": "Feature", "properties": {"osm_id": 222739930, "exposed_to_flood": false, "amenity": ""}, "geometry": {"type": "Point", "coordinates": [99.8140882, 20.2860368]}}, {"type": "Feature", "properties": {"osm_id": 222739933, "exposed_to_flood": false, "amenity": ""}, "geometry": {"type": "Point", "coordinates": [99.8118835, 20.2864164]}}, {"type": "Feature", "properties": {"osm_id": 222739939, "exposed_to_flood": false, "amenity": ""}, "geometry": {"type": "Point", "coordinates": [99.8142969, 20.285377]}}, {"type": "Feature", "properties": {"osm_id": 222739943, "exposed_to_flood": false, "amenity": ""}, "geometry": {"type": "Point", "coordinates": [99.8147227, 20.2856599]}}, {"type": "Feature", "properties": {"osm_id": 222740811, "exposed_to_flood": false, "amenity": ""}, "geometry": {"type": "Point", "coordinates": [99.8113669, 20.2889166]}}, {"type": "Feature", "properties": {"osm_id": 222741751, "exposed_to_flood": false, "amenity": ""}, "geometry": {"type": "Point", "coordinates": [99.8100256, 20.2957873]}}, {"type": "Feature", "properties": {"osm_id": 223086360, "exposed_to_flood": false, "amenity": ""}, "geometry": {"type": "Point", "coordinates": [99.8808171, 20.4437076]}}, {"type": "Feature", "properties": {"osm_id": 223086362, "exposed_to_flood": false, "amenity": ""}, "geometry": {"type": "Point", "coordinates": [99.8831581, 20.4405323]}}, {"type": "Feature", "properties": {"osm_id": 223086364, "exposed_to_flood": false, "amenity": "bank"}, "geometry": {"type": "Point", "coordinates": [99.8827917, 20.4398494]}}, {"type": "Feature", "properties": {"osm_id": 223086369, "exposed_to_flood": false, "amenity": ""}, "geometry": {"type": "Point", "coordinates": [99.8815075, 20.4381435]}}, {"type": "Feature", "properties": {"osm_id": 237612841, "exposed_to_flood": false, "amenity": ""}, "geometry": {"type": "Point", "coordinates": [99.81062, 20.2879346]}}, {"type": "Feature", "properties": {"osm_id": 237612842, "exposed_to_flood": false, "amenity": ""}, "geometry": {"type": "Point", "coordinates": [99.810754, 20.2881958]}}, {"type": "Feature", "properties": {"osm_id": 237916681, "exposed_to_flood": false, "amenity": ""}, "geometry": {"type": "Point", "coordinates": [99.8666772, 20.3258206]}}, {"type": "Feature", "properties": {"osm_id": 315723564, "exposed_to_flood": false, "amenity": "marketplace"}, "geometry": {"type": "Point", "coordinates": [99.8248854, 20.327523]}}, {"type": "Feature", "properties": {"osm_id": 371297190, "exposed_to_flood": false, "amenity": ""}, "geometry": {"type": "Point", "coordinates": [99.8833927, 20.4273549]}}, {"type": "Feature", "properties": {"osm_id": 371846370, "exposed_to_flood": false, "amenity": "townhall"}, "geometry": {"type": "Point", "coordinates": [99.8843686, 20.4265324]}}, {"type": "Feature", "properties": {"osm_id": 371846371, "exposed_to_flood": false, "amenity": "townhall"}, "geometry": {"type": "Point", "coordinates": [99.88562, 20.4033632]}}, {"type": "Feature", "properties": {"osm_id": 372577297, "exposed_to_flood": false, "amenity": ""}, "geometry": {"type": "Point", "coordinates": [99.8671013, 20.3813884]}}, {"type": "Feature", "properties": {"osm_id": 372577300, "exposed_to_flood": false, "amenity": ""}, "geometry": {"type": "Point", "coordinates": [99.8669812, 20.3814399]}}, {"type": "Feature", "properties": {"osm_id": 372577302, "exposed_to_flood": false, "amenity": ""}, "geometry": {"type": "Point", "coordinates": [99.8673268, 20.3814644]}}, {"type": "Feature", "properties": {"osm_id": 372577303, "exposed_to_flood": false, "amenity": ""}, "geometry": {"type": "Point", "coordinates": [99.8676297, 20.380828]}}, {"type": "Feature", "properties": {"osm_id": 372577305, "exposed_to_flood": false, "amenity": ""}, "geometry": {"type": "Point", "coordinates": [99.8672461, 20.381379]}}, {"type": "Feature", "properties": {"osm_id": 372608928, "exposed_to_flood": false, "amenity": "townhall"}, "geometry": {"type": "Point", "coordinates": [99.8852323, 20.3785453]}}, {"type": "Feature", "properties": {"osm_id": 372684829, "exposed_to_flood": false, "amenity": "fuel"}, "geometry": {"type": "Point", "coordinates": [99.9814875, 20.4239939]}}, {"type": "Feature", "properties": {"osm_id": 372685416, "exposed_to_flood": false, "amenity": "fuel"}, "geometry": {"type": "Point", "coordinates": [99.9285337, 20.441739]}}, {"type": "Feature", "properties": {"osm_id": 372687262, "exposed_to_flood": false, "amenity": "townhall"}, "geometry": {"type": "Point", "coordinates": [99.9904291, 20.4154179]}}, {"type": "Feature", "properties": {"osm_id": 373247332, "exposed_to_flood": false, "amenity": "vehicle_inspection"}, "geometry": {"type": "Point", "coordinates": [99.8898722, 20.4335673]}}, {"type": "Feature", "properties": {"osm_id": 373409847, "exposed_to_flood": false, "amenity": "post_office"}, "geometry": {"type": "Point", "coordinates": [99.8848159, 20.4116039]}}, {"type": "Feature", "properties": {"osm_id": 373885318, "exposed_to_flood": false, "amenity": "place_of_worship"}, "geometry": {"type": "Point", "coordinates": [99.8841984, 20.4308001]}}, {"type": "Feature", "properties": {"osm_id": 373885319, "exposed_to_flood": false, "amenity": "bank"}, "geometry": {"type": "Point", "coordinates": [99.8853769, 20.4304442]}}, {"type": "Feature", "properties": {"osm_id": 373897621, "exposed_to_flood": false, "amenity": "bank"}, "geometry": {"type": "Point", "coordinates": [99.8844185, 20.4358283]}}, {"type": "Feature", "properties": {"osm_id": 373902306, "exposed_to_flood": false, "amenity": "bank"}, "geometry": {"type": "Point", "coordinates": [99.8847284, 20.4353815]}}, {"type": "Feature", "properties": {"osm_id": 373902311, "exposed_to_flood": false, "amenity": ""}, "geometry": {"type": "Point", "coordinates": [99.8851178, 20.4344567]}}, {"type": "Feature", "properties": {"osm_id": 373905038, "exposed_to_flood": false, "amenity": ""}, "geometry": {"type": "Point", "coordinates": [99.8852947, 20.4340671]}}, {"type": "Feature", "properties": {"osm_id": 373909315, "exposed_to_flood": false, "amenity": ""}, "geometry": {"type": "Point", "coordinates": [99.8830899, 20.4372226]}}, {"type": "Feature", "properties": {"osm_id": 373916794, "exposed_to_flood": false, "amenity": ""}, "geometry": {"type": "Point", "coordinates": [99.8872151, 20.4307128]}}, {"type": "Feature", "properties": {"osm_id": 374124139, "exposed_to_flood": false, "amenity": "clinic"}, "geometry": {"type": "Point", "coordinates": [99.8831025, 20.434866]}}, {"type": "Feature", "properties": {"osm_id": 374337338, "exposed_to_flood": false, "amenity": "clinic"}, "geometry": {"type": "Point", "coordinates": [99.8833614, 20.4384308]}}, {"type": "Feature", "properties": {"osm_id": 374815115, "exposed_to_flood": false, "amenity": "place_of_worship"}, "geometry": {"type": "Point", "coordinates": [99.9594779, 20.4371596]}}, {"type": "Feature", "properties": {"osm_id": 374815116, "exposed_to_flood": false, "amenity": "place_of_worship"}, "geometry": {"type": "Point", "coordinates": [99.9941502, 20.4128188]}}, {"type": "Feature", "properties": {"osm_id": 374815117, "exposed_to_flood": false, "amenity": ""}, "geometry": {"type": "Point", "coordinates": [99.8933633, 20.4388803]}}, {"type": "Feature", "properties": {"osm_id": 374839309, "exposed_to_flood": false, "amenity": "marketplace"}, "geometry": {"type": "Point", "coordinates": [99.8943646, 20.4390187]}}, {"type": "Feature", "properties": {"osm_id": 375234296, "exposed_to_flood": false, "amenity": ""}, "geometry": {"type": "Point", "coordinates": [99.8815788, 20.4396532]}}, {"type": "Feature", "properties": {"osm_id": 375238987, "exposed_to_flood": false, "amenity": ""}, "geometry": {"type": "Point", "coordinates": [99.8799046, 20.4402739]}}, {"type": "Feature", "properties": {"osm_id": 375238988, "exposed_to_flood": false, "amenity": ""}, "geometry": {"type": "Point", "coordinates": [99.8800414, 20.4400411]}}, {"type": "Feature", "properties": {"osm_id": 375246969, "exposed_to_flood": false, "amenity": ""}, "geometry": {"type": "Point", "coordinates": [99.8816631, 20.4391226]}}, {"type": "Feature", "properties": {"osm_id": 375366267, "exposed_to_flood": false, "amenity": "school"}, "geometry": {"type": "Point", "coordinates": [99.8772078, 20.4194142]}}, {"type": "Feature", "properties": {"osm_id": 375366268, "exposed_to_flood": false, "amenity": "school"}, "geometry": {"type": "Point", "coordinates": [99.8761635, 20.4198801]}}, {"type": "Feature", "properties": {"osm_id": 375664608, "exposed_to_flood": false, "amenity": "place_of_worship"}, "geometry": {"type": "Point", "coordinates": [99.8922898, 20.4374279]}}, {"type": "Feature", "properties": {"osm_id": 375664609, "exposed_to_flood": false, "amenity": ""}, "geometry": {"type": "Point", "coordinates": [99.8925509, 20.4375681]}}, {"type": "Feature", "properties": {"osm_id": 375664610, "exposed_to_flood": false, "amenity": ""}, "geometry": {"type": "Point", "coordinates": [99.8921947, 20.4375935]}}, {"type": "Feature", "properties": {"osm_id": 375664611, "exposed_to_flood": false, "amenity": ""}, "geometry": {"type": "Point", "coordinates": [99.8919758, 20.4375]}}, {"type": "Feature", "properties": {"osm_id": 375664612, "exposed_to_flood": false, "amenity": ""}, "geometry": {"type": "Point", "coordinates": [99.8920623, 20.4372648]}}, {"type": "Feature", "properties": {"osm_id": 375664613, "exposed_to_flood": false, "amenity": ""}, "geometry": {"type": "Point", "coordinates": [99.8924985, 20.4372208]}}, {"type": "Feature", "properties": {"osm_id": 375677409, "exposed_to_flood": false, "amenity": ""}, "geometry": {"type": "Point", "coordinates": [99.8817352, 20.4274784]}}, {"type": "Feature", "properties": {"osm_id": 375707979, "exposed_to_flood": false, "amenity": "place_of_worship"}, "geometry": {"type": "Point", "coordinates": [99.8815774, 20.4336575]}}, {"type": "Feature", "properties": {"osm_id": 375707980, "exposed_to_flood": false, "amenity": ""}, "geometry": {"type": "Point", "coordinates": [99.8820301, 20.4329834]}}, {"type": "Feature", "properties": {"osm_id": 375707981, "exposed_to_flood": false, "amenity": ""}, "geometry": {"type": "Point", "coordinates": [99.8817597, 20.4329634]}}, {"type": "Feature", "properties": {"osm_id": 375707982, "exposed_to_flood": false, "amenity": ""}, "geometry": {"type": "Point", "coordinates": [99.8813519, 20.4330729]}}, {"type": "Feature", "properties": {"osm_id": 375707983, "exposed_to_flood": false, "amenity": ""}, "geometry": {"type": "Point", "coordinates": [99.8813846, 20.432913]}}, {"type": "Feature", "properties": {"osm_id": 375707984, "exposed_to_flood": false, "amenity": ""}, "geometry": {"type": "Point", "coordinates": [99.8811408, 20.4330546]}}, {"type": "Feature", "properties": {"osm_id": 375707985, "exposed_to_flood": false, "amenity": ""}, "geometry": {"type": "Point", "coordinates": [99.881298, 20.4333175]}}, {"type": "Feature", "properties": {"osm_id": 375707986, "exposed_to_flood": false, "amenity": ""}, "geometry": {"type": "Point", "coordinates": [99.8814023, 20.433999]}}, {"type": "Feature", "properties": {"osm_id": 375748127, "exposed_to_flood": false, "amenity": ""}, "geometry": {"type": "Point", "coordinates": [99.8842606, 20.4077202]}}, {"type": "Feature", "properties": {"osm_id": 375748128, "exposed_to_flood": false, "amenity": ""}, "geometry": {"type": "Point", "coordinates": [99.8842804, 20.4075801]}}, {"type": "Feature", "properties": {"osm_id": 375748129, "exposed_to_flood": false, "amenity": ""}, "geometry": {"type": "Point", "coordinates": [99.8842451, 20.4074248]}}, {"type": "Feature", "properties": {"osm_id": 375748130, "exposed_to_flood": false, "amenity": ""}, "geometry": {"type": "Point", "coordinates": [99.8842776, 20.407268]}}, {"type": "Feature", "properties": {"osm_id": 375748131, "exposed_to_flood": false, "amenity": ""}, "geometry": {"type": "Point", "coordinates": [99.8842323, 20.4071323]}}, {"type": "Feature", "properties": {"osm_id": 375748132, "exposed_to_flood": false, "amenity": ""}, "geometry": {"type": "Point", "coordinates": [99.8842517, 20.4070118]}}, {"type": "Feature", "properties": {"osm_id": 375748133, "exposed_to_flood": false, "amenity": ""}, "geometry": {"type": "Point", "coordinates": [99.884245, 20.4068772]}}, {"type": "Feature", "properties": {"osm_id": 375748134, "exposed_to_flood": false, "amenity": ""}, "geometry": {"type": "Point", "coordinates": [99.8842599, 20.4067204]}}, {"type": "Feature", "properties": {"osm_id": 375748135, "exposed_to_flood": false, "amenity": ""}, "geometry": {"type": "Point", "coordinates": [99.8842287, 20.4065657]}}, {"type": "Feature", "properties": {"osm_id": 375748136, "exposed_to_flood": false, "amenity": ""}, "geometry": {"type": "Point", "coordinates": [99.8843763, 20.4064347]}}, {"type": "Feature", "properties": {"osm_id": 375748137, "exposed_to_flood": false, "amenity": ""}, "geometry": {"type": "Point", "coordinates": [99.8835259, 20.40668]}}, {"type": "Feature", "properties": {"osm_id": 375748138, "exposed_to_flood": false, "amenity": ""}, "geometry": {"type": "Point", "coordinates": [99.8836735, 20.406787]}}, {"type": "Feature", "properties": {"osm_id": 375748139, "exposed_to_flood": false, "amenity": ""}, "geometry": {"type": "Point", "coordinates": [99.8837816, 20.4066463]}}, {"type": "Feature", "properties": {"osm_id": 375748140, "exposed_to_flood": false, "amenity": ""}, "geometry": {"type": "Point", "coordinates": [99.8835883, 20.4066745]}}, {"type": "Feature", "properties": {"osm_id": 375748141, "exposed_to_flood": false, "amenity": ""}, "geometry": {"type": "Point", "coordinates": [99.8836583, 20.4066603]}}, {"type": "Feature", "properties": {"osm_id": 375748142, "exposed_to_flood": false, "amenity": ""}, "geometry": {"type": "Point", "coordinates": [99.883724, 20.4066466]}}, {"type": "Feature", "properties": {"osm_id": 375748743, "exposed_to_flood": false, "amenity": ""}, "geometry": {"type": "Point", "coordinates": [99.8829927, 20.4073053]}}, {"type": "Feature", "properties": {"osm_id": 375750368, "exposed_to_flood": false, "amenity": ""}, "geometry": {"type": "Point", "coordinates": [99.8802398, 20.4203228]}}, {"type": "Feature", "properties": {"osm_id": 375750370, "exposed_to_flood": false, "amenity": ""}, "geometry": {"type": "Point", "coordinates": [99.8795778, 20.420831]}}, {"type": "Feature", "properties": {"osm_id": 376045443, "exposed_to_flood": false, "amenity": "place_of_worship"}, "geometry": {"type": "Point", "coordinates": [99.8680356, 20.4204633]}}, {"type": "Feature", "properties": {"osm_id": 376045444, "exposed_to_flood": false, "amenity": ""}, "geometry": {"type": "Point", "coordinates": [99.8681053, 20.4203581]}}, {"type": "Feature", "properties": {"osm_id": 376045445, "exposed_to_flood": false, "amenity": ""}, "geometry": {"type": "Point", "coordinates": [99.8684838, 20.4203543]}}, {"type": "Feature", "properties": {"osm_id": 376045446, "exposed_to_flood": false, "amenity": ""}, "geometry": {"type": "Point", "coordinates": [99.8684637, 20.4205302]}}, {"type": "Feature", "properties": {"osm_id": 376045447, "exposed_to_flood": false, "amenity": ""}, "geometry": {"type": "Point", "coordinates": [99.8682886, 20.4206306]}}, {"type": "Feature", "properties": {"osm_id": 376045448, "exposed_to_flood": false, "amenity": ""}, "geometry": {"type": "Point", "coordinates": [99.8679686, 20.4205792]}}, {"type": "Feature", "properties": {"osm_id": 376045450, "exposed_to_flood": false, "amenity": ""}, "geometry": {"type": "Point", "coordinates": [99.8681671, 20.4200321]}}, {"type": "Feature", "properties": {"osm_id": 376045451, "exposed_to_flood": false, "amenity": ""}, "geometry": {"type": "Point", "coordinates": [99.8683992, 20.4201135]}}, {"type": "Feature", "properties": {"osm_id": 376045452, "exposed_to_flood": false, "amenity": ""}, "geometry": {"type": "Point", "coordinates": [99.8679002, 20.4201917]}}, {"type": "Feature", "properties": {"osm_id": 376095627, "exposed_to_flood": false, "amenity": "place_of_worship"}, "geometry": {"type": "Point", "coordinates": [99.8842439, 20.4283746]}}, {"type": "Feature", "properties": {"osm_id": 376183582, "exposed_to_flood": false, "amenity": "fuel"}, "geometry": {"type": "Point", "coordinates": [99.8841131, 20.4202046]}}, {"type": "Feature", "properties": {"osm_id": 376183583, "exposed_to_flood": false, "amenity": ""}, "geometry": {"type": "Point", "coordinates": [99.8843885, 20.4202365]}}, {"type": "Feature", "properties": {"osm_id": 376357755, "exposed_to_flood": false, "amenity": "fuel"}, "geometry": {"type": "Point", "coordinates": [99.8847544, 20.4182771]}}, {"type": "Feature", "properties": {"osm_id": 376357756, "exposed_to_flood": false, "amenity": ""}, "geometry": {"type": "Point", "coordinates": [99.884822, 20.4180161]}}, {"type": "Feature", "properties": {"osm_id": 376357761, "exposed_to_flood": false, "amenity": "cafe"}, "geometry": {"type": "Point", "coordinates": [99.885335, 20.4181295]}}, {"type": "Feature", "properties": {"osm_id": 376357762, "exposed_to_flood": false, "amenity": "toilets"}, "geometry": {"type": "Point", "coordinates": [99.8850127, 20.4180449]}}, {"type": "Feature", "properties": {"osm_id": 376360297, "exposed_to_flood": false, "amenity": "restaurant"}, "geometry": {"type": "Point", "coordinates": [99.8873783, 20.4301671]}}, {"type": "Feature", "properties": {"osm_id": 380047963, "exposed_to_flood": false, "amenity": ""}, "geometry": {"type": "Point", "coordinates": [99.8725341, 20.4235599]}}, {"type": "Feature", "properties": {"osm_id": 393448653, "exposed_to_flood": false, "amenity": ""}, "geometry": {"type": "Point", "coordinates": [99.8638162, 20.330891]}}, {"type": "Feature", "properties": {"osm_id": 393448654, "exposed_to_flood": false, "amenity": ""}, "geometry": {"type": "Point", "coordinates": [99.8635743, 20.3297015]}}, {"type": "Feature", "properties": {"osm_id": 396360238, "exposed_to_flood": false, "amenity": ""}, "geometry": {"type": "Point", "coordinates": [99.884374, 20.3691706]}}, {"type": "Feature", "properties": {"osm_id": 396360239, "exposed_to_flood": false, "amenity": ""}, "geometry": {"type": "Point", "coordinates": [99.8839622, 20.3687513]}}, {"type": "Feature", "properties": {"osm_id": 396360241, "exposed_to_flood": false, "amenity": ""}, "geometry": {"type": "Point", "coordinates": [99.8846204, 20.3684862]}}, {"type": "Feature", "properties": {"osm_id": 396360243, "exposed_to_flood": false, "amenity": ""}, "geometry": {"type": "Point", "coordinates": [99.8841692, 20.3685483]}}, {"type": "Feature", "properties": {"osm_id": 396360247, "exposed_to_flood": false, "amenity": ""}, "geometry": {"type": "Point", "coordinates": [99.8844159, 20.368649]}}, {"type": "Feature", "properties": {"osm_id": 396360248, "exposed_to_flood": false, "amenity": ""}, "geometry": {"type": "Point", "coordinates": [99.8841274, 20.3688147]}}, {"type": "Feature", "properties": {"osm_id": 406008390, "exposed_to_flood": false, "amenity": "toilets"}, "geometry": {"type": "Point", "coordinates": [99.8816196, 20.421068]}}, {"type": "Feature", "properties": {"osm_id": 406008391, "exposed_to_flood": false, "amenity": ""}, "geometry": {"type": "Point", "coordinates": [99.8814634, 20.421025]}}, {"type": "Feature", "properties": {"osm_id": 406787547, "exposed_to_flood": false, "amenity": ""}, "geometry": {"type": "Point", "coordinates": [99.8939453, 20.4376016]}}, {"type": "Feature", "properties": {"osm_id": 406787548, "exposed_to_flood": false, "amenity": ""}, "geometry": {"type": "Point", "coordinates": [99.8936598, 20.4371877]}}, {"type": "Feature", "properties": {"osm_id": 406787550, "exposed_to_flood": false, "amenity": ""}, "geometry": {"type": "Point", "coordinates": [99.8939817, 20.4372175]}}, {"type": "Feature", "properties": {"osm_id": 406787552, "exposed_to_flood": false, "amenity": ""}, "geometry": {"type": "Point", "coordinates": [99.8933974, 20.4371548]}}, {"type": "Feature", "properties": {"osm_id": 406787553, "exposed_to_flood": false, "amenity": ""}, "geometry": {"type": "Point", "coordinates": [99.8941704, 20.4373936]}}, {"type": "Feature", "properties": {"osm_id": 406795422, "exposed_to_flood": false, "amenity": ""}, "geometry": {"type": "Point", "coordinates": [99.8925479, 20.4378141]}}, {"type": "Feature", "properties": {"osm_id": 406804495, "exposed_to_flood": false, "amenity": ""}, "geometry": {"type": "Point", "coordinates": [99.8755211, 20.4199535]}}, {"type": "Feature", "properties": {"osm_id": 406804498, "exposed_to_flood": false, "amenity": ""}, "geometry": {"type": "Point", "coordinates": [99.8748184, 20.4192852]}}, {"type": "Feature", "properties": {"osm_id": 406804500, "exposed_to_flood": false, "amenity": ""}, "geometry": {"type": "Point", "coordinates": [99.8748505, 20.418356]}}, {"type": "Feature", "properties": {"osm_id": 406804502, "exposed_to_flood": false, "amenity": ""}, "geometry": {"type": "Point", "coordinates": [99.8747946, 20.4185845]}}, {"type": "Feature", "properties": {"osm_id": 406804504, "exposed_to_flood": false, "amenity": ""}, "geometry": {"type": "Point", "coordinates": [99.874585, 20.4180578]}}, {"type": "Feature", "properties": {"osm_id": 406804506, "exposed_to_flood": false, "amenity": ""}, "geometry": {"type": "Point", "coordinates": [99.874544, 20.4175794]}}, {"type": "Feature", "properties": {"osm_id": 407495157, "exposed_to_flood": false, "amenity": "fire_station"}, "geometry": {"type": "Point", "coordinates": [99.884718, 20.4263115]}}, {"type": "Feature", "properties": {"osm_id": 407499632, "exposed_to_flood": false, "amenity": ""}, "geometry": {"type": "Point", "coordinates": [99.8864042, 20.4120039]}}, {"type": "Feature", "properties": {"osm_id": 407499633, "exposed_to_flood": false, "amenity": ""}, "geometry": {"type": "Point", "coordinates": [99.8867724, 20.4120017]}}, {"type": "Feature", "properties": {"osm_id": 407499634, "exposed_to_flood": false, "amenity": ""}, "geometry": {"type": "Point", "coordinates": [99.8871442, 20.4119829]}}, {"type": "Feature", "properties": {"osm_id": 407499635, "exposed_to_flood": false, "amenity": ""}, "geometry": {"type": "Point", "coordinates": [99.8872291, 20.4122378]}}, {"type": "Feature", "properties": {"osm_id": 407499636, "exposed_to_flood": false, "amenity": ""}, "geometry": {"type": "Point", "coordinates": [99.8871038, 20.4124098]}}, {"type": "Feature", "properties": {"osm_id": 407499637, "exposed_to_flood": false, "amenity": ""}, "geometry": {"type": "Point", "coordinates": [99.8865455, 20.4128185]}}, {"type": "Feature", "properties": {"osm_id": 407499638, "exposed_to_flood": false, "amenity": ""}, "geometry": {"type": "Point", "coordinates": [99.8871044, 20.4127562]}}, {"type": "Feature", "properties": {"osm_id": 417036549, "exposed_to_flood": false, "amenity": "place_of_worship"}, "geometry": {"type": "Point", "coordinates": [99.8597239, 20.2725618]}}, {"type": "Feature", "properties": {"osm_id": 417036551, "exposed_to_flood": false, "amenity": ""}, "geometry": {"type": "Point", "coordinates": [99.8595874, 20.272403]}}, {"type": "Feature", "properties": {"osm_id": 417036553, "exposed_to_flood": false, "amenity": ""}, "geometry": {"type": "Point", "coordinates": [99.8598298, 20.2726985]}}, {"type": "Feature", "properties": {"osm_id": 417036555, "exposed_to_flood": false, "amenity": ""}, "geometry": {"type": "Point", "coordinates": [99.8592765, 20.27258]}}, {"type": "Feature", "properties": {"osm_id": 417036557, "exposed_to_flood": false, "amenity": ""}, "geometry": {"type": "Point", "coordinates": [99.8597337, 20.2729233]}}, {"type": "Feature", "properties": {"osm_id": 417036559, "exposed_to_flood": false, "amenity": ""}, "geometry": {"type": "Point", "coordinates": [99.8594797, 20.2727723]}}, {"type": "Feature", "properties": {"osm_id": 417052533, "exposed_to_flood": false, "amenity": ""}, "geometry": {"type": "Point", "coordinates": [99.884371, 20.4341715]}}, {"type": "Feature", "properties": {"osm_id": 417326142, "exposed_to_flood": false, "amenity": ""}, "geometry": {"type": "Point", "coordinates": [99.8894704, 20.4204076]}}, {"type": "Feature", "properties": {"osm_id": 423682164, "exposed_to_flood": false, "amenity": ""}, "geometry": {"type": "Point", "coordinates": [99.9758367, 20.4363693]}}, {"type": "Feature", "properties": {"osm_id": 423682165, "exposed_to_flood": false, "amenity": ""}, "geometry": {"type": "Point", "coordinates": [99.9757978, 20.4361573]}}, {"type": "Feature", "properties": {"osm_id": 423682166, "exposed_to_flood": false, "amenity": ""}, "geometry": {"type": "Point", "coordinates": [99.975758, 20.4359172]}}, {"type": "Feature", "properties": {"osm_id": 423682167, "exposed_to_flood": false, "amenity": ""}, "geometry": {"type": "Point", "coordinates": [99.9757315, 20.4356874]}}, {"type": "Feature", "properties": {"osm_id": 423682168, "exposed_to_flood": false, "amenity": ""}, "geometry": {"type": "Point", "coordinates": [99.9757006, 20.4354534]}}, {"type": "Feature", "properties": {"osm_id": 423682170, "exposed_to_flood": false, "amenity": ""}, "geometry": {"type": "Point", "coordinates": [99.9762727, 20.4354763]}}, {"type": "Feature", "properties": {"osm_id": 423682171, "exposed_to_flood": false, "amenity": ""}, "geometry": {"type": "Point", "coordinates": [99.9762219, 20.4351305]}}, {"type": "Feature", "properties": {"osm_id": 423682172, "exposed_to_flood": false, "amenity": ""}, "geometry": {"type": "Point", "coordinates": [99.9755636, 20.4347807]}}, {"type": "Feature", "properties": {"osm_id": 423682173, "exposed_to_flood": false, "amenity": ""}, "geometry": {"type": "Point", "coordinates": [99.9761402, 20.4347518]}}, {"type": "Feature", "properties": {"osm_id": 423682175, "exposed_to_flood": false, "amenity": ""}, "geometry": {"type": "Point", "coordinates": [99.9762793, 20.4358384]}}, {"type": "Feature", "properties": {"osm_id": 423682176, "exposed_to_flood": false, "amenity": ""}, "geometry": {"type": "Point", "coordinates": [99.9768137, 20.4341741]}}, {"type": "Feature", "properties": {"osm_id": 423682177, "exposed_to_flood": false, "amenity": ""}, "geometry": {"type": "Point", "coordinates": [99.9765662, 20.4338795]}}, {"type": "Feature", "properties": {"osm_id": 423682178, "exposed_to_flood": false, "amenity": ""}, "geometry": {"type": "Point", "coordinates": [99.9763554, 20.4335682]}}, {"type": "Feature", "properties": {"osm_id": 423682179, "exposed_to_flood": false, "amenity": ""}, "geometry": {"type": "Point", "coordinates": [99.9761677, 20.4332678]}}, {"type": "Feature", "properties": {"osm_id": 423682180, "exposed_to_flood": false, "amenity": ""}, "geometry": {"type": "Point", "coordinates": [99.9757345, 20.4334627]}}, {"type": "Feature", "properties": {"osm_id": 423682181, "exposed_to_flood": false, "amenity": ""}, "geometry": {"type": "Point", "coordinates": [99.9758067, 20.4335845]}}, {"type": "Feature", "properties": {"osm_id": 423682182, "exposed_to_flood": false, "amenity": ""}, "geometry": {"type": "Point", "coordinates": [99.9759424, 20.4337983]}}, {"type": "Feature", "properties": {"osm_id": 423682183, "exposed_to_flood": false, "amenity": ""}, "geometry": {"type": "Point", "coordinates": [99.9756305, 20.4339201]}}, {"type": "Feature", "properties": {"osm_id": 423682184, "exposed_to_flood": false, "amenity": ""}, "geometry": {"type": "Point", "coordinates": [99.975515, 20.4336927]}}, {"type": "Feature", "properties": {"osm_id": 423682185, "exposed_to_flood": false, "amenity": ""}, "geometry": {"type": "Point", "coordinates": [99.9758933, 20.4342638]}}, {"type": "Feature", "properties": {"osm_id": 423682186, "exposed_to_flood": false, "amenity": ""}, "geometry": {"type": "Point", "coordinates": [99.9761504, 20.4340987]}}, {"type": "Feature", "properties": {"osm_id": 423682187, "exposed_to_flood": false, "amenity": ""}, "geometry": {"type": "Point", "coordinates": [99.9763842, 20.4343639]}}, {"type": "Feature", "properties": {"osm_id": 423682188, "exposed_to_flood": false, "amenity": ""}, "geometry": {"type": "Point", "coordinates": [99.9746803, 20.433395]}}, {"type": "Feature", "properties": {"osm_id": 423682189, "exposed_to_flood": false, "amenity": ""}, "geometry": {"type": "Point", "coordinates": [99.9748854, 20.4336954]}}, {"type": "Feature", "properties": {"osm_id": 423682190, "exposed_to_flood": false, "amenity": ""}, "geometry": {"type": "Point", "coordinates": [99.9750558, 20.433939]}}, {"type": "Feature", "properties": {"osm_id": 423682191, "exposed_to_flood": false, "amenity": ""}, "geometry": {"type": "Point", "coordinates": [99.9752609, 20.4342313]}}, {"type": "Feature", "properties": {"osm_id": 423683003, "exposed_to_flood": false, "amenity": ""}, "geometry": {"type": "Point", "coordinates": [99.9750214, 20.4361291]}}, {"type": "Feature", "properties": {"osm_id": 423683004, "exposed_to_flood": false, "amenity": ""}, "geometry": {"type": "Point", "coordinates": [99.9746863, 20.4361126]}}, {"type": "Feature", "properties": {"osm_id": 423683130, "exposed_to_flood": false, "amenity": ""}, "geometry": {"type": "Point", "coordinates": [99.9757729, 20.4327078]}}, {"type": "Feature", "properties": {"osm_id": 423683131, "exposed_to_flood": false, "amenity": ""}, "geometry": {"type": "Point", "coordinates": [99.9750281, 20.4329594]}}, {"type": "Feature", "properties": {"osm_id": 423683132, "exposed_to_flood": false, "amenity": ""}, "geometry": {"type": "Point", "coordinates": [99.9752103, 20.4332553]}}, {"type": "Feature", "properties": {"osm_id": 423683234, "exposed_to_flood": false, "amenity": ""}, "geometry": {"type": "Point", "coordinates": [99.9745638, 20.4320539]}}, {"type": "Feature", "properties": {"osm_id": 429498008, "exposed_to_flood": false, "amenity": ""}, "geometry": {"type": "Point", "coordinates": [99.9047169, 20.4463873]}}, {"type": "Feature", "properties": {"osm_id": 429498009, "exposed_to_flood": false, "amenity": ""}, "geometry": {"type": "Point", "coordinates": [99.9040985, 20.4463985]}}, {"type": "Feature", "properties": {"osm_id": 429498010, "exposed_to_flood": false, "amenity": ""}, "geometry": {"type": "Point", "coordinates": [99.9053042, 20.4464336]}}, {"type": "Feature", "properties": {"osm_id": 429498050, "exposed_to_flood": false, "amenity": ""}, "geometry": {"type": "Point", "coordinates": [99.9019052, 20.4454067]}}, {"type": "Feature", "properties": {"osm_id": 429498051, "exposed_to_flood": false, "amenity": ""}, "geometry": {"type": "Point", "coordinates": [99.9023256, 20.4442951]}}, {"type": "Feature", "properties": {"osm_id": 429498075, "exposed_to_flood": false, "amenity": ""}, "geometry": {"type": "Point", "coordinates": [99.9054807, 20.4456714]}}, {"type": "Feature", "properties": {"osm_id": 429498449, "exposed_to_flood": false, "amenity": ""}, "geometry": {"type": "Point", "coordinates": [99.89927, 20.4343103]}}, {"type": "Feature", "properties": {"osm_id": 429498451, "exposed_to_flood": false, "amenity": ""}, "geometry": {"type": "Point", "coordinates": [99.8993608, 20.4343177]}}, {"type": "Feature", "properties": {"osm_id": 429498453, "exposed_to_flood": false, "amenity": ""}, "geometry": {"type": "Point", "coordinates": [99.8994579, 20.434322]}}, {"type": "Feature", "properties": {"osm_id": 429498455, "exposed_to_flood": false, "amenity": ""}, "geometry": {"type": "Point", "coordinates": [99.8995565, 20.4343321]}}, {"type": "Feature", "properties": {"osm_id": 429498457, "exposed_to_flood": false, "amenity": ""}, "geometry": {"type": "Point", "coordinates": [99.8996535, 20.4343408]}}, {"type": "Feature", "properties": {"osm_id": 429498459, "exposed_to_flood": false, "amenity": ""}, "geometry": {"type": "Point", "coordinates": [99.8998446, 20.4343653]}}, {"type": "Feature", "properties": {"osm_id": 429498461, "exposed_to_flood": false, "amenity": ""}, "geometry": {"type": "Point", "coordinates": [99.8999401, 20.4343769]}}, {"type": "Feature", "properties": {"osm_id": 429498463, "exposed_to_flood": false, "amenity": ""}, "geometry": {"type": "Point", "coordinates": [99.900034, 20.4343913]}}, {"type": "Feature", "properties": {"osm_id": 429498465, "exposed_to_flood": false, "amenity": ""}, "geometry": {"type": "Point", "coordinates": [99.9001342, 20.4343956]}}, {"type": "Feature", "properties": {"osm_id": 429498467, "exposed_to_flood": false, "amenity": ""}, "geometry": {"type": "Point", "coordinates": [99.9002235, 20.4344014]}}, {"type": "Feature", "properties": {"osm_id": 429498469, "exposed_to_flood": false, "amenity": ""}, "geometry": {"type": "Point", "coordinates": [99.899749, 20.4343661]}}, {"type": "Feature", "properties": {"osm_id": 429498775, "exposed_to_flood": false, "amenity": ""}, "geometry": {"type": "Point", "coordinates": [99.9003919, 20.4344084]}}, {"type": "Feature", "properties": {"osm_id": 429498776, "exposed_to_flood": false, "amenity": ""}, "geometry": {"type": "Point", "coordinates": [99.9005884, 20.4344308]}}, {"type": "Feature", "properties": {"osm_id": 429498777, "exposed_to_flood": false, "amenity": ""}, "geometry": {"type": "Point", "coordinates": [99.9013683, 20.4344965]}}, {"type": "Feature", "properties": {"osm_id": 429498778, "exposed_to_flood": false, "amenity": ""}, "geometry": {"type": "Point", "coordinates": [99.9014958, 20.4345058]}}, {"type": "Feature", "properties": {"osm_id": 429498779, "exposed_to_flood": false, "amenity": ""}, "geometry": {"type": "Point", "coordinates": [99.9017068, 20.4345087]}}, {"type": "Feature", "properties": {"osm_id": 429498780, "exposed_to_flood": false, "amenity": ""}, "geometry": {"type": "Point", "coordinates": [99.9018675, 20.4345181]}}, {"type": "Feature", "properties": {"osm_id": 449291279, "exposed_to_flood": false, "amenity": ""}, "geometry": {"type": "Point", "coordinates": [99.9913396, 20.2738888]}}, {"type": "Feature", "properties": {"osm_id": 449291285, "exposed_to_flood": false, "amenity": "fuel"}, "geometry": {"type": "Point", "coordinates": [99.9913117, 20.2736512]}}, {"type": "Feature", "properties": {"osm_id": 449291299, "exposed_to_flood": false, "amenity": ""}, "geometry": {"type": "Point", "coordinates": [99.9916496, 20.2741032]}}, {"type": "Feature", "properties": {"osm_id": 449291304, "exposed_to_flood": false, "amenity": ""}, "geometry": {"type": "Point", "coordinates": [100.0148573, 20.2807965]}}, {"type": "Feature", "properties": {"osm_id": 449294582, "exposed_to_flood": false, "amenity": ""}, "geometry": {"type": "Point", "coordinates": [99.8643222, 20.3304789]}}, {"type": "Feature", "properties": {"osm_id": 449294588, "exposed_to_flood": false, "amenity": ""}, "geometry": {"type": "Point", "coordinates": [99.8811437, 20.3243713]}}, {"type": "Feature", "properties": {"osm_id": 454618449, "exposed_to_flood": false, "amenity": ""}, "geometry": {"type": "Point", "coordinates": [99.8866628, 20.4380838]}}, {"type": "Feature", "properties": {"osm_id": 456738556, "exposed_to_flood": false, "amenity": "bank"}, "geometry": {"type": "Point", "coordinates": [99.8831957, 20.4369885]}}, {"type": "Feature", "properties": {"osm_id": 486410999, "exposed_to_flood": false, "amenity": ""}, "geometry": {"type": "Point", "coordinates": [99.904329, 20.4499198]}}, {"type": "Feature", "properties": {"osm_id": 486411000, "exposed_to_flood": false, "amenity": ""}, "geometry": {"type": "Point", "coordinates": [99.904808, 20.4499431]}}, {"type": "Feature", "properties": {"osm_id": 486411003, "exposed_to_flood": false, "amenity": ""}, "geometry": {"type": "Point", "coordinates": [99.9047007, 20.4467177]}}, {"type": "Feature", "properties": {"osm_id": 544168721, "exposed_to_flood": false, "amenity": "place_of_worship"}, "geometry": {"type": "Point", "coordinates": [99.8783081, 20.4425511]}}, {"type": "Feature", "properties": {"osm_id": 544295158, "exposed_to_flood": false, "amenity": ""}, "geometry": {"type": "Point", "coordinates": [99.881282, 20.3240162]}}, {"type": "Feature", "properties": {"osm_id": 544295298, "exposed_to_flood": false, "amenity": "marketplace"}, "geometry": {"type": "Point", "coordinates": [99.8826768, 20.3246289]}}, {"type": "Feature", "properties": {"osm_id": 544295541, "exposed_to_flood": false, "amenity": ""}, "geometry": {"type": "Point", "coordinates": [99.8827605, 20.3240128]}}, {"type": "Feature", "properties": {"osm_id": 545619187, "exposed_to_flood": false, "amenity": ""}, "geometry": {"type": "Point", "coordinates": [99.8819513, 20.3240036]}}, {"type": "Feature", "properties": {"osm_id": 545628893, "exposed_to_flood": false, "amenity": "place_of_worship"}, "geometry": {"type": "Point", "coordinates": [99.8837228, 20.3306819]}}, {"type": "Feature", "properties": {"osm_id": 545629414, "exposed_to_flood": false, "amenity": ""}, "geometry": {"type": "Point", "coordinates": [99.8819117, 20.3242391]}}, {"type": "Feature", "properties": {"osm_id": 545629415, "exposed_to_flood": false, "amenity": ""}, "geometry": {"type": "Point", "coordinates": [99.8818052, 20.3242118]}}, {"type": "Feature", "properties": {"osm_id": 547710571, "exposed_to_flood": false, "amenity": "restaurant"}, "geometry": {"type": "Point", "coordinates": [99.8714371, 20.4327818]}}, {"type": "Feature", "properties": {"osm_id": 547711351, "exposed_to_flood": false, "amenity": ""}, "geometry": {"type": "Point", "coordinates": [99.8749752, 20.3253634]}}, {"type": "Feature", "properties": {"osm_id": 547711354, "exposed_to_flood": false, "amenity": "marketplace"}, "geometry": {"type": "Point", "coordinates": [99.8713427, 20.327103]}}, {"type": "Feature", "properties": {"osm_id": 547713720, "exposed_to_flood": false, "amenity": ""}, "geometry": {"type": "Point", "coordinates": [99.8825753, 20.3245957]}}, {"type": "Feature", "properties": {"osm_id": 547714125, "exposed_to_flood": false, "amenity": ""}, "geometry": {"type": "Point", "coordinates": [99.8826185, 20.3233202]}}, {"type": "Feature", "properties": {"osm_id": 547714134, "exposed_to_flood": false, "amenity": ""}, "geometry": {"type": "Point", "coordinates": [99.8824476, 20.3240371]}}, {"type": "Feature", "properties": {"osm_id": 548682107, "exposed_to_flood": false, "amenity": "internet_cafe"}, "geometry": {"type": "Point", "coordinates": [99.8825704, 20.3243336]}}, {"type": "Feature", "properties": {"osm_id": 548682226, "exposed_to_flood": false, "amenity": "restaurant"}, "geometry": {"type": "Point", "coordinates": [99.8832746, 20.3239778]}}, {"type": "Feature", "properties": {"osm_id": 548808264, "exposed_to_flood": false, "amenity": ""}, "geometry": {"type": "Point", "coordinates": [99.8814257, 20.324294]}}, {"type": "Feature", "properties": {"osm_id": 548808454, "exposed_to_flood": false, "amenity": ""}, "geometry": {"type": "Point", "coordinates": [99.8816166, 20.3243158]}}, {"type": "Feature", "properties": {"osm_id": 548808455, "exposed_to_flood": false, "amenity": ""}, "geometry": {"type": "Point", "coordinates": [99.8822684, 20.3244825]}}, {"type": "Feature", "properties": {"osm_id": 548808456, "exposed_to_flood": false, "amenity": ""}, "geometry": {"type": "Point", "coordinates": [99.8823734, 20.3243714]}}, {"type": "Feature", "properties": {"osm_id": 548808457, "exposed_to_flood": false, "amenity": ""}, "geometry": {"type": "Point", "coordinates": [99.8817206, 20.3243067]}}, {"type": "Feature", "properties": {"osm_id": 548866677, "exposed_to_flood": false, "amenity": ""}, "geometry": {"type": "Point", "coordinates": [99.8828676, 20.4489309]}}, {"type": "Feature", "properties": {"osm_id": 551266015, "exposed_to_flood": false, "amenity": "place_of_worship"}, "geometry": {"type": "Point", "coordinates": [99.8687549, 20.3269394]}}, {"type": "Feature", "properties": {"osm_id": 566778769, "exposed_to_flood": false, "amenity": "restaurant"}, "geometry": {"type": "Point", "coordinates": [99.8794631, 20.3235857]}}, {"type": "Feature", "properties": {"osm_id": 569926834, "exposed_to_flood": false, "amenity": "police"}, "geometry": {"type": "Point", "coordinates": [99.8820213, 20.321758]}}, {"type": "Feature", "properties": {"osm_id": 575961791, "exposed_to_flood": false, "amenity": ""}, "geometry": {"type": "Point", "coordinates": [99.8804358, 20.3672343]}}, {"type": "Feature", "properties": {"osm_id": 575961793, "exposed_to_flood": false, "amenity": ""}, "geometry": {"type": "Point", "coordinates": [99.8804376, 20.3670728]}}, {"type": "Feature", "properties": {"osm_id": 575961795, "exposed_to_flood": false, "amenity": ""}, "geometry": {"type": "Point", "coordinates": [99.8808195, 20.3672166]}}, {"type": "Feature", "properties": {"osm_id": 575961796, "exposed_to_flood": false, "amenity": ""}, "geometry": {"type": "Point", "coordinates": [99.8808138, 20.3674725]}}, {"type": "Feature", "properties": {"osm_id": 575961798, "exposed_to_flood": false, "amenity": ""}, "geometry": {"type": "Point", "coordinates": [99.8808162, 20.3677981]}}, {"type": "Feature", "properties": {"osm_id": 603177922, "exposed_to_flood": false, "amenity": ""}, "geometry": {"type": "Point", "coordinates": [99.8567446, 20.353198]}}, {"type": "Feature", "properties": {"osm_id": 603177936, "exposed_to_flood": false, "amenity": ""}, "geometry": {"type": "Point", "coordinates": [99.851559, 20.351272]}}, {"type": "Feature", "properties": {"osm_id": 603223036, "exposed_to_flood": false, "amenity": ""}, "geometry": {"type": "Point", "coordinates": [99.8615086, 20.3598758]}}, {"type": "Feature", "properties": {"osm_id": 605636044, "exposed_to_flood": false, "amenity": ""}, "geometry": {"type": "Point", "coordinates": [99.8306928, 20.348366]}}, {"type": "Feature", "properties": {"osm_id": 605636048, "exposed_to_flood": false, "amenity": ""}, "geometry": {"type": "Point", "coordinates": [99.8308087, 20.3487242]}}, {"type": "Feature", "properties": {"osm_id": 605636049, "exposed_to_flood": false, "amenity": ""}, "geometry": {"type": "Point", "coordinates": [99.8312591, 20.348466]}}, {"type": "Feature", "properties": {"osm_id": 605636053, "exposed_to_flood": false, "amenity": ""}, "geometry": {"type": "Point", "coordinates": [99.8310968, 20.3481604]}}, {"type": "Feature", "properties": {"osm_id": 605636055, "exposed_to_flood": false, "amenity": ""}, "geometry": {"type": "Point", "coordinates": [99.8312156, 20.3480699]}}, {"type": "Feature", "properties": {"osm_id": 605636058, "exposed_to_flood": false, "amenity": ""}, "geometry": {"type": "Point", "coordinates": [99.8313906, 20.3483147]}}, {"type": "Feature", "properties": {"osm_id": 605636059, "exposed_to_flood": false, "amenity": ""}, "geometry": {"type": "Point", "coordinates": [99.8304074, 20.3484837]}}, {"type": "Feature", "properties": {"osm_id": 605636060, "exposed_to_flood": false, "amenity": ""}, "geometry": {"type": "Point", "coordinates": [99.8338764, 20.3474879]}}, {"type": "Feature", "properties": {"osm_id": 605636064, "exposed_to_flood": false, "amenity": ""}, "geometry": {"type": "Point", "coordinates": [99.830949, 20.3482633]}}, {"type": "Feature", "properties": {"osm_id": 605636066, "exposed_to_flood": false, "amenity": ""}, "geometry": {"type": "Point", "coordinates": [99.8309065, 20.3486661]}}, {"type": "Feature", "properties": {"osm_id": 605663568, "exposed_to_flood": false, "amenity": ""}, "geometry": {"type": "Point", "coordinates": [99.8570406, 20.3543913]}}, {"type": "Feature", "properties": {"osm_id": 605663569, "exposed_to_flood": false, "amenity": ""}, "geometry": {"type": "Point", "coordinates": [99.8569941, 20.3546325]}}, {"type": "Feature", "properties": {"osm_id": 605663570, "exposed_to_flood": false, "amenity": ""}, "geometry": {"type": "Point", "coordinates": [99.8597061, 20.3522241]}}, {"type": "Feature", "properties": {"osm_id": 605663571, "exposed_to_flood": false, "amenity": ""}, "geometry": {"type": "Point", "coordinates": [99.844426, 20.3704479]}}, {"type": "Feature", "properties": {"osm_id": 605663572, "exposed_to_flood": false, "amenity": ""}, "geometry": {"type": "Point", "coordinates": [99.8466073, 20.3877395]}}, {"type": "Feature", "properties": {"osm_id": 605663573, "exposed_to_flood": false, "amenity": ""}, "geometry": {"type": "Point", "coordinates": [99.8462397, 20.3871562]}}, {"type": "Feature", "properties": {"osm_id": 605663574, "exposed_to_flood": false, "amenity": ""}, "geometry": {"type": "Point", "coordinates": [99.8459883, 20.3872234]}}, {"type": "Feature", "properties": {"osm_id": 605663575, "exposed_to_flood": false, "amenity": ""}, "geometry": {"type": "Point", "coordinates": [99.8431585, 20.381977]}}, {"type": "Feature", "properties": {"osm_id": 605663579, "exposed_to_flood": false, "amenity": ""}, "geometry": {"type": "Point", "coordinates": [99.8453977, 20.3836004]}}, {"type": "Feature", "properties": {"osm_id": 605663580, "exposed_to_flood": false, "amenity": ""}, "geometry": {"type": "Point", "coordinates": [99.8438115, 20.3854073]}}, {"type": "Feature", "properties": {"osm_id": 605663581, "exposed_to_flood": false, "amenity": ""}, "geometry": {"type": "Point", "coordinates": [99.8426455, 20.3830754]}}, {"type": "Feature", "properties": {"osm_id": 605663582, "exposed_to_flood": false, "amenity": ""}, "geometry": {"type": "Point", "coordinates": [99.8421317, 20.3802189]}}, {"type": "Feature", "properties": {"osm_id": 605663583, "exposed_to_flood": false, "amenity": ""}, "geometry": {"type": "Point", "coordinates": [99.8423226, 20.3801698]}}, {"type": "Feature", "properties": {"osm_id": 605663584, "exposed_to_flood": false, "amenity": ""}, "geometry": {"type": "Point", "coordinates": [99.8422268, 20.3802024]}}, {"type": "Feature", "properties": {"osm_id": 605663585, "exposed_to_flood": false, "amenity": ""}, "geometry": {"type": "Point", "coordinates": [99.8424683, 20.3809191]}}, {"type": "Feature", "properties": {"osm_id": 605663586, "exposed_to_flood": false, "amenity": ""}, "geometry": {"type": "Point", "coordinates": [99.8426034, 20.3808315]}}, {"type": "Feature", "properties": {"osm_id": 605663587, "exposed_to_flood": false, "amenity": ""}, "geometry": {"type": "Point", "coordinates": [99.8433303, 20.3793712]}}, {"type": "Feature", "properties": {"osm_id": 605663588, "exposed_to_flood": false, "amenity": ""}, "geometry": {"type": "Point", "coordinates": [99.8432729, 20.379795]}}, {"type": "Feature", "properties": {"osm_id": 605663589, "exposed_to_flood": false, "amenity": ""}, "geometry": {"type": "Point", "coordinates": [99.8430365, 20.3798962]}}, {"type": "Feature", "properties": {"osm_id": 607937569, "exposed_to_flood": false, "amenity": ""}, "geometry": {"type": "Point", "coordinates": [99.8613347, 20.345283]}}, {"type": "Feature", "properties": {"osm_id": 607937571, "exposed_to_flood": false, "amenity": ""}, "geometry": {"type": "Point", "coordinates": [99.8597486, 20.3449843]}}, {"type": "Feature", "properties": {"osm_id": 607937573, "exposed_to_flood": false, "amenity": ""}, "geometry": {"type": "Point", "coordinates": [99.8598492, 20.3449473]}}, {"type": "Feature", "properties": {"osm_id": 657834538, "exposed_to_flood": false, "amenity": ""}, "geometry": {"type": "Point", "coordinates": [99.8028373, 20.2674884]}}, {"type": "Feature", "properties": {"osm_id": 657834539, "exposed_to_flood": false, "amenity": ""}, "geometry": {"type": "Point", "coordinates": [99.8044632, 20.2692845]}}, {"type": "Feature", "properties": {"osm_id": 702969689, "exposed_to_flood": false, "amenity": "cafe"}, "geometry": {"type": "Point", "coordinates": [99.8803989, 20.322203]}}, {"type": "Feature", "properties": {"osm_id": 702970828, "exposed_to_flood": false, "amenity": "place_of_worship"}, "geometry": {"type": "Point", "coordinates": [99.8685349, 20.327307]}}, {"type": "Feature", "properties": {"osm_id": 702971302, "exposed_to_flood": false, "amenity": ""}, "geometry": {"type": "Point", "coordinates": [99.8645146, 20.3302796]}}, {"type": "Feature", "properties": {"osm_id": 702971303, "exposed_to_flood": false, "amenity": "place_of_worship"}, "geometry": {"type": "Point", "coordinates": [99.8668999, 20.3289787]}}, {"type": "Feature", "properties": {"osm_id": 754943387, "exposed_to_flood": false, "amenity": ""}, "geometry": {"type": "Point", "coordinates": [99.8804036, 20.4481688]}}, {"type": "Feature", "properties": {"osm_id": 756400366, "exposed_to_flood": false, "amenity": ""}, "geometry": {"type": "Point", "coordinates": [99.8815547, 20.4426573]}}, {"type": "Feature", "properties": {"osm_id": 756400367, "exposed_to_flood": false, "amenity": ""}, "geometry": {"type": "Point", "coordinates": [99.8807796, 20.442983]}}, {"type": "Feature", "properties": {"osm_id": 756400368, "exposed_to_flood": false, "amenity": ""}, "geometry": {"type": "Point", "coordinates": [99.8817389, 20.442254]}}, {"type": "Feature", "properties": {"osm_id": 756400369, "exposed_to_flood": false, "amenity": ""}, "geometry": {"type": "Point", "coordinates": [99.8820381, 20.4423782]}}, {"type": "Feature", "properties": {"osm_id": 813683107, "exposed_to_flood": false, "amenity": ""}, "geometry": {"type": "Point", "coordinates": [99.8819191, 20.3244926]}}, {"type": "Feature", "properties": {"osm_id": 813683108, "exposed_to_flood": false, "amenity": "clinic"}, "geometry": {"type": "Point", "coordinates": [99.8825105, 20.3243484]}}, {"type": "Feature", "properties": {"osm_id": 813683109, "exposed_to_flood": false, "amenity": "restaurant"}, "geometry": {"type": "Point", "coordinates": [99.8826231, 20.3243229]}}, {"type": "Feature", "properties": {"osm_id": 813683110, "exposed_to_flood": false, "amenity": ""}, "geometry": {"type": "Point", "coordinates": [99.8827911, 20.3243864]}}, {"type": "Feature", "properties": {"osm_id": 813683111, "exposed_to_flood": false, "amenity": ""}, "geometry": {"type": "Point", "coordinates": [99.8827803, 20.3243251]}}, {"type": "Feature", "properties": {"osm_id": 813683112, "exposed_to_flood": false, "amenity": ""}, "geometry": {"type": "Point", "coordinates": [99.8828503, 20.3245471]}}, {"type": "Feature", "properties": {"osm_id": 813683113, "exposed_to_flood": false, "amenity": ""}, "geometry": {"type": "Point", "coordinates": [99.8830112, 20.3247411]}}, {"type": "Feature", "properties": {"osm_id": 813683114, "exposed_to_flood": false, "amenity": ""}, "geometry": {"type": "Point", "coordinates": [99.8828921, 20.3247019]}}, {"type": "Feature", "properties": {"osm_id": 813683115, "exposed_to_flood": false, "amenity": ""}, "geometry": {"type": "Point", "coordinates": [99.8828792, 20.3246591]}}, {"type": "Feature", "properties": {"osm_id": 813683116, "exposed_to_flood": false, "amenity": ""}, "geometry": {"type": "Point", "coordinates": [99.8817504, 20.3248993]}}, {"type": "Feature", "properties": {"osm_id": 813683117, "exposed_to_flood": false, "amenity": ""}, "geometry": {"type": "Point", "coordinates": [99.8818757, 20.3247542]}}, {"type": "Feature", "properties": {"osm_id": 813683118, "exposed_to_flood": false, "amenity": ""}, "geometry": {"type": "Point", "coordinates": [99.8821875, 20.3250078]}}, {"type": "Feature", "properties": {"osm_id": 813683119, "exposed_to_flood": false, "amenity": ""}, "geometry": {"type": "Point", "coordinates": [99.8816771, 20.3244917]}}, {"type": "Feature", "properties": {"osm_id": 813683120, "exposed_to_flood": false, "amenity": ""}, "geometry": {"type": "Point", "coordinates": [99.8827285, 20.3238563]}}, {"type": "Feature", "properties": {"osm_id": 813683121, "exposed_to_flood": false, "amenity": ""}, "geometry": {"type": "Point", "coordinates": [99.8827351, 20.3238993]}}, {"type": "Feature", "properties": {"osm_id": 813684374, "exposed_to_flood": false, "amenity": ""}, "geometry": {"type": "Point", "coordinates": [99.8829863, 20.3251864]}}, {"type": "Feature", "properties": {"osm_id": 813684375, "exposed_to_flood": false, "amenity": ""}, "geometry": {"type": "Point", "coordinates": [99.8827366, 20.3250996]}}, {"type": "Feature", "properties": {"osm_id": 813684376, "exposed_to_flood": false, "amenity": ""}, "geometry": {"type": "Point", "coordinates": [99.8827789, 20.3252424]}}, {"type": "Feature", "properties": {"osm_id": 813684377, "exposed_to_flood": false, "amenity": ""}, "geometry": {"type": "Point", "coordinates": [99.8809814, 20.3243893]}}, {"type": "Feature", "properties": {"osm_id": 813684999, "exposed_to_flood": false, "amenity": ""}, "geometry": {"type": "Point", "coordinates": [99.8825943, 20.3239533]}}, {"type": "Feature", "properties": {"osm_id": 863214794, "exposed_to_flood": false, "amenity": ""}, "geometry": {"type": "Point", "coordinates": [99.9738131, 20.281391]}}, {"type": "Feature", "properties": {"osm_id": 878228413, "exposed_to_flood": false, "amenity": ""}, "geometry": {"type": "Point", "coordinates": [99.8285529, 20.3479914]}}, {"type": "Feature", "properties": {"osm_id": 878228414, "exposed_to_flood": false, "amenity": ""}, "geometry": {"type": "Point", "coordinates": [99.8283996, 20.3482805]}}, {"type": "Feature", "properties": {"osm_id": 878228415, "exposed_to_flood": false, "amenity": ""}, "geometry": {"type": "Point", "coordinates": [99.8281841, 20.3483399]}}, {"type": "Feature", "properties": {"osm_id": 878228416, "exposed_to_flood": false, "amenity": ""}, "geometry": {"type": "Point", "coordinates": [99.8280462, 20.3482428]}}, {"type": "Feature", "properties": {"osm_id": 1112437363, "exposed_to_flood": false, "amenity": ""}, "geometry": {"type": "Point", "coordinates": [99.8867078, 20.4062686]}}, {"type": "Feature", "properties": {"osm_id": 1112437380, "exposed_to_flood": false, "amenity": ""}, "geometry": {"type": "Point", "coordinates": [99.8857342, 20.3936481]}}, {"type": "Feature", "properties": {"osm_id": 1112437383, "exposed_to_flood": false, "amenity": ""}, "geometry": {"type": "Point", "coordinates": [99.8874043, 20.3977972]}}, {"type": "Feature", "properties": {"osm_id": 1112439818, "exposed_to_flood": false, "amenity": ""}, "geometry": {"type": "Point", "coordinates": [99.9088637, 20.4297371]}}, {"type": "Feature", "properties": {"osm_id": 1112439820, "exposed_to_flood": false, "amenity": ""}, "geometry": {"type": "Point", "coordinates": [99.9094675, 20.4307753]}}, {"type": "Feature", "properties": {"osm_id": 1112439825, "exposed_to_flood": false, "amenity": ""}, "geometry": {"type": "Point", "coordinates": [99.9078688, 20.429884]}}, {"type": "Feature", "properties": {"osm_id": 1112440182, "exposed_to_flood": false, "amenity": "place_of_worship"}, "geometry": {"type": "Point", "coordinates": [99.8949526, 20.4243519]}}, {"type": "Feature", "properties": {"osm_id": 1112440711, "exposed_to_flood": false, "amenity": "place_of_worship"}, "geometry": {"type": "Point", "coordinates": [99.8799944, 20.4421273]}}, {"type": "Feature", "properties": {"osm_id": 1112440712, "exposed_to_flood": false, "amenity": ""}, "geometry": {"type": "Point", "coordinates": [99.8777167, 20.4419355]}}, {"type": "Feature", "properties": {"osm_id": 1112441628, "exposed_to_flood": false, "amenity": ""}, "geometry": {"type": "Point", "coordinates": [99.9175445, 20.4420199]}}, {"type": "Feature", "properties": {"osm_id": 1112444544, "exposed_to_flood": false, "amenity": "place_of_worship"}, "geometry": {"type": "Point", "coordinates": [99.9134473, 20.4411023]}}, {"type": "Feature", "properties": {"osm_id": 1112594073, "exposed_to_flood": false, "amenity": "place_of_worship"}, "geometry": {"type": "Point", "coordinates": [99.9476296, 20.4354881]}}, {"type": "Feature", "properties": {"osm_id": 1112594077, "exposed_to_flood": false, "amenity": ""}, "geometry": {"type": "Point", "coordinates": [99.9467812, 20.4360103]}}, {"type": "Feature", "properties": {"osm_id": 1112600959, "exposed_to_flood": false, "amenity": ""}, "geometry": {"type": "Point", "coordinates": [99.8718786, 20.2926772]}}, {"type": "Feature", "properties": {"osm_id": 1112600960, "exposed_to_flood": false, "amenity": ""}, "geometry": {"type": "Point", "coordinates": [99.8830894, 20.3260159]}}, {"type": "Feature", "properties": {"osm_id": 1112600965, "exposed_to_flood": false, "amenity": "fuel"}, "geometry": {"type": "Point", "coordinates": [99.8830962, 20.3258783]}}, {"type": "Feature", "properties": {"osm_id": 1119105453, "exposed_to_flood": false, "amenity": ""}, "geometry": {"type": "Point", "coordinates": [99.8652952, 20.4268245]}}, {"type": "Feature", "properties": {"osm_id": 1119105457, "exposed_to_flood": false, "amenity": ""}, "geometry": {"type": "Point", "coordinates": [99.8649697, 20.426959]}}, {"type": "Feature", "properties": {"osm_id": 1119105461, "exposed_to_flood": false, "amenity": "place_of_worship"}, "geometry": {"type": "Point", "coordinates": [99.8648137, 20.4268985]}}, {"type": "Feature", "properties": {"osm_id": 1119106744, "exposed_to_flood": false, "amenity": ""}, "geometry": {"type": "Point", "coordinates": [99.8801015, 20.4269043]}}, {"type": "Feature", "properties": {"osm_id": 1120554992, "exposed_to_flood": false, "amenity": ""}, "geometry": {"type": "Point", "coordinates": [99.8821749, 20.4438089]}}, {"type": "Feature", "properties": {"osm_id": 1120554993, "exposed_to_flood": false, "amenity": ""}, "geometry": {"type": "Point", "coordinates": [99.8828714, 20.4435802]}}, {"type": "Feature", "properties": {"osm_id": 1120554994, "exposed_to_flood": false, "amenity": ""}, "geometry": {"type": "Point", "coordinates": [99.8830085, 20.4432268]}}, {"type": "Feature", "properties": {"osm_id": 1120554995, "exposed_to_flood": false, "amenity": ""}, "geometry": {"type": "Point", "coordinates": [99.8839653, 20.4425793]}}, {"type": "Feature", "properties": {"osm_id": 1120554996, "exposed_to_flood": false, "amenity": ""}, "geometry": {"type": "Point", "coordinates": [99.8843815, 20.4424812]}}, {"type": "Feature", "properties": {"osm_id": 1120554997, "exposed_to_flood": false, "amenity": ""}, "geometry": {"type": "Point", "coordinates": [99.8852604, 20.4434688]}}, {"type": "Feature", "properties": {"osm_id": 1120554998, "exposed_to_flood": false, "amenity": ""}, "geometry": {"type": "Point", "coordinates": [99.8853126, 20.4434085]}}, {"type": "Feature", "properties": {"osm_id": 1230432524, "exposed_to_flood": false, "amenity": "place_of_worship"}, "geometry": {"type": "Point", "coordinates": [100.0356189, 20.2807635]}}, {"type": "Feature", "properties": {"osm_id": 1230432526, "exposed_to_flood": false, "amenity": ""}, "geometry": {"type": "Point", "coordinates": [100.0377822, 20.2763933]}}, {"type": "Feature", "properties": {"osm_id": 1230840165, "exposed_to_flood": false, "amenity": ""}, "geometry": {"type": "Point", "coordinates": [99.8940932, 20.4533384]}}, {"type": "Feature", "properties": {"osm_id": 1241590282, "exposed_to_flood": false, "amenity": "restaurant"}, "geometry": {"type": "Point", "coordinates": [99.8883137, 20.4476036]}}, {"type": "Feature", "properties": {"osm_id": 1315003686, "exposed_to_flood": false, "amenity": "place_of_worship"}, "geometry": {"type": "Point", "coordinates": [99.8773902, 20.4425638]}}, {"type": "Feature", "properties": {"osm_id": 1327230299, "exposed_to_flood": false, "amenity": ""}, "geometry": {"type": "Point", "coordinates": [99.8678641, 20.3808972]}}, {"type": "Feature", "properties": {"osm_id": 1327230300, "exposed_to_flood": false, "amenity": ""}, "geometry": {"type": "Point", "coordinates": [99.8668778, 20.3813199]}}, {"type": "Feature", "properties": {"osm_id": 1327471201, "exposed_to_flood": false, "amenity": ""}, "geometry": {"type": "Point", "coordinates": [99.8812411, 20.4397839]}}, {"type": "Feature", "properties": {"osm_id": 1327471202, "exposed_to_flood": false, "amenity": ""}, "geometry": {"type": "Point", "coordinates": [99.8812662, 20.4395184]}}, {"type": "Feature", "properties": {"osm_id": 1327471203, "exposed_to_flood": false, "amenity": ""}, "geometry": {"type": "Point", "coordinates": [99.8815809, 20.4393963]}}, {"type": "Feature", "properties": {"osm_id": 1327471204, "exposed_to_flood": false, "amenity": ""}, "geometry": {"type": "Point", "coordinates": [99.8810026, 20.4397041]}}, {"type": "Feature", "properties": {"osm_id": 1327471205, "exposed_to_flood": false, "amenity": ""}, "geometry": {"type": "Point", "coordinates": [99.881044, 20.4393136]}}, {"type": "Feature", "properties": {"osm_id": 1327471206, "exposed_to_flood": false, "amenity": ""}, "geometry": {"type": "Point", "coordinates": [99.8811111, 20.4389715]}}, {"type": "Feature", "properties": {"osm_id": 1327471207, "exposed_to_flood": false, "amenity": ""}, "geometry": {"type": "Point", "coordinates": [99.8811795, 20.4387322]}}, {"type": "Feature", "properties": {"osm_id": 1327474113, "exposed_to_flood": false, "amenity": ""}, "geometry": {"type": "Point", "coordinates": [99.8840596, 20.4302598]}}, {"type": "Feature", "properties": {"osm_id": 1327474114, "exposed_to_flood": false, "amenity": ""}, "geometry": {"type": "Point", "coordinates": [99.8841861, 20.4302437]}}, {"type": "Feature", "properties": {"osm_id": 1327474115, "exposed_to_flood": false, "amenity": ""}, "geometry": {"type": "Point", "coordinates": [99.8854942, 20.430024]}}, {"type": "Feature", "properties": {"osm_id": 1327474116, "exposed_to_flood": false, "amenity": ""}, "geometry": {"type": "Point", "coordinates": [99.885911, 20.4300827]}}, {"type": "Feature", "properties": {"osm_id": 1327474117, "exposed_to_flood": false, "amenity": ""}, "geometry": {"type": "Point", "coordinates": [99.8859076, 20.4299274]}}, {"type": "Feature", "properties": {"osm_id": 1327474118, "exposed_to_flood": false, "amenity": ""}, "geometry": {"type": "Point", "coordinates": [99.8857301, 20.4297922]}}, {"type": "Feature", "properties": {"osm_id": 1327474119, "exposed_to_flood": false, "amenity": ""}, "geometry": {"type": "Point", "coordinates": [99.8870993, 20.4299126]}}, {"type": "Feature", "properties": {"osm_id": 1327474120, "exposed_to_flood": false, "amenity": ""}, "geometry": {"type": "Point", "coordinates": [99.8876157, 20.4302927]}}, {"type": "Feature", "properties": {"osm_id": 1327474121, "exposed_to_flood": false, "amenity": ""}, "geometry": {"type": "Point", "coordinates": [99.8879225, 20.4305083]}}, {"type": "Feature", "properties": {"osm_id": 1327474122, "exposed_to_flood": false, "amenity": ""}, "geometry": {"type": "Point", "coordinates": [99.8864535, 20.4320122]}}, {"type": "Feature", "properties": {"osm_id": 1327474123, "exposed_to_flood": false, "amenity": ""}, "geometry": {"type": "Point", "coordinates": [99.8867891, 20.4316179]}}, {"type": "Feature", "properties": {"osm_id": 1327474124, "exposed_to_flood": false, "amenity": ""}, "geometry": {"type": "Point", "coordinates": [99.8870415, 20.4318594]}}, {"type": "Feature", "properties": {"osm_id": 1377408841, "exposed_to_flood": false, "amenity": ""}, "geometry": {"type": "Point", "coordinates": [99.8840632, 20.4598205]}}, {"type": "Feature", "properties": {"osm_id": 1377408842, "exposed_to_flood": false, "amenity": ""}, "geometry": {"type": "Point", "coordinates": [99.8837518, 20.4601259]}}, {"type": "Feature", "properties": {"osm_id": 1377408843, "exposed_to_flood": false, "amenity": ""}, "geometry": {"type": "Point", "coordinates": [99.8836632, 20.460146]}}, {"type": "Feature", "properties": {"osm_id": 1377408844, "exposed_to_flood": false, "amenity": ""}, "geometry": {"type": "Point", "coordinates": [99.8835747, 20.4601648]}}, {"type": "Feature", "properties": {"osm_id": 1377408845, "exposed_to_flood": false, "amenity": ""}, "geometry": {"type": "Point", "coordinates": [99.8834856, 20.4601861]}}, {"type": "Feature", "properties": {"osm_id": 1377408846, "exposed_to_flood": false, "amenity": ""}, "geometry": {"type": "Point", "coordinates": [99.8833908, 20.4602102]}}, {"type": "Feature", "properties": {"osm_id": 1377408847, "exposed_to_flood": false, "amenity": ""}, "geometry": {"type": "Point", "coordinates": [99.8830625, 20.4594748]}}, {"type": "Feature", "properties": {"osm_id": 1377408848, "exposed_to_flood": false, "amenity": ""}, "geometry": {"type": "Point", "coordinates": [99.884043, 20.4600969]}}, {"type": "Feature", "properties": {"osm_id": 1377408849, "exposed_to_flood": false, "amenity": ""}, "geometry": {"type": "Point", "coordinates": [99.8848369, 20.4598557]}}, {"type": "Feature", "properties": {"osm_id": 1377408850, "exposed_to_flood": false, "amenity": ""}, "geometry": {"type": "Point", "coordinates": [99.8850806, 20.4597987]}}, {"type": "Feature", "properties": {"osm_id": 1377408851, "exposed_to_flood": false, "amenity": ""}, "geometry": {"type": "Point", "coordinates": [99.8845812, 20.4598833]}}, {"type": "Feature", "properties": {"osm_id": 1377408852, "exposed_to_flood": false, "amenity": ""}, "geometry": {"type": "Point", "coordinates": [99.8842564, 20.4593041]}}, {"type": "Feature", "properties": {"osm_id": 1377408853, "exposed_to_flood": false, "amenity": ""}, "geometry": {"type": "Point", "coordinates": [99.8844545, 20.4592385]}}, {"type": "Feature", "properties": {"osm_id": 1377408854, "exposed_to_flood": false, "amenity": ""}, "geometry": {"type": "Point", "coordinates": [99.8832482, 20.4588093]}}, {"type": "Feature", "properties": {"osm_id": 1377408855, "exposed_to_flood": false, "amenity": ""}, "geometry": {"type": "Point", "coordinates": [99.8834001, 20.4587455]}}, {"type": "Feature", "properties": {"osm_id": 1377408856, "exposed_to_flood": false, "amenity": ""}, "geometry": {"type": "Point", "coordinates": [99.8835697, 20.4590004]}}, {"type": "Feature", "properties": {"osm_id": 1377408857, "exposed_to_flood": false, "amenity": ""}, "geometry": {"type": "Point", "coordinates": [99.8839825, 20.4588599]}}, {"type": "Feature", "properties": {"osm_id": 1377408858, "exposed_to_flood": false, "amenity": ""}, "geometry": {"type": "Point", "coordinates": [99.8840747, 20.4588636]}}, {"type": "Feature", "properties": {"osm_id": 1377408859, "exposed_to_flood": false, "amenity": ""}, "geometry": {"type": "Point", "coordinates": [99.8843516, 20.4587672]}}, {"type": "Feature", "properties": {"osm_id": 1377408860, "exposed_to_flood": false, "amenity": ""}, "geometry": {"type": "Point", "coordinates": [99.8844233, 20.4587355]}}, {"type": "Feature", "properties": {"osm_id": 1377408861, "exposed_to_flood": false, "amenity": ""}, "geometry": {"type": "Point", "coordinates": [99.8845528, 20.4587035]}}, {"type": "Feature", "properties": {"osm_id": 1377408862, "exposed_to_flood": false, "amenity": ""}, "geometry": {"type": "Point", "coordinates": [99.8847382, 20.4586488]}}, {"type": "Feature", "properties": {"osm_id": 1377408863, "exposed_to_flood": false, "amenity": ""}, "geometry": {"type": "Point", "coordinates": [99.884947, 20.4586165]}}, {"type": "Feature", "properties": {"osm_id": 1377408864, "exposed_to_flood": false, "amenity": ""}, "geometry": {"type": "Point", "coordinates": [99.884029, 20.4586613]}}, {"type": "Feature", "properties": {"osm_id": 1377408865, "exposed_to_flood": false, "amenity": ""}, "geometry": {"type": "Point", "coordinates": [99.8843379, 20.458579]}}, {"type": "Feature", "properties": {"osm_id": 1377408866, "exposed_to_flood": false, "amenity": ""}, "geometry": {"type": "Point", "coordinates": [99.8845115, 20.458535]}}, {"type": "Feature", "properties": {"osm_id": 1377408867, "exposed_to_flood": false, "amenity": ""}, "geometry": {"type": "Point", "coordinates": [99.8846818, 20.4584955]}}, {"type": "Feature", "properties": {"osm_id": 1377408868, "exposed_to_flood": false, "amenity": ""}, "geometry": {"type": "Point", "coordinates": [99.8848582, 20.4584483]}}, {"type": "Feature", "properties": {"osm_id": 1377408869, "exposed_to_flood": false, "amenity": ""}, "geometry": {"type": "Point", "coordinates": [99.8850343, 20.4583985]}}, {"type": "Feature", "properties": {"osm_id": 1428020845, "exposed_to_flood": false, "amenity": "place_of_worship"}, "geometry": {"type": "Point", "coordinates": [99.8931769, 20.326817]}}, {"type": "Feature", "properties": {"osm_id": 1428020846, "exposed_to_flood": false, "amenity": "place_of_worship"}, "geometry": {"type": "Point", "coordinates": [99.8924106, 20.3267624]}}, {"type": "Feature", "properties": {"osm_id": 1428020847, "exposed_to_flood": false, "amenity": "place_of_worship"}, "geometry": {"type": "Point", "coordinates": [99.8932068, 20.3259298]}}, {"type": "Feature", "properties": {"osm_id": 1428020848, "exposed_to_flood": false, "amenity": "place_of_worship"}, "geometry": {"type": "Point", "coordinates": [99.8934964, 20.3261798]}}, {"type": "Feature", "properties": {"osm_id": 1428020849, "exposed_to_flood": false, "amenity": "place_of_worship"}, "geometry": {"type": "Point", "coordinates": [99.8935265, 20.3257549]}}, {"type": "Feature", "properties": {"osm_id": 1428020850, "exposed_to_flood": false, "amenity": "place_of_worship"}, "geometry": {"type": "Point", "coordinates": [99.8929462, 20.3257141]}}, {"type": "Feature", "properties": {"osm_id": 1428020851, "exposed_to_flood": false, "amenity": "place_of_worship"}, "geometry": {"type": "Point", "coordinates": [99.890415, 20.324896]}}, {"type": "Feature", "properties": {"osm_id": 1428020852, "exposed_to_flood": false, "amenity": "place_of_worship"}, "geometry": {"type": "Point", "coordinates": [99.8904592, 20.3253226]}}, {"type": "Feature", "properties": {"osm_id": 1428020853, "exposed_to_flood": false, "amenity": "place_of_worship"}, "geometry": {"type": "Point", "coordinates": [99.8905028, 20.3254934]}}, {"type": "Feature", "properties": {"osm_id": 1428020854, "exposed_to_flood": false, "amenity": "place_of_worship"}, "geometry": {"type": "Point", "coordinates": [99.8904437, 20.3256367]}}, {"type": "Feature", "properties": {"osm_id": 1428020855, "exposed_to_flood": false, "amenity": "place_of_worship"}, "geometry": {"type": "Point", "coordinates": [99.8904467, 20.3258546]}}, {"type": "Feature", "properties": {"osm_id": 1428020856, "exposed_to_flood": false, "amenity": "place_of_worship"}, "geometry": {"type": "Point", "coordinates": [99.8915771, 20.3249395]}}, {"type": "Feature", "properties": {"osm_id": 1428020857, "exposed_to_flood": false, "amenity": "place_of_worship"}, "geometry": {"type": "Point", "coordinates": [99.892027, 20.325252]}}, {"type": "Feature", "properties": {"osm_id": 1428020858, "exposed_to_flood": false, "amenity": "place_of_worship"}, "geometry": {"type": "Point", "coordinates": [99.89233, 20.3252653]}}, {"type": "Feature", "properties": {"osm_id": 1428020859, "exposed_to_flood": false, "amenity": "place_of_worship"}, "geometry": {"type": "Point", "coordinates": [99.8921714, 20.3249653]}}, {"type": "Feature", "properties": {"osm_id": 1428020860, "exposed_to_flood": false, "amenity": "place_of_worship"}, "geometry": {"type": "Point", "coordinates": [99.8926367, 20.3255929]}}, {"type": "Feature", "properties": {"osm_id": 1428270480, "exposed_to_flood": false, "amenity": ""}, "geometry": {"type": "Point", "coordinates": [99.8814187, 20.3238936]}}, {"type": "Feature", "properties": {"osm_id": 1428270481, "exposed_to_flood": false, "amenity": ""}, "geometry": {"type": "Point", "coordinates": [99.8813521, 20.3237814]}}, {"type": "Feature", "properties": {"osm_id": 1465786052, "exposed_to_flood": false, "amenity": ""}, "geometry": {"type": "Point", "coordinates": [99.825647, 20.3272873]}}, {"type": "Feature", "properties": {"osm_id": 1465786053, "exposed_to_flood": false, "amenity": ""}, "geometry": {"type": "Point", "coordinates": [99.8256854, 20.3276259]}}, {"type": "Feature", "properties": {"osm_id": 1465786054, "exposed_to_flood": false, "amenity": ""}, "geometry": {"type": "Point", "coordinates": [99.8328952, 20.3242296]}}, {"type": "Feature", "properties": {"osm_id": 1465786055, "exposed_to_flood": false, "amenity": ""}, "geometry": {"type": "Point", "coordinates": [99.8328508, 20.3242051]}}, {"type": "Feature", "properties": {"osm_id": 1473783318, "exposed_to_flood": false, "amenity": "fuel"}, "geometry": {"type": "Point", "coordinates": [99.8556415, 20.2514555]}}, {"type": "Feature", "properties": {"osm_id": 1473783327, "exposed_to_flood": false, "amenity": "fuel"}, "geometry": {"type": "Point", "coordinates": [99.8599534, 20.2677822]}}, {"type": "Feature", "properties": {"osm_id": 1473783328, "exposed_to_flood": false, "amenity": ""}, "geometry": {"type": "Point", "coordinates": [99.8598309, 20.2675465]}}, {"type": "Feature", "properties": {"osm_id": 1476418875, "exposed_to_flood": false, "amenity": ""}, "geometry": {"type": "Point", "coordinates": [99.8874633, 20.4204901]}}, {"type": "Feature", "properties": {"osm_id": 1479072917, "exposed_to_flood": false, "amenity": ""}, "geometry": {"type": "Point", "coordinates": [99.8437352, 20.3836418]}}, {"type": "Feature", "properties": {"osm_id": 1479072918, "exposed_to_flood": false, "amenity": "cafe"}, "geometry": {"type": "Point", "coordinates": [99.8436746, 20.3834557]}}, {"type": "Feature", "properties": {"osm_id": 1502436154, "exposed_to_flood": false, "amenity": ""}, "geometry": {"type": "Point", "coordinates": [99.8719111, 20.4015303]}}, {"type": "Feature", "properties": {"osm_id": 1533406568, "exposed_to_flood": false, "amenity": ""}, "geometry": {"type": "Point", "coordinates": [99.9063826, 20.444829]}}]}