{"type": "FeatureCollection", "features": [{"geometry": {"type": "Polygon", "coordinates": [[[99.99491162137427, 20.419668570448195], [99.99420593775388, 20.419592537265853], [99.99353005676674, 20.419469899416388], [99.9925836093461, 20.419283294588435], [99.99048583455365, 20.418531754536964], [99.98947171045121, 20.418345517531737], [99.98872815188285, 20.41822324480699], [99.98805592574053, 20.418672042480893], [99.98826041808383, 20.418989374560045], [99.98866859787752, 20.419497549072712], [99.98941297123166, 20.419746310543943], [99.99049479180128, 20.419932162639316], [99.99177928718446, 20.420243348751583], [99.99232243633148, 20.420685240531522], [99.99300200094162, 20.421381598182254], [99.99314126725575, 20.422081033313166], [99.99247026958734, 20.42272183984103], [99.99098734958667, 20.42304651308614], [99.98953820542398, 20.423501992722823], [99.98859377158534, 20.423633846824607], [99.98751334676362, 20.423576727284203], [99.98690331773399, 20.423261692073527], [99.98616154431994, 20.42332913942826], [99.98575683231198, 20.423460181442255], [99.98555557393065, 20.423651059848584], [99.98562529027502, 20.423969157250895], [99.98603265528294, 20.424348590215295], [99.98657540063431, 20.42472725605814], [99.9873214386336, 20.425233519511337], [99.98813536375616, 20.42586362950297], [99.98854293560807, 20.42617980865139], [99.98888222013836, 20.426496374508112], [99.98942417138842, 20.426748541711927], [99.98996489686256, 20.426808716249287], [99.99064284629041, 20.42724984720271], [99.99051073228456, 20.427761087504315], [99.98976874483179, 20.427891798567725], [99.98916011604659, 20.42770551569713], [99.98868462559508, 20.427260971816455], [99.98800911872593, 20.42720155810547], [99.98740232995371, 20.427396996973908], [99.98723029953881, 20.427948599748092], [99.98696429356737, 20.42860504458726], [99.98592702631132, 20.429375012646762], [99.98437699979881, 20.42944930294305], [99.98347274676999, 20.42962539289764], [99.98289689827335, 20.4301198473532], [99.98304424049941, 20.43052835270138], [99.98339267383294, 20.430940238601195], [99.98438672596676, 20.4309784597882], [99.98548043557375, 20.431224101511138], [99.98585937481039, 20.431631292949938], [99.9859205754743, 20.432149439145366], [99.9857798297754, 20.432777885391147], [99.98508852901249, 20.433327578005358], [99.9833228261876, 20.43353014310167], [99.98264971601165, 20.433852434042603], [99.9825848488118, 20.434297784615126], [99.98299183340656, 20.43461397995126], [99.98373466352402, 20.434609785513327], [99.9846122822312, 20.434604825752196], [99.98501824609528, 20.434665776404604], [99.98547345953267, 20.434674694082], [99.98605453129167, 20.434998873599245], [99.9866403208942, 20.434911839010255], [99.98787851558114, 20.435015824920477], [99.98819939818378, 20.435396051086936], [99.9879718103508, 20.436024991060602], [99.98716487925586, 20.436602637301963], [99.98611253846289, 20.436886763713215], [99.98519699714376, 20.43672293871274], [99.98429591152717, 20.436154963780645], [99.98360958221653, 20.436137444087777], [99.98354565031157, 20.43654124957908], [99.98375107435265, 20.436976714803613], [99.98442004404988, 20.437464137460037], [99.985349740698, 20.437977370659187], [99.98558394754127, 20.438385381380225], [99.98558638110673, 20.43876741518407], [99.98527053740543, 20.43917853845882], [99.98480752145007, 20.439183543186033], [99.98338339912468, 20.438343244545127], [99.98277319562659, 20.437991931582438], [99.98236858973875, 20.438103371073844], [99.98167063669062, 20.43920454865111], [99.98107366042122, 20.44086135796538], [99.98023520808847, 20.441758308499168], [99.9794951604733, 20.44220745870733], [99.9782127164438, 20.442341162714577], [99.97679467533409, 20.442349124412676], [99.97661114708684, 20.44212164629701], [99.97662614508066, 20.44108289785745], [99.97650483013392, 20.44021032704503], [99.9760972861609, 20.43985785395679], [99.97554722932125, 20.439860936832783], [99.97518211446307, 20.440274851603174], [99.97526512278726, 20.441035948750045], [99.97570506213897, 20.44193402523512], [99.97582465308534, 20.442533715658456], [99.97565439073765, 20.44308045130191], [99.9753385101642, 20.44349155838874], [99.97412222296235, 20.443443789999048], [99.97305154948943, 20.44353164476967], [99.97244546308771, 20.44383521182563], [99.97235166020106, 20.444537933978484], [99.97277369674879, 20.44500162982151], [99.97326365189609, 20.44503136140832], [99.97404568166297, 20.445081565162166], [99.97488613049055, 20.445213305949387], [99.97558320220311, 20.445564159358593], [99.97628285946648, 20.446324331103103], [99.97652822959422, 20.44779780462511], [99.9766976681629, 20.448333245682797], [99.97792132171176, 20.449600340083755], [99.97860297274902, 20.4506152295093], [99.97833437043492, 20.450869725057885], [99.97678187708209, 20.449696282457538], [99.97569099944019, 20.449357612164235], [99.97528519925267, 20.449233394205805], [99.97461039565339, 20.449300420678004], [99.97413930108796, 20.449558303073307], [99.97367019672232, 20.45013240598581], [99.97340601007937, 20.45108935838721], [99.97273639826626, 20.451983072261086], [99.97192938803092, 20.45256131835024], [99.97071694722943, 20.45307631691851], [99.97024662877904, 20.453460678167808], [99.96977830682346, 20.45416351903127], [99.96890456599301, 20.454805369672187], [99.9678914239502, 20.454811007522054], [99.96640616121547, 20.45481926329849], [99.96579843085293, 20.45488588417633], [99.9650586863094, 20.45540047894902], [99.96479125131535, 20.455846947378806], [99.96486293087969, 20.456483534287727], [99.9654073381782, 20.45711749877364], [99.9667602036206, 20.457491725562754], [99.96791175042705, 20.45805680108059], [99.96858938599144, 20.458434769049486], [99.96859497797597, 20.459326965766962], [99.96799181976684, 20.46003055306761], [99.96704952901268, 20.460544025486524], [99.96610247275102, 20.46029630003424], [99.96527947796571, 20.458326670539535], [99.96500627741777, 20.45775444810944], [99.96446505461861, 20.457630955904023], [99.96358849801092, 20.457827812103872], [99.96318405579964, 20.458019791280368], [99.96317240688126, 20.458759355959515], [99.96271367619532, 20.45948960636032], [99.96252359458825, 20.459963669587705], [99.96292930664225, 20.460503632436737], [99.9634060183731, 20.46061340098771], [99.96401178461629, 20.46075288313913], [99.96448769505125, 20.461258477496774], [99.96435625913414, 20.461896189457644], [99.9639532099727, 20.46221691557836], [99.9632775547155, 20.462157411935117], [99.96239698892997, 20.461715040816603], [99.96199135331835, 20.46171728462506], [99.96207595793925, 20.462476745905164], [99.96208026299391, 20.46316804756738], [99.96152930863076, 20.46343879296595], [99.96103743522956, 20.463101039981094], [99.96014496511809, 20.462378258449952], [99.9596031208874, 20.46216293467184], [99.95902601963522, 20.462689134296195], [99.9590283893488, 20.463070860531907], [99.95969072924392, 20.463836185391685], [99.95977268895855, 20.464599829418745], [99.95946790152252, 20.465256449625556], [99.95843505173643, 20.465366822520874], [99.95730387907085, 20.464940903599874], [99.95625968973293, 20.464655563103882], [99.95564130420287, 20.464549805529195], [99.95524852889653, 20.46482290085626], [99.9547271496383, 20.465171255948714], [99.95437064848679, 20.465102564831547], [99.95405797219776, 20.46448572523616], [99.9530133421921, 20.46412759631162], [99.95258889096456, 20.464166306729776], [99.95154000896429, 20.46311686625047], [99.95031133899721, 20.462291973895525], [99.94967615862792, 20.46138054157883], [99.94868471722603, 20.461345372690833], [99.94807617477574, 20.461285443668373], [99.94708620106746, 20.46084887677438], [99.94588273190261, 20.459763854618252], [99.94293448174108, 20.457451175131744], [99.94185198308259, 20.457202338117494], [99.94104060843746, 20.457097571595735], [99.94022879312443, 20.45692003103469], [99.93937660544603, 20.456451620046245], [99.9386777368882, 20.455800447932397], [99.93778783793836, 20.455477774779574], [99.93703392097879, 20.455680143823656], [99.93608808419772, 20.455621987364932], [99.93493973627989, 20.4555649145892], [99.93426333818253, 20.455376547090008], [99.93357485679434, 20.454663556478106], [99.93251478183184, 20.4547489372138], [99.93269478923325, 20.453302324642653], [99.93295026234485, 20.452447118839576], [99.93314136917888, 20.452046282010443], [99.93348745887923, 20.451513601871262], [99.93417948809305, 20.45092033530536], [99.93577567410819, 20.450218659063903], [99.93642993809128, 20.449477840729866], [99.93687904782983, 20.44885453860608], [99.93712207072701, 20.448193541398922], [99.93723781976962, 20.446912343829617], [99.93821482525402, 20.44508323340458], [99.93881799335578, 20.44271285881144], [99.93979825528541, 20.441426995559496], [99.94155927174307, 20.439904076412052], [99.94311110679223, 20.437838999170566], [99.94359777491752, 20.436633398612525], [99.9432424797567, 20.435835556965422], [99.94239802984538, 20.435669763348898], [99.94066879902597, 20.435640307854054], [99.93843849294221, 20.435460608020723], [99.93652241987394, 20.43572616972695], [99.93571454269212, 20.43547752426839], [99.93510088669657, 20.435148772597902], [99.93419976780518, 20.433843486687643], [99.93294641954171, 20.43283824968559], [99.93177065938842, 20.43247861259791], [99.93094991560616, 20.43228347410312], [99.9303531138052, 20.431698768183633], [99.9301430888326, 20.431001391601026], [99.9299831444067, 20.42861200893719], [99.93136961481592, 20.426162802471467], [99.934093282679, 20.423878866216707], [99.93645443022788, 20.42128631051489], [99.93802099976934, 20.419899616174362], [99.94060468006198, 20.41680713004508], [99.94440927996438, 20.41294482424435], [99.94639307288206, 20.410545417736973], [99.94837619130831, 20.40873230984824], [99.95164891686406, 20.405454828677485], [99.95414572264711, 20.40319047516035], [99.95639479488392, 20.400811029105782], [99.95922502971139, 20.399243273358394], [99.96312478508086, 20.397591959801144], [99.96273340462304, 20.395328128790126], [99.96312603873581, 20.395064608544892], [99.96555638551882, 20.39430112909392], [99.9680831153436, 20.394110843340787], [99.97013456246015, 20.39309051031885], [99.97253712378927, 20.391362135654163], [99.97521739666566, 20.390527221254448], [99.97949403452222, 20.389267689252552], [99.9839793402744, 20.388153701732005], [99.98961056757373, 20.38671235289285], [99.9926208367823, 20.386094409829155], [99.99491254947468, 20.385410761397626], [99.99630294002874, 20.38499597248622], [99.99911142025587, 20.384207401950153], [100.00190704647316, 20.38338046093957], [100.00325740730361, 20.38271538980339], [100.00447283745153, 20.381746146367636], [100.0053692978549, 20.38044442896737], [100.00553827956799, 20.38012740355692], [100.00583186684727, 20.37988157927154], [100.00639410680266, 20.379313071940825], [100.00702041535996, 20.379343906096484], [100.0072525213869, 20.378935981710306], [100.00751515939713, 20.378803454915605], [100.00794853369791, 20.379003116100964], [100.00811895072907, 20.38039242746864], [100.00815718720452, 20.381300246309387], [100.00824113532018, 20.38209994325786], [100.00862464940812, 20.382090386162375], [100.00903309360255, 20.381263561164534], [100.00934855689053, 20.38096583340655], [100.00962777300337, 20.38080384302304], [100.01012459717253, 20.38085969721732], [100.01045606389633, 20.38118078756339], [100.01065661720926, 20.381446164908677], [100.0108228622854, 20.38205282058133], [100.0107274325251, 20.383124046237775], [100.01077918131429, 20.383713294632965], [100.01093590346919, 20.383960855509173], [100.0112787538115, 20.384189266221767], [100.0120682335622, 20.38439701680891], [100.01311505971232, 20.3847613861292], [100.01351660250928, 20.38498945240146], [100.01380938939197, 20.38525429015342], [100.01391352458953, 20.385655751112132], [100.0136790173728, 20.38606143978368], [100.01305341927997, 20.386312035871825], [100.01284955915993, 20.38592395142931], [100.01266238775911, 20.385599770113423], [100.01238572122423, 20.385235450255852], [100.01208046883865, 20.38507910401761], [100.01170191541121, 20.38507000557639], [100.01155427191219, 20.385296741751386], [100.01165689355092, 20.38578856568977], [100.01209676095678, 20.386474949859174], [100.01223100275871, 20.38685590897311], [100.01228613030077, 20.387273466897142], [100.01254222574313, 20.387375886188288], [100.0130224295416, 20.387359546405982], [100.01361494427425, 20.387345940562806], [100.01391641680925, 20.387564421860645], [100.01397250392804, 20.38785322204866], [100.01381392557225, 20.388147787790246], [100.01363369693767, 20.388611889227413], [100.01368022786028, 20.38895043901158], [100.01390177944366, 20.3891275973608], [100.01417241872213, 20.389209599343577], [100.01458362473457, 20.38917332698746], [100.01513334163056, 20.388887778748018], [100.01539798422971, 20.388968685356577], [100.01586144085285, 20.38959506316166], [100.01651979495263, 20.390076870451264], [100.01773698777183, 20.390476357398093], [100.01871021970094, 20.390843378818925], [100.01916141946404, 20.391059846534784], [100.0196395692109, 20.39154947073157], [100.0204540024504, 20.392538579292033], [100.02133144938695, 20.39318171866144], [100.02199746031468, 20.39354825984431], [100.02248766547345, 20.393592822151053], [100.02282995104143, 20.393457546128932], [100.02309513413314, 20.393164606361612], [100.02359228475629, 20.392174596680416], [100.02391844997655, 20.391140413199604], [100.02421942428715, 20.39028256338965], [100.02443915923989, 20.39000118260859], [100.02473132559028, 20.389805210442184], [100.02536299140905, 20.38968855937956], [100.02613298375027, 20.389478482246172], [100.02631043617784, 20.38896243326976], [100.02628894148154, 20.38851983642143], [100.02616279537682, 20.388100442081843], [100.02567759404582, 20.387496809030623], [100.02538086633402, 20.386503553696166], [100.02516908498541, 20.38622018990988], [100.02419224317757, 20.38566687482648], [100.02407567755053, 20.38529146902613], [100.02417767146241, 20.384956568690868], [100.02471820358234, 20.38482690263945], [100.02526856619147, 20.3849162808618], [100.02617111050846, 20.385464379877355], [100.027314760368, 20.386245969875638], [100.02781036235841, 20.386746762752978], [100.02810778704489, 20.38725549754323], [100.02848998452527, 20.38790377743744], [100.02867000631582, 20.388679741277066], [100.02858465435845, 20.389355623163482], [100.02840500848453, 20.389991403380684], [100.02760463704448, 20.391039681036517], [100.02617013024735, 20.391743834010775], [100.02546647459828, 20.392567913378564], [100.02509970049084, 20.39343744628114], [100.0248851492304, 20.394141191862627], [100.02504369341173, 20.394840485799836], [100.02562703865706, 20.395383684409648], [100.02637974512923, 20.395724852120296], [100.02698171173672, 20.395822954665697], [100.02766896375178, 20.39559528679302], [100.02819668143178, 20.39515397057936], [100.02893630816419, 20.393794334141372], [100.0295902816663, 20.392344849135608], [100.03034301331951, 20.391879611854655], [100.03106031708009, 20.391491379024025], [100.03271456872244, 20.39123312700724], [100.03335431135251, 20.391340019526375], [100.03383434068235, 20.391655664477433], [100.03412315795744, 20.3922163908738], [100.03425142016708, 20.393218533308684], [100.03388922091094, 20.394587247503473], [100.03330763204173, 20.39574945217558], [100.0327632957896, 20.397200559558254], [100.03275211721656, 20.397860192494015], [100.03288682306854, 20.398211765360756], [100.0332575137234, 20.398564198878724], [100.03371939923096, 20.39876023579626], [100.03423543831488, 20.39868037689788], [100.03444801556357, 20.399076663157498], [100.03445380360027, 20.399944002613715], [100.03446066183025, 20.400971710076465], [100.03387957927927, 20.401763473205804], [100.033375519165, 20.40153154704327], [100.032867159392, 20.40074398284861], [100.03244325135498, 20.399955917731422], [100.03168816617601, 20.399802271257876], [100.03093683656589, 20.400122944318543], [100.03077124259886, 20.40044015408992], [100.03102594229347, 20.400912994239352], [100.03136389312927, 20.401385340661026], [100.03195390414945, 20.401932994512208], [100.03220913624277, 20.402484886868084], [100.03179357391433, 20.403040749730884], [100.03129107502315, 20.4030437219903], [100.03086979660398, 20.40265092510019], [100.03044484265543, 20.40170474567753], [100.02993546035324, 20.400761322677003], [100.02943191914785, 20.400606180630806], [100.02834623509074, 20.401086932116378], [100.02818324196316, 20.401797153715684], [100.02843636244825, 20.402032833648416], [100.02894148196395, 20.402425142206592], [100.02885973179134, 20.402741854652955], [100.02835723379944, 20.40274481881836], [100.02760266213323, 20.40267021016215], [100.02701736266128, 20.402831773367748], [100.02652009962297, 20.403625278483805], [100.02644042238765, 20.40425594965239], [100.02610771370001, 20.404574138785563], [100.02560625532448, 20.404735204666096], [100.02485324398211, 20.40489774723331], [100.02376646994668, 20.405220362829557], [100.02326657279423, 20.40561858622886], [100.02302074491148, 20.406487404170427], [100.02286034632803, 20.407595153093936], [100.02219532735266, 20.408387372179565], [100.02169178165043, 20.40823446764659], [100.02168656917992, 20.407443920400688], [100.02168031529442, 20.406495264245123], [100.02134342296068, 20.406181007847334], [100.02075914331986, 20.40650066017737], [100.0205101911925, 20.406897406889833], [100.0199243467313, 20.406979892707902], [100.01925360896693, 20.40690475704901], [100.01833191538574, 20.406831085486303], [100.01749555127877, 20.40707314251159], [100.01691229776438, 20.407550892060055], [100.01641598980619, 20.408500220908543], [100.01600302561917, 20.40937226471828], [100.01525257015003, 20.409930041338438], [100.015339531894, 20.410403881534005], [100.01584515233199, 20.410873023671233], [100.01719288894076, 20.41197197362772], [100.01711474325096, 20.412842065009436], [100.0166163461675, 20.413475175139347], [100.0155284569728, 20.413639633262562], [100.01402025073408, 20.413648414243024], [100.01385675938212, 20.414202769842042], [100.01302498721351, 20.41515404122612], [100.01202145442664, 20.41539704433824], [100.01151839615707, 20.41532090773384], [100.01075913992247, 20.414536992987873], [100.00916191608961, 20.41375566918885], [100.00849329532946, 20.413917655075814], [100.00841304162866, 20.414471525040874], [100.00875044297867, 20.414864861524222], [100.01018149458041, 20.41588206670415], [100.01026999236637, 20.416593074311017], [100.01006473110263, 20.417266255533402], [100.0088492164182, 20.417154709921963], [100.00767743306716, 20.417319605115743], [100.00709563825322, 20.418032230603057], [100.00668311203607, 20.418983308632836], [100.0055107989843, 20.41906913543238], [100.003487188583, 20.417106609682392], [100.00306388938712, 20.416397524825978], [100.00322537345227, 20.415526957703086], [100.00330156401598, 20.41434290759919], [100.00279185975664, 20.413239029357776], [100.0014498302456, 20.413009570935003], [100.00111807124203, 20.413485824910918], [100.00112062621601, 20.413881100332624], [100.00137730531843, 20.414670205965376], [100.00180211087883, 20.4156142027334], [100.00121979715601, 20.416250012628108], [100.00046618866378, 20.416333398667447], [99.99895803818303, 20.416262991643876], [99.9978705258042, 20.416585454355364], [99.99753874791493, 20.41706170203601], [99.99704432673431, 20.41832720193894], [99.99629680845099, 20.41935923244266], [99.99491162137427, 20.419668570448195]]], "crs": null}, "id": 7563, "type": "Feature", "properties": {"fid": 7563, "amphoe_e": "Amphoe Mae Sai", "am_id": 9, "tambon_t": "\u0e15.\u0e40\u0e01\u0e32\u0e30\u0e0a\u0e49\u0e32\u0e07", "amphoe_t": "\u0e2d.\u0e41\u0e21\u0e48\u0e2a\u0e32\u0e22", "changwat_e": "Changwat Chiangrai", "ch_id": 57, "ad_level": 4, "tambon_e": " ", "changwat_t": "\u0e08.\u0e40\u0e0a\u0e35\u0e22\u0e07\u0e23\u0e32\u0e22", "SHAPE__Length": 53760.68507372242, "SHAPE__Area": 52607251.164584294, "tambon_id": 570903, "subdistrict_id": "570903", "subdistrict_name_th": "\u0e15.\u0e40\u0e01\u0e32\u0e30\u0e0a\u0e49\u0e32\u0e07", "subdistrict_name": "Ko Chang"}}, {"geometry": {"type": "Polygon", "coordinates": [[[99.93251478183184, 20.4547489372138], [99.93224146167421, 20.455216492047498], [99.93204158375224, 20.45568148111553], [99.93178991297422, 20.456259457408027], [99.9314822971704, 20.456467787158708], [99.93071069953925, 20.45585234061309], [99.9297554261721, 20.45561076292649], [99.92906749516881, 20.45508346433046], [99.92850513290563, 20.455018153764826], [99.92761056917246, 20.454739007799127], [99.92678823359017, 20.454192235283514], [99.92639061003872, 20.45372903406775], [99.9262675063404, 20.453183052955666], [99.92663721673424, 20.452544778019217], [99.92660613796298, 20.452190181631664], [99.92604675785167, 20.451939612523226], [99.92565897378267, 20.451817439623238], [99.92533292547425, 20.451768752126306], [99.92489366061409, 20.45148976623988], [99.92471765699433, 20.451108649744402], [99.92468544058072, 20.45056303375711], [99.92456669229907, 20.450072455379523], [99.9245065024732, 20.449690723747924], [99.92421595490254, 20.449553256077948], [99.9236409994326, 20.449506083039363], [99.92319522348082, 20.449503930961693], [99.92285491821994, 20.449304699652284], [99.92258276538249, 20.448879223197647], [99.92221121947233, 20.44853954296567], [99.92177525512398, 20.448700536000967], [99.92144868610805, 20.448995912931068], [99.92109625708667, 20.449023755042415], [99.92069237155579, 20.448761608061904], [99.92058774982479, 20.44839736015018], [99.92078066969228, 20.447994267821297], [99.92091126024654, 20.447487597874396], [99.92081921373578, 20.44712215386444], [99.92069851752265, 20.446774931917652], [99.92049821332202, 20.44654107311216], [99.92016996796968, 20.446353066241024], [99.91973556484456, 20.446246938145777], [99.91930211589998, 20.446301180754947], [99.919065717409, 20.44654638270951], [99.91898832535108, 20.446831404845554], [99.91888863999878, 20.447599370114897], [99.9185553818255, 20.447777882843116], [99.91779477390983, 20.447323351091825], [99.91713271100593, 20.447017380148022], [99.91675216557998, 20.44700131465907], [99.91632671520581, 20.447091648860646], [99.91540269238044, 20.44767251377555], [99.91469231879556, 20.448112204015004], [99.91430806096834, 20.44838076496044], [99.91424637017396, 20.448688290831996], [99.91431293169654, 20.449001919503097], [99.91463534044871, 20.449621405803324], [99.91473818062266, 20.450041008785593], [99.91444677419939, 20.45020630507692], [99.91333124614012, 20.45006872679037], [99.91213290760773, 20.44995980989735], [99.91127544270768, 20.44981507930257], [99.91037919274558, 20.45003808508963], [99.90939575890728, 20.450206963380776], [99.90784544461168, 20.45006806219141], [99.90615889741522, 20.449975203592818], [99.90556585478043, 20.449892454273403], [99.90515448868884, 20.449678874280753], [99.90493324827082, 20.449396540218324], [99.90462988985763, 20.44895425543462], [99.9043715919754, 20.44884039676699], [99.90405523026477, 20.449043076976427], [99.90409515027109, 20.449852525273847], [99.90395182081994, 20.450098874763352], [99.90372226706904, 20.449890741964182], [99.90357144626537, 20.44941861227923], [99.90319171382666, 20.44884750231048], [99.9026987216688, 20.448713612143536], [99.90190774184886, 20.448670662321234], [99.90113711908289, 20.448732002380044], [99.90100154358645, 20.44804130236433], [99.90087300258706, 20.44749702187017], [99.900496801786, 20.44748146269945], [99.90013342082082, 20.447944145905645], [99.89996173394697, 20.4481957654223], [99.89959975502472, 20.448359143459758], [99.8991747561102, 20.448143361926714], [99.89890343604482, 20.448107491567573], [99.89849915840949, 20.448286898221838], [99.89798731826025, 20.448463471112426], [99.8972486879767, 20.448483091621405], [99.89693698925076, 20.448561499014026], [99.89663551761504, 20.44875053650812], [99.8961677955074, 20.449200195732548], [99.89584326705315, 20.449339656300214], [99.89558234225147, 20.449185138383513], [99.89530025550243, 20.448583478444856], [99.89494165353453, 20.448011576173382], [99.89442388145709, 20.447370465674535], [99.89399561710411, 20.44671760103654], [99.89345655177858, 20.44658935501476], [99.89288003058904, 20.446666854991477], [99.89216015027088, 20.446819630021984], [99.89181633315734, 20.446627131037346], [99.8918700811395, 20.446040773962654], [99.89237346046687, 20.445628551716332], [99.89245208189818, 20.444977173657712], [99.89260655664731, 20.44451973889492], [99.89242112993124, 20.443854483397683], [99.89201407429015, 20.4435563842198], [99.89139816998969, 20.443734332173676], [99.89094851885915, 20.44454426700439], [99.89072083210088, 20.44522767171981], [99.89037560664904, 20.445611492476527], [99.88987073624556, 20.44575952538191], [99.88948939222172, 20.44581229849884], [99.88859663252866, 20.445386546851722], [99.8880667232008, 20.44533842682698], [99.88775178331828, 20.44537391587358], [99.88736253065632, 20.445719245646774], [99.88707070604835, 20.445815604406725], [99.88680023314429, 20.44576954652741], [99.88645842871362, 20.445613167913358], [99.88574903628903, 20.44561000229984], [99.88523756845906, 20.445748135468225], [99.88415506260614, 20.44639966821016], [99.8836744595088, 20.44648794476288], [99.88321478003812, 20.446463171138483], [99.8816703086379, 20.445745908746805], [99.88100952996587, 20.445442050310465], [99.8804572877737, 20.445259618336756], [99.87979844893931, 20.44519066641624], [99.87888042818935, 20.445269845427063], [99.87972632061333, 20.443359100841903], [99.88026662430525, 20.442498005378706], [99.88155497508221, 20.441488555952212], [99.88229317728845, 20.44076876017021], [99.88342995722685, 20.439454422583665], [99.88383277346385, 20.437900149472423], [99.8836610092482, 20.43665923613496], [99.88382169021894, 20.435959917016586], [99.88437179022604, 20.435304920985363], [99.8851730025321, 20.434883386259315], [99.88589870955785, 20.434082321442094], [99.88624942716943, 20.433393845449697], [99.88655847019734, 20.432646851471045], [99.88648300268842, 20.43191762539814], [99.8857808965712, 20.431083162458048], [99.88540062363991, 20.430460881964265], [99.88501789376096, 20.430454223383855], [99.88408133348679, 20.43053528017914], [99.88381949407443, 20.43033794194255], [99.8834164008463, 20.42947113038836], [99.88289730946337, 20.42843131085638], [99.88206460919444, 20.42643418189209], [99.88168453591274, 20.42449348808415], [99.8818401554988, 20.422997337257424], [99.88208492398022, 20.42242912490425], [99.88268577452894, 20.42222052625631], [99.88382049232196, 20.422558120960606], [99.88596460648155, 20.42341914987385], [99.88735729840072, 20.424161266829028], [99.88996098681017, 20.425232917864918], [99.89041362009257, 20.425196553777965], [99.89056581056374, 20.424817419388464], [99.89021967949472, 20.42368411982629], [99.88965577219622, 20.422260887829786], [99.88965058940329, 20.421358679859264], [99.88991227952812, 20.42082363540246], [99.89032727348496, 20.42091865866927], [99.89113012345653, 20.420943659822075], [99.89190260512119, 20.421056124540563], [99.89199088886852, 20.42235610804795], [99.89264553146613, 20.423376015690675], [99.89364975313373, 20.423725507526274], [99.89527651519911, 20.4239927365756], [99.89678831692738, 20.4236483933587], [99.89841592795274, 20.422512841894182], [99.90194763037898, 20.41833521669695], [99.90530027149043, 20.41554454034838], [99.9076052725654, 20.41407874343927], [99.90994592276613, 20.41281365452661], [99.9127269628791, 20.411407309999397], [99.91315177113746, 20.411403234271965], [99.91391999181428, 20.411395861629803], [99.91462914951572, 20.41124662093485], [99.91730624688587, 20.40977734454889], [99.91857163257485, 20.40866166810159], [99.92185058683512, 20.40564968298651], [99.92387563075589, 20.403572568319376], [99.92550193776428, 20.401934110570856], [99.92657571839476, 20.400822450495735], [99.92706612769972, 20.40023776076411], [99.92757645788731, 20.399989156674312], [99.92783757424469, 20.40025470219283], [99.93645443022788, 20.42128631051489], [99.934093282679, 20.423878866216707], [99.93136961481592, 20.426162802471467], [99.9299831444067, 20.42861200893719], [99.9301430888326, 20.431001391601026], [99.9303531138052, 20.431698768183633], [99.93094991560616, 20.43228347410312], [99.93177065938842, 20.43247861259791], [99.93294641954171, 20.43283824968559], [99.93419976780518, 20.433843486687643], [99.93510088669657, 20.435148772597902], [99.93571454269212, 20.43547752426839], [99.93652241987394, 20.43572616972695], [99.93843849294221, 20.435460608020723], [99.94066879902597, 20.435640307854054], [99.94239802984538, 20.435669763348898], [99.9432424797567, 20.435835556965422], [99.94359777491752, 20.436633398612525], [99.94311110679223, 20.437838999170566], [99.94155927174307, 20.439904076412052], [99.93979825528541, 20.441426995559496], [99.93881799335578, 20.44271285881144], [99.93821482525402, 20.44508323340458], [99.93723781976962, 20.446912343829617], [99.93712207072701, 20.448193541398922], [99.93687904782983, 20.44885453860608], [99.93642993809128, 20.449477840729866], [99.93577567410819, 20.450218659063903], [99.93417948809305, 20.45092033530536], [99.93348745887923, 20.451513601871262], [99.93314136917888, 20.452046282010443], [99.93295026234485, 20.452447118839576], [99.93269478923325, 20.453302324642653], [99.93251478183184, 20.4547489372138]]], "crs": null}, "id": 7564, "type": "Feature", "properties": {"fid": 7564, "amphoe_e": "Amphoe Mae Sai", "am_id": 9, "tambon_t": "\u0e15.\u0e41\u0e21\u0e48\u0e2a\u0e32\u0e22", "amphoe_t": "\u0e2d.\u0e41\u0e21\u0e48\u0e2a\u0e32\u0e22", "changwat_e": "Changwat Chiangrai", "ch_id": 57, "ad_level": 4, "tambon_e": " ", "changwat_t": "\u0e08.\u0e40\u0e0a\u0e35\u0e22\u0e07\u0e23\u0e32\u0e22", "SHAPE__Length": 27681.102446771285, "SHAPE__Area": 24301512.696264766, "tambon_id": 570901, "subdistrict_id": "570901", "subdistrict_name_th": "\u0e15.\u0e41\u0e21\u0e48\u0e2a\u0e32\u0e22", "subdistrict_name": "Mae Sai"}}, {"geometry": {"type": "Polygon", "coordinates": [[[99.87888042818935, 20.445269845427063], [99.87827319784994, 20.445426511824152], [99.87774662500688, 20.445438203010788], [99.8764744647248, 20.445191621496203], [99.8753369185641, 20.44501663590906], [99.87403967708958, 20.444677549229553], [99.87277926824868, 20.44438796213477], [99.8716393199987, 20.444423038392625], [99.87055752011355, 20.444676925999417], [99.86921957532326, 20.44551487111451], [99.86777281256536, 20.4465024328411], [99.86717898122502, 20.446808079129667], [99.86652898272645, 20.446820352177575], [99.86581743192905, 20.446433109500497], [99.86520725001459, 20.446065690579157], [99.86467611401144, 20.446119153476214], [99.86410850780146, 20.44661553338024], [99.8637347054924, 20.446626423270857], [99.86348464989685, 20.44648083832012], [99.86290577338285, 20.445817344594854], [99.86200879047335, 20.445051517013958], [99.86125851666726, 20.444377572267147], [99.86065569300594, 20.443714189158545], [99.8595886051301, 20.443168297978644], [99.85856645907492, 20.442250895962157], [99.85845281984183, 20.441421786686217], [99.85887750399372, 20.44091216156707], [99.85994264124007, 20.43981531332608], [99.86109416196612, 20.438636160930127], [99.86215501124484, 20.436775207310053], [99.8625819697822, 20.435463182779657], [99.86266030163168, 20.43393456552786], [99.86201713078599, 20.433215035045848], [99.86131106225578, 20.43261541117235], [99.8606827365192, 20.431769863188684], [99.86053024837233, 20.430943224350425], [99.86002794553332, 20.42911728763282], [99.85944047509795, 20.427591955604388], [99.85849078742004, 20.424014015434516], [99.85778056222318, 20.422004860735765], [99.85705436596625, 20.420153580223626], [99.85516177059932, 20.418170716305614], [99.85396036717735, 20.41710154380124], [99.85301848381604, 20.415104795250187], [99.85166588906965, 20.414148928330395], [99.84962005731988, 20.412449144912156], [99.8484104934496, 20.411106486775], [99.84755904321528, 20.40952965506956], [99.84590153962438, 20.408145916800684], [99.84444177896505, 20.407642566251468], [99.84241840868272, 20.406434818112402], [99.84145881047581, 20.405879249327974], [99.84074745573058, 20.405040118007072], [99.83999750118376, 20.40298936067049], [99.83966067180266, 20.402527441888033], [99.83929598232385, 20.402290767305164], [99.83867164687905, 20.401573723448653], [99.83860475080863, 20.40119492270763], [99.83948844983215, 20.39985345976944], [99.83950335699438, 20.39726083571907], [99.83914761756853, 20.39570701586612], [99.83879624255265, 20.39468350014344], [99.83807381895174, 20.392559102720472], [99.83761306838849, 20.39130763404017], [99.83743103121726, 20.389650485681482], [99.83751730497976, 20.38910116178933], [99.83786236675489, 20.388451204659418], [99.83851692301776, 20.38766422682271], [99.8392734336222, 20.386864432747462], [99.83958736086811, 20.386044221363818], [99.83969588925397, 20.384706485216146], [99.83960404599003, 20.383779064752172], [99.83960365658353, 20.382347986170668], [99.83986740345794, 20.381194554385253], [99.83988387544058, 20.37973074767597], [99.84003948153696, 20.376711087746557], [99.84005878728333, 20.37445081355425], [99.84046682858136, 20.37409197866195], [99.84109711663878, 20.37386356345278], [99.84298391947247, 20.37300923089137], [99.84445915926283, 20.371723316378002], [99.84586887265036, 20.36999161691964], [99.84637084723688, 20.369513357455542], [99.84740631944611, 20.368556681146007], [99.84809700597219, 20.367988282633238], [99.84893126296745, 20.36727810060395], [99.84937966044305, 20.368264571452915], [99.85020022705896, 20.37077819096081], [99.85061679482928, 20.371273938641494], [99.85226241747667, 20.37268901108912], [99.85277988828139, 20.37318406179515], [99.85290637882638, 20.373736432590377], [99.8520228425802, 20.3758362857161], [99.85201412904895, 20.378717507607007], [99.85254447454793, 20.38348283436535], [99.85292331126189, 20.384633012403658], [99.85328733883973, 20.3849406992539], [99.85394592496465, 20.385012020888155], [99.85554337362784, 20.38450046672328], [99.85775215803575, 20.38429084284818], [99.85919140605866, 20.384740056908196], [99.85970655211575, 20.385080869386673], [99.86019198727055, 20.3856793385307], [99.86104041668196, 20.388229943557114], [99.8613149877965, 20.389572619680663], [99.86157903594378, 20.390206059861807], [99.8627482625223, 20.39152172394848], [99.86305583156141, 20.392224971305442], [99.86348733617167, 20.394210645604876], [99.86447890617663, 20.396311004149602], [99.86499105029678, 20.396963537837042], [99.86597718300068, 20.39743978461852], [99.8683988863996, 20.3980014975711], [99.87119040990959, 20.398927265980586], [99.87488071946966, 20.39927247164734], [99.8799835213226, 20.399873725092434], [99.88206621358499, 20.399979445794873], [99.88344165380936, 20.4000114661563], [99.88342278153621, 20.4014385814255], [99.88379044327445, 20.40184105502074], [99.88462757899961, 20.402013001798665], [99.88830849244303, 20.40177181531716], [99.88904978382062, 20.401845649657055], [99.88998991620178, 20.40187503410567], [99.89024291977502, 20.402438457568767], [99.89054246686152, 20.403387906926476], [99.89079007540174, 20.403741283833234], [99.8910430394048, 20.40388004023173], [99.8914091884833, 20.404161956109384], [99.89202567554463, 20.404003579201962], [99.89235248737745, 20.403575044153012], [99.8926730408282, 20.40205997608712], [99.89304176196785, 20.401360394366733], [99.89410435143476, 20.40065209461855], [99.89506414389515, 20.400285934748112], [99.89573351918669, 20.39993011618203], [99.89648231990326, 20.3991198566961], [99.89730369860692, 20.39854368804085], [99.89799617838099, 20.397298337448397], [99.8988962306765, 20.39636236173365], [99.89933544967134, 20.39403174886617], [99.89982436790032, 20.39317549984946], [99.9002725765182, 20.392397070068807], [99.90088585210046, 20.391695400122725], [99.90149551420666, 20.39037285352442], [99.90210448833157, 20.388933890586678], [99.90309259954385, 20.387825551707913], [99.90428316343734, 20.38723168619345], [99.90616768289236, 20.3870113513928], [99.9079314018128, 20.38599323340105], [99.90844708746319, 20.38541741638075], [99.90951302960269, 20.38395925561526], [99.91069120713352, 20.386405715551422], [99.91111710267218, 20.388848254443424], [99.91106379625731, 20.39063159657096], [99.91122598718964, 20.39090122411224], [99.91165476325688, 20.390834803783196], [99.91319976795505, 20.390088078701993], [99.91577159518306, 20.389392426119663], [99.91761020874415, 20.389852280058722], [99.91924921058273, 20.3903675286386], [99.91922058606129, 20.390746034402], [99.9189462397772, 20.391329564008185], [99.9183989186753, 20.39272945140314], [99.91849910225184, 20.394009510430735], [99.91869240612978, 20.395376391807165], [99.91895383185398, 20.397819770665922], [99.9186242896793, 20.399509552723735], [99.9174932006508, 20.401378176661666], [99.9155310364283, 20.403658619949407], [99.91452240538473, 20.404851763997833], [99.91453263247509, 20.40709815895301], [99.91389450053087, 20.40881865465727], [99.91325601065648, 20.410480941742055], [99.91315177113746, 20.411403234271965], [99.9127269628791, 20.411407309999397], [99.90994592276613, 20.41281365452661], [99.9076052725654, 20.41407874343927], [99.90530027149043, 20.41554454034838], [99.90194763037898, 20.41833521669695], [99.89841592795274, 20.422512841894182], [99.89678831692738, 20.4236483933587], [99.89527651519911, 20.4239927365756], [99.89364975313373, 20.423725507526274], [99.89264553146613, 20.423376015690675], [99.89199088886852, 20.42235610804795], [99.89190260512119, 20.421056124540563], [99.89113012345653, 20.420943659822075], [99.89032727348496, 20.42091865866927], [99.88991227952812, 20.42082363540246], [99.88965058940329, 20.421358679859264], [99.88965577219622, 20.422260887829786], [99.89021967949472, 20.42368411982629], [99.89056581056374, 20.424817419388464], [99.89041362009257, 20.425196553777965], [99.88996098681017, 20.425232917864918], [99.88735729840072, 20.424161266829028], [99.88596460648155, 20.42341914987385], [99.88382049232196, 20.422558120960606], [99.88268577452894, 20.42222052625631], [99.88208492398022, 20.42242912490425], [99.8818401554988, 20.422997337257424], [99.88168453591274, 20.42449348808415], [99.88206460919444, 20.42643418189209], [99.88289730946337, 20.42843131085638], [99.8834164008463, 20.42947113038836], [99.88381949407443, 20.43033794194255], [99.88408133348679, 20.43053528017914], [99.88501789376096, 20.430454223383855], [99.88540062363991, 20.430460881964265], [99.8857808965712, 20.431083162458048], [99.88648300268842, 20.43191762539814], [99.88655847019734, 20.432646851471045], [99.88624942716943, 20.433393845449697], [99.88589870955785, 20.434082321442094], [99.8851730025321, 20.434883386259315], [99.88437179022604, 20.435304920985363], [99.88382169021894, 20.435959917016586], [99.8836610092482, 20.43665923613496], [99.88383277346385, 20.437900149472423], [99.88342995722685, 20.439454422583665], [99.88229317728845, 20.44076876017021], [99.88155497508221, 20.441488555952212], [99.88026662430525, 20.442498005378706], [99.87972632061333, 20.443359100841903], [99.87888042818935, 20.445269845427063]]], "crs": null}, "id": 7565, "type": "Feature", "properties": {"fid": 7565, "amphoe_e": "Amphoe Mae Sai", "am_id": 9, "tambon_t": "\u0e15.\u0e40\u0e27\u0e35\u0e22\u0e07\u0e1e\u0e32\u0e07\u0e04\u0e33", "amphoe_t": "\u0e2d.\u0e41\u0e21\u0e48\u0e2a\u0e32\u0e22", "changwat_e": "Changwat Chiangrai", "ch_id": 57, "ad_level": 4, "tambon_e": " ", "changwat_t": "\u0e08.\u0e40\u0e0a\u0e35\u0e22\u0e07\u0e23\u0e32\u0e22", "SHAPE__Length": 37294.32086811439, "SHAPE__Area": 35357454.855649345, "tambon_id": 570906, "subdistrict_id": "570906", "subdistrict_name_th": "\u0e15.\u0e40\u0e27\u0e35\u0e22\u0e07\u0e1e\u0e32\u0e07\u0e04\u0e33", "subdistrict_name": "Wiang Phang Kham"}}, {"geometry": {"type": "Polygon", "coordinates": [[[99.99491254947468, 20.385410761397626], [99.9926208367823, 20.386094409829155], [99.98961056757373, 20.38671235289285], [99.9839793402744, 20.388153701732005], [99.97949403452222, 20.389267689252552], [99.97521739666566, 20.390527221254448], [99.97253712378927, 20.391362135654163], [99.97013456246015, 20.39309051031885], [99.9680831153436, 20.394110843340787], [99.96555638551882, 20.39430112909392], [99.96312603873581, 20.395064608544892], [99.96273340462304, 20.395328128790126], [99.96312478508086, 20.397591959801144], [99.95922502971139, 20.399243273358394], [99.95639479488392, 20.400811029105782], [99.95414572264711, 20.40319047516035], [99.95164891686406, 20.405454828677485], [99.94837619130831, 20.40873230984824], [99.94639307288206, 20.410545417736973], [99.94440927996438, 20.41294482424435], [99.94060468006198, 20.41680713004508], [99.93802099976934, 20.419899616174362], [99.93645443022788, 20.42128631051489], [99.92783757424469, 20.40025470219283], [99.92757645788731, 20.399989156674312], [99.92706612769972, 20.40023776076411], [99.92657571839476, 20.400822450495735], [99.92550193776428, 20.401934110570856], [99.92387563075589, 20.403572568319376], [99.92185058683512, 20.40564968298651], [99.91857163257485, 20.40866166810159], [99.91730624688587, 20.40977734454889], [99.91462914951572, 20.41124662093485], [99.91391999181428, 20.411395861629803], [99.91315177113746, 20.411403234271965], [99.91325601065648, 20.410480941742055], [99.91389450053087, 20.40881865465727], [99.91453263247509, 20.40709815895301], [99.91452240538473, 20.404851763997833], [99.9155310364283, 20.403658619949407], [99.9174932006508, 20.401378176661666], [99.9186242896793, 20.399509552723735], [99.91895383185398, 20.397819770665922], [99.91869240612978, 20.395376391807165], [99.91849910225184, 20.394009510430735], [99.9183989186753, 20.39272945140314], [99.9189462397772, 20.391329564008185], [99.91922058606129, 20.390746034402], [99.91924921058273, 20.3903675286386], [99.91761020874415, 20.389852280058722], [99.91577159518306, 20.389392426119663], [99.91319976795505, 20.390088078701993], [99.91165476325688, 20.390834803783196], [99.91122598718964, 20.39090122411224], [99.91106379625731, 20.39063159657096], [99.91111710267218, 20.388848254443424], [99.91069120713352, 20.386405715551422], [99.90951302960269, 20.38395925561526], [99.91028329533795, 20.38346097094716], [99.91105957394026, 20.383309677999335], [99.91190947554198, 20.383093986398432], [99.9125413589966, 20.382730212429436], [99.9134201549163, 20.381725705676875], [99.91568466401617, 20.380618761646634], [99.91648720372156, 20.38026538384044], [99.91694259702328, 20.379959612546124], [99.91723631650294, 20.378856727156347], [99.91788974231785, 20.378324794353855], [99.91862668187593, 20.377680622562693], [99.9195177598368, 20.37700653212584], [99.91991501736425, 20.376335040729614], [99.92009174403883, 20.374907999204908], [99.91998932204969, 20.373380909901133], [99.92047864047693, 20.372490302285684], [99.92103071269734, 20.371905304985862], [99.92142812400886, 20.37126291295309], [99.92145605065639, 20.370767992648798], [99.92098673135263, 20.369693609472606], [99.921014861247, 20.369307968488023], [99.92236566544317, 20.368027386055054], [99.9232244271657, 20.36712061402517], [99.92405352924706, 20.366417725497676], [99.92482159524053, 20.36583157436774], [99.92602309758793, 20.365475955451018], [99.92681287591355, 20.365281506736196], [99.93020984550803, 20.364958905529175], [99.9314166934257, 20.36490884476738], [99.93222482691438, 20.364577110045676], [99.9326798757757, 20.363264989287906], [99.93286641855055, 20.362208963073225], [99.9332600985748, 20.361152284850103], [99.93375582826894, 20.36091205974383], [99.93682696359355, 20.360077708319594], [99.93874735340776, 20.358684947152675], [99.93954993897862, 20.357443702864643], [99.94015722147867, 20.355803323264837], [99.94040632469219, 20.352345854477736], [99.94046078943401, 20.35051118354428], [99.94156779281947, 20.350543811847515], [99.94333488419768, 20.35112448071023], [99.94419776121782, 20.351048640882205], [99.94546400845731, 20.350428880288664], [99.94661115757894, 20.34963126796861], [99.9470640471681, 20.349266647737686], [99.94808302221382, 20.348831887581582], [99.9484058167752, 20.348901675871634], [99.94875809201237, 20.349141207600777], [99.94917293578243, 20.34943109416972], [99.94961085615621, 20.349434673471496], [99.95058745874435, 20.34905078526566], [99.95203148756318, 20.350192953941708], [99.95256892691457, 20.35064179388372], [99.9528055952022, 20.351058389533083], [99.9530442599847, 20.352191026294886], [99.95321866820713, 20.352413700232145], [99.95354047980935, 20.352653640253305], [99.95419828802062, 20.35281042715956], [99.95502366331151, 20.352952742175436], [99.95532382823222, 20.35307985505128], [99.95595723244043, 20.353600442006893], [99.9563302460441, 20.35354870580819], [99.95684252776054, 20.35315593859581], [99.9572127444727, 20.35330695814964], [99.95731152420755, 20.353950267490923], [99.95748681826214, 20.35470046575393], [99.95773465792823, 20.35491372468873], [99.95807819625179, 20.355269536060355], [99.95845917784887, 20.355443500017547], [99.95892006780704, 20.35561038361241], [99.95942349479853, 20.35549016044262], [99.96003966439913, 20.355107291168657], [99.96033125158614, 20.354684854422548], [99.96055692656104, 20.35437957505746], [99.96079933971781, 20.35411148535692], [99.96099477858625, 20.3538596796805], [99.96129979085275, 20.353801531315728], [99.96157226564765, 20.35390393801641], [99.96180203613517, 20.35407208605796], [99.96268639526097, 20.35474486708205], [99.96312499012625, 20.354792143542653], [99.96355837072234, 20.35467455358781], [99.9640360528217, 20.35405782910556], [99.9642908703275, 20.35340308578381], [99.96453263597246, 20.35367055225429], [99.96542926005239, 20.354388427983597], [99.96640560723316, 20.3545411481555], [99.96713975889284, 20.35455063870106], [99.96852547836824, 20.35395351494286], [99.96965850453644, 20.35339333443488], [99.97016045484119, 20.352794391348144], [99.97058580539071, 20.352076642423278], [99.9709885514805, 20.351788249628115], [99.97169663269347, 20.35180815971891], [99.97233259457369, 20.351822513798073], [99.97321508400896, 20.35228743721555], [99.97362922450927, 20.352350636173007], [99.97463205852279, 20.352336010498586], [99.97516249665198, 20.35242114482012], [99.97570275268004, 20.352639494816927], [99.97617896079056, 20.352927794981806], [99.97681104569328, 20.35292426244481], [99.97751823208081, 20.35280107600887], [99.97820036515479, 20.352286705167433], [99.97883566423452, 20.352308655819904], [99.98004867700487, 20.353120748124145], [99.98141383168306, 20.353089239476844], [99.98310902765955, 20.353270478050252], [99.98399772151771, 20.353861630310043], [99.98460618842495, 20.354120509154235], [99.98533925999891, 20.35409253124538], [99.98631273654368, 20.353476678206174], [99.98763763846631, 20.353698015750894], [99.98837070734237, 20.353670023452942], [99.98874768335901, 20.353310199306307], [99.98889361814607, 20.35240322043238], [99.98927195663562, 20.35225800150569], [99.99028556452726, 20.35260995208774], [99.99175503786478, 20.353078539343173], [99.99327523836165, 20.353570672648438], [99.99446991575404, 20.35444690999704], [99.99491366463405, 20.355146625716234], [99.99515491316882, 20.35557015963519], [99.99518563580857, 20.35611323054124], [99.99491361517131, 20.35636005577211], [99.99459686495342, 20.356693712345024], [99.99459387650622, 20.357068692766006], [99.99465507717014, 20.357414124162606], [99.99491356840646, 20.35749078776966], [99.9951720605423, 20.357567451376855], [99.99649562877032, 20.35754124243445], [99.99677757522505, 20.357715821528053], [99.9968893510628, 20.358058524381406], [99.99661918572696, 20.358507311263512], [99.9959632517029, 20.359026062702725], [99.99535617514745, 20.35960100468271], [99.99521458768314, 20.36011908073103], [99.9953453230283, 20.36075758049807], [99.99578474976649, 20.361071310792358], [99.99640565070037, 20.36153082748575], [99.99678560527151, 20.361907011199676], [99.99709183701881, 20.36199222735945], [99.99742954503746, 20.361990299213048], [99.99769999365988, 20.36214461298363], [99.99810908716475, 20.362535309956634], [99.9984247213239, 20.36254592915136], [99.99891278789485, 20.362180598455865], [99.99926598583663, 20.36188719104116], [99.99959296314478, 20.36179948465858], [99.99986156186174, 20.361852158850184], [100.00006004043864, 20.36212772731284], [100.00003180892088, 20.36243960590314], [99.99969393003093, 20.362740832923176], [99.99973544633384, 20.363097487858933], [100.00016724951907, 20.363201180590053], [100.00050038628397, 20.363325765471828], [100.00073989373125, 20.3635096165756], [100.00086747245598, 20.363747190480506], [100.0008503349751, 20.364014957324414], [100.00076455314169, 20.36445591830602], [100.00058390362439, 20.364764151944158], [100.0003207143296, 20.365133846150158], [100.00034908883936, 20.365495093923464], [100.00057232845027, 20.365755837062274], [100.00084176173796, 20.365813022253235], [100.00097442972628, 20.36533791131557], [100.0013945444227, 20.36464920060017], [100.00182624868252, 20.364783006230844], [100.00220286137305, 20.36528794858006], [100.00255777252323, 20.36609456671096], [100.00278850618467, 20.366495310010638], [100.00297848167168, 20.366796899457373], [100.003288799039, 20.36728076169785], [100.00341150613622, 20.367643725377654], [100.00344993596579, 20.368123501998078], [100.00368185223583, 20.36833562688777], [100.00408168811947, 20.368401092136782], [100.00426213079277, 20.368616900649542], [100.00431406574161, 20.368962199845623], [100.00430244110484, 20.36947953485269], [100.00392651099975, 20.369962823325668], [100.00347739226794, 20.3703335913223], [100.00310560623885, 20.370624854753363], [100.00274829299948, 20.370839236042016], [100.00194216230105, 20.371193979918303], [100.00154307555252, 20.371431186000507], [100.0013371200121, 20.371772092008523], [100.0019356233305, 20.37203655384392], [100.00271416462715, 20.372230859566624], [100.00301282498197, 20.37239177795826], [100.00321241871828, 20.372651523748914], [100.00323882371282, 20.37293824110702], [100.00315447629809, 20.373369028957647], [100.00324580155257, 20.37369377324918], [100.0035300205941, 20.37407500755562], [100.00369650668844, 20.374400448821707], [100.0037602155616, 20.374714056808365], [100.00386376799867, 20.37535496316103], [100.00405752513478, 20.37586885736196], [100.0042907175427, 20.376091138295457], [100.00500894580634, 20.37621575645207], [100.00559023250328, 20.376277914893898], [100.00598389094398, 20.376449574788094], [100.00614197737045, 20.376679061989215], [100.0062029208282, 20.377211788893035], [100.00586417139452, 20.37816695883817], [100.00559125862975, 20.37893200760616], [100.00550174730783, 20.379535625368877], [100.00553827956799, 20.38012740355692], [100.0053692978549, 20.38044442896737], [100.00447283745153, 20.381746146367636], [100.00325740730361, 20.38271538980339], [100.00190704647316, 20.38338046093957], [99.99911142025587, 20.384207401950153], [99.99630294002874, 20.38499597248622], [99.99491254947468, 20.385410761397626]]], "crs": null}, "id": 7566, "type": "Feature", "properties": {"fid": 7566, "amphoe_e": "Amphoe Mae Sai", "am_id": 9, "tambon_t": "\u0e15.\u0e28\u0e23\u0e35\u0e40\u0e21\u0e37\u0e2d\u0e07\u0e0a\u0e38\u0e21", "amphoe_t": "\u0e2d.\u0e41\u0e21\u0e48\u0e2a\u0e32\u0e22", "changwat_e": "Changwat Chiangrai", "ch_id": 57, "ad_level": 4, "tambon_e": " ", "changwat_t": "\u0e08.\u0e40\u0e0a\u0e35\u0e22\u0e07\u0e23\u0e32\u0e22", "SHAPE__Length": 37208.63630341632, "SHAPE__Area": 48501727.238827825, "tambon_id": 570905, "subdistrict_id": "570905", "subdistrict_name_th": "\u0e15.\u0e28\u0e23\u0e35\u0e40\u0e21\u0e37\u0e2d\u0e07\u0e0a\u0e38\u0e21", "subdistrict_name": "Si Mueang Chum"}}, {"geometry": {"type": "Polygon", "coordinates": [[[99.90951302960269, 20.38395925561526], [99.90844708746319, 20.38541741638075], [99.9079314018128, 20.38599323340105], [99.90616768289236, 20.3870113513928], [99.90428316343734, 20.38723168619345], [99.90309259954385, 20.387825551707913], [99.90210448833157, 20.388933890586678], [99.90149551420666, 20.39037285352442], [99.90088585210046, 20.391695400122725], [99.9002725765182, 20.392397070068807], [99.89982436790032, 20.39317549984946], [99.89933544967134, 20.39403174886617], [99.8988962306765, 20.39636236173365], [99.89799617838099, 20.397298337448397], [99.89730369860692, 20.39854368804085], [99.89648231990326, 20.3991198566961], [99.89573351918669, 20.39993011618203], [99.89506414389515, 20.400285934748112], [99.89410435143476, 20.40065209461855], [99.89304176196785, 20.401360394366733], [99.8926730408282, 20.40205997608712], [99.89235248737745, 20.403575044153012], [99.89202567554463, 20.404003579201962], [99.8914091884833, 20.404161956109384], [99.8910430394048, 20.40388004023173], [99.89079007540174, 20.403741283833234], [99.89054246686152, 20.403387906926476], [99.89024291977502, 20.402438457568767], [99.88998991620178, 20.40187503410567], [99.88904978382062, 20.401845649657055], [99.88830849244303, 20.40177181531716], [99.88462757899961, 20.402013001798665], [99.88379044327445, 20.40184105502074], [99.88342278153621, 20.4014385814255], [99.88344165380936, 20.4000114661563], [99.88206621358499, 20.399979445794873], [99.8799835213226, 20.399873725092434], [99.87488071946966, 20.39927247164734], [99.87119040990959, 20.398927265980586], [99.8683988863996, 20.3980014975711], [99.86597718300068, 20.39743978461852], [99.86499105029678, 20.396963537837042], [99.86447890617663, 20.396311004149602], [99.86348733617167, 20.394210645604876], [99.86305583156141, 20.392224971305442], [99.8627482625223, 20.39152172394848], [99.86157903594378, 20.390206059861807], [99.8613149877965, 20.389572619680663], [99.86104041668196, 20.388229943557114], [99.86019198727055, 20.3856793385307], [99.85970655211575, 20.385080869386673], [99.85919140605866, 20.384740056908196], [99.85775215803575, 20.38429084284818], [99.85554337362784, 20.38450046672328], [99.85394592496465, 20.385012020888155], [99.85328733883973, 20.3849406992539], [99.85292331126189, 20.384633012403658], [99.85254447454793, 20.38348283436535], [99.85201412904895, 20.378717507607007], [99.8520228425802, 20.3758362857161], [99.85290637882638, 20.373736432590377], [99.85277988828139, 20.37318406179515], [99.85226241747667, 20.37268901108912], [99.85061679482928, 20.371273938641494], [99.85020022705896, 20.37077819096081], [99.84937966044305, 20.368264571452915], [99.84893126296745, 20.36727810060395], [99.84880508178912, 20.366996012955745], [99.84824702637927, 20.365872006088274], [99.84766625319509, 20.364901244596865], [99.84672787898846, 20.363360716723847], [99.84535764583882, 20.361135570949962], [99.84508126798626, 20.360194950236775], [99.84510180040778, 20.359456194048178], [99.84550163089563, 20.358984410602137], [99.84674386353856, 20.358492732353817], [99.84945855796623, 20.357347850423032], [99.85151526341873, 20.35633489184191], [99.85379243407368, 20.35545636571878], [99.85570168938158, 20.35431758209091], [99.85624993228862, 20.353729844556696], [99.85665790973484, 20.35311568673964], [99.8571479467205, 20.351638230120237], [99.85776948527356, 20.35088071227512], [99.85905480893241, 20.35018769740442], [99.86134191799525, 20.34896567702443], [99.86216367351479, 20.348471446500174], [99.86296029568116, 20.34819644910686], [99.86366848031618, 20.348061934810488], [99.86520567440247, 20.347986565327826], [99.8682427443073, 20.347587494767094], [99.87084331206933, 20.347617474566924], [99.8733426539404, 20.347108049996585], [99.87477994863578, 20.34662649721512], [99.87583576710712, 20.346149791779606], [99.87587510165476, 20.345667953912976], [99.87543929918446, 20.344316031859464], [99.87434063970893, 20.341542048726705], [99.87395710403726, 20.340522447752836], [99.87380278397136, 20.339953068979003], [99.87666914096812, 20.339214680613004], [99.8802410206067, 20.338455820979398], [99.88403383129639, 20.337914884164636], [99.88681894623751, 20.338104079040082], [99.89098537577452, 20.338618249332818], [99.89558302213885, 20.339568333611755], [99.89900759102758, 20.340479153490303], [99.8999759873021, 20.34067551596238], [99.90048177141664, 20.3410292534973], [99.9004875477622, 20.34202698116032], [99.90059049405616, 20.34240654812372], [99.90348363466212, 20.34325707475429], [99.90433315315262, 20.343550852689763], [99.90546306856588, 20.344376890780907], [99.90702875317447, 20.34500288997148], [99.9078194991706, 20.3451749761443], [99.90832195309568, 20.345091046914387], [99.90893987547497, 20.344787406113987], [99.90973402450568, 20.34472228530525], [99.91062540913545, 20.344902870071497], [99.91121191999417, 20.345268008312022], [99.9116543882395, 20.3453696092201], [99.91216149705558, 20.345263055745484], [99.91283440668258, 20.34474000374828], [99.91333040077744, 20.344780331147458], [99.913715190104, 20.344949993647326], [99.91415717541335, 20.345376866749028], [99.91503670967656, 20.3463910106367], [99.91571074345613, 20.347483028618914], [99.91615939543983, 20.348327750125584], [99.91637955397334, 20.348515524072308], [99.91699756178814, 20.34842655234354], [99.91760023166539, 20.348114561337994], [99.91998485421774, 20.346724176179908], [99.92098824760964, 20.34602996700941], [99.92209026605293, 20.344978892461985], [99.92371906778084, 20.343568688044527], [99.92490749938167, 20.342946251968048], [99.92542707280134, 20.342775705434523], [99.92567780468703, 20.34258433060255], [99.92566588777062, 20.34191851932435], [99.92615078872807, 20.34190691537197], [99.92637260651065, 20.341754396648113], [99.92667101145815, 20.34129200841954], [99.92723698899594, 20.34112185219179], [99.92792745878518, 20.341145294819587], [99.92974118001156, 20.34207760040107], [99.93135994620472, 20.34304480867102], [99.93208412708087, 20.343097419910098], [99.93276364132907, 20.34298988797306], [99.93335230606415, 20.342609517915], [99.93366386809316, 20.342546864846057], [99.93403502369752, 20.34273688439984], [99.93442659750949, 20.34343503619802], [99.93458806898438, 20.343702976611173], [99.93498776277518, 20.34395834809934], [99.93581262725107, 20.34422499618673], [99.93719706519258, 20.34484779828729], [99.93772327291074, 20.345231239530122], [99.93793583577029, 20.345729304763665], [99.93779364576027, 20.34657487792835], [99.93789712085554, 20.34705319854645], [99.93806322204016, 20.347704781650407], [99.93917847760471, 20.348862832353944], [99.93981145913159, 20.34940581512634], [99.94031921276154, 20.34965957323079], [99.94046078943401, 20.35051118354428], [99.94040632469219, 20.352345854477736], [99.94015722147867, 20.355803323264837], [99.93954993897862, 20.357443702864643], [99.93874735340776, 20.358684947152675], [99.93682696359355, 20.360077708319594], [99.93375582826894, 20.36091205974383], [99.9332600985748, 20.361152284850103], [99.93286641855055, 20.362208963073225], [99.9326798757757, 20.363264989287906], [99.93222482691438, 20.364577110045676], [99.9314166934257, 20.36490884476738], [99.93020984550803, 20.364958905529175], [99.92681287591355, 20.365281506736196], [99.92602309758793, 20.365475955451018], [99.92482159524053, 20.36583157436774], [99.92405352924706, 20.366417725497676], [99.9232244271657, 20.36712061402517], [99.92236566544317, 20.368027386055054], [99.921014861247, 20.369307968488023], [99.92098673135263, 20.369693609472606], [99.92145605065639, 20.370767992648798], [99.92142812400886, 20.37126291295309], [99.92103071269734, 20.371905304985862], [99.92047864047693, 20.372490302285684], [99.91998932204969, 20.373380909901133], [99.92009174403883, 20.374907999204908], [99.91991501736425, 20.376335040729614], [99.9195177598368, 20.37700653212584], [99.91862668187593, 20.377680622562693], [99.91788974231785, 20.378324794353855], [99.91723631650294, 20.378856727156347], [99.91694259702328, 20.379959612546124], [99.91648720372156, 20.38026538384044], [99.91568466401617, 20.380618761646634], [99.9134201549163, 20.381725705676875], [99.9125413589966, 20.382730212429436], [99.91190947554198, 20.383093986398432], [99.91105957394026, 20.383309677999335], [99.91028329533795, 20.38346097094716], [99.90951302960269, 20.38395925561526]]], "crs": null}, "id": 7568, "type": "Feature", "properties": {"fid": 7568, "amphoe_e": "Amphoe Mae Sai", "am_id": 9, "tambon_t": "\u0e15.\u0e42\u0e1b\u0e48\u0e07\u0e1c\u0e32", "amphoe_t": "\u0e2d.\u0e41\u0e21\u0e48\u0e2a\u0e32\u0e22", "changwat_e": "Changwat Chiangrai", "ch_id": 57, "ad_level": 4, "tambon_e": " ", "changwat_t": "\u0e08.\u0e40\u0e0a\u0e35\u0e22\u0e07\u0e23\u0e32\u0e22", "SHAPE__Length": 32022.029698922168, "SHAPE__Area": 49664524.30259281, "tambon_id": 570904, "subdistrict_id": "570904", "subdistrict_name_th": "\u0e15.\u0e42\u0e1b\u0e48\u0e07\u0e1c\u0e32", "subdistrict_name": "Pong Pha"}}, {"geometry": {"type": "Polygon", "coordinates": [[[99.84893126296745, 20.36727810060395], [99.84809700597219, 20.367988282633238], [99.84740631944611, 20.368556681146007], [99.84637084723688, 20.369513357455542], [99.84586887265036, 20.36999161691964], [99.84445915926283, 20.371723316378002], [99.84298391947247, 20.37300923089137], [99.84109711663878, 20.37386356345278], [99.84046682858136, 20.37409197866195], [99.84005878728333, 20.37445081355425], [99.84003948153696, 20.376711087746557], [99.83988387544058, 20.37973074767597], [99.83986740345794, 20.381194554385253], [99.83960365658353, 20.382347986170668], [99.83901543251629, 20.381115011148847], [99.83844052291184, 20.379779508017986], [99.8380968874615, 20.377771901052473], [99.83802171493039, 20.37699160607789], [99.83812211794148, 20.376331024357324], [99.8389575764311, 20.37509123427313], [99.83880510447203, 20.374403620730572], [99.83844821121599, 20.373948588956228], [99.8378039270097, 20.373747436694853], [99.83708254302505, 20.373895794255517], [99.83564187587199, 20.373713564629373], [99.83515944715083, 20.373426734856054], [99.83416449569509, 20.372489533365343], [99.83322838508192, 20.371355521540213], [99.83233174661285, 20.370544337551205], [99.83089356428667, 20.369137118883042], [99.82968678022081, 20.367658762042346], [99.82876245162592, 20.366364285983103], [99.82799615909562, 20.365399803558137], [99.82735897233879, 20.364183510960313], [99.82675016458847, 20.362372292547352], [99.82643772302252, 20.360163332771602], [99.82609871278541, 20.35879604400234], [99.82584325945889, 20.35715051398501], [99.82549469842168, 20.356237306406687], [99.82496569471115, 20.355510180250683], [99.82392031287223, 20.354401475347856], [99.82277484728148, 20.352934068652416], [99.82217438254185, 20.352616130430114], [99.8209028823622, 20.35233522718911], [99.81997122968863, 20.35177713490695], [99.81877968013812, 20.35064423374448], [99.81772106207742, 20.349167349093886], [99.81727766663117, 20.348767337842375], [99.8161513296202, 20.348300489875765], [99.8154958758341, 20.347881133307705], [99.81508223265905, 20.3473296312575], [99.81419370337676, 20.34584967002629], [99.81363853479064, 20.345025494431084], [99.81338926340388, 20.34476010359601], [99.81233980044158, 20.344477260517326], [99.81119973707833, 20.343530889539004], [99.81027652544134, 20.341840019301543], [99.80961288512665, 20.339805773517693], [99.80913538019375, 20.33790372177944], [99.80906179316736, 20.33699372028401], [99.80900844808157, 20.336521854999678], [99.80988029044319, 20.336081849098097], [99.811226929879, 20.334727036623523], [99.8126730127494, 20.332929005869], [99.8136431582053, 20.330914064032946], [99.81370640392757, 20.330414549991556], [99.81444760447347, 20.330646027392266], [99.81510927527295, 20.33112409260289], [99.81594603598087, 20.332109593982697], [99.81630709129932, 20.332801394768552], [99.81663601024376, 20.333073186977987], [99.81706973078359, 20.33323606139518], [99.81775573813691, 20.333214783435558], [99.8182007514636, 20.33336179021454], [99.81848062228293, 20.333527640488306], [99.81901209463253, 20.334175717135683], [99.81941416083492, 20.33469338309327], [99.81974856384528, 20.334868010750206], [99.82005476141823, 20.3349162710691], [99.82076056284983, 20.33516320871519], [99.82178149212234, 20.334877307042113], [99.82237987493137, 20.335051609144518], [99.822790763483, 20.335120274181342], [99.82345861352431, 20.33506065812295], [99.82485082700414, 20.334647493387116], [99.82618141803812, 20.334469535540684], [99.82796257481313, 20.334467887982687], [99.82902579110738, 20.33453068943985], [99.83080552425561, 20.334995680306562], [99.83244841925924, 20.33463633999523], [99.83512443924162, 20.333814893842323], [99.83785958784974, 20.332082787890435], [99.8393138545508, 20.330532985309098], [99.84043314807137, 20.328155765076566], [99.84203462299958, 20.324944942555078], [99.84506153056536, 20.321198644801687], [99.84753371111206, 20.31861831808098], [99.84949834577206, 20.316729387451367], [99.85040256013015, 20.316230296990668], [99.85075013191317, 20.315858147635538], [99.85091474651844, 20.315527548757416], [99.85107109725341, 20.314670665718822], [99.85142352087884, 20.314201359005622], [99.85262336757442, 20.313142871346468], [99.85329236964725, 20.312439352394183], [99.85360072919039, 20.311468780659805], [99.85423849870784, 20.308343617663958], [99.8546344468224, 20.30707467515623], [99.8553919925465, 20.30643747041296], [99.85703967374201, 20.305751805701384], [99.85861117786361, 20.30570374053523], [99.86017447657086, 20.30506256258725], [99.86169709084817, 20.304400466408424], [99.86276829761893, 20.30458522942488], [99.86423129044171, 20.304289801233487], [99.86540511525395, 20.304180094735617], [99.86754767898229, 20.303787737614062], [99.87138954589089, 20.303382388886217], [99.87331007150262, 20.3031085300348], [99.87432948451826, 20.303112478058463], [99.87488566574092, 20.30323619779239], [99.87665671413608, 20.304270946946723], [99.87875427848725, 20.3057761458525], [99.87962626743835, 20.306065422681236], [99.88074536760467, 20.306016877277123], [99.8817539842591, 20.305379311905796], [99.88254315913952, 20.304785765650628], [99.88319590866436, 20.303885696267873], [99.88363174081222, 20.303790882543247], [99.88413723534518, 20.304052620332243], [99.88461226264589, 20.304482797543116], [99.88530034743316, 20.30437879904245], [99.8857365294174, 20.304134892111666], [99.88658178691995, 20.3039693098359], [99.88743303930346, 20.30409169767378], [99.88828284827494, 20.303960688035392], [99.8891331374844, 20.303914138226997], [99.89039822279977, 20.30401185676187], [99.89114772948423, 20.304444007984692], [99.89156655725088, 20.304685904930665], [99.89201615891864, 20.304945575178145], [99.89250548543984, 20.3055168371324], [99.89307727529611, 20.306584631875342], [99.89373108152432, 20.307548096267737], [99.89526393098568, 20.308561277880692], [99.89617294142823, 20.309347234986983], [99.89683962145148, 20.310358057678304], [99.89835416251465, 20.31223645454884], [99.899059530473, 20.313100241682793], [99.89997688932203, 20.31387258035537], [99.90232661188368, 20.314721113188817], [99.90442850916843, 20.31505135323747], [99.90520732925489, 20.315361309976538], [99.905701796301, 20.315876033352364], [99.90601468123269, 20.316665019375215], [99.90637587954325, 20.317320481255248], [99.9072616712892, 20.318623777865113], [99.90834010681067, 20.32082735969502], [99.90935140254533, 20.322292630500627], [99.90996604329838, 20.322569535355786], [99.9107450414506, 20.32259484677482], [99.91216415095495, 20.322338977961536], [99.91291593202473, 20.3223169859402], [99.91355411343172, 20.322523729286694], [99.91462275623527, 20.32365209696671], [99.91566788086806, 20.324748956898873], [99.9166740162929, 20.325423606714214], [99.91891504409409, 20.326374124466284], [99.91970553558208, 20.326720094556823], [99.92008064730402, 20.32718344775789], [99.92010141354943, 20.327759348415338], [99.91988404291432, 20.328763427090635], [99.91974334218163, 20.331192445575], [99.9195477054624, 20.332937316504037], [99.91961543250625, 20.333456498718515], [99.91984818064908, 20.333837022560655], [99.92081895652976, 20.334694798626142], [99.92177062541408, 20.335559446411413], [99.92266560643269, 20.336858088130334], [99.9238060645983, 20.339162879663224], [99.92461030761974, 20.340701428128465], [99.92566588777062, 20.34191851932435], [99.92567780468703, 20.34258433060255], [99.92542707280134, 20.342775705434523], [99.92490749938167, 20.342946251968048], [99.92371906778084, 20.343568688044527], [99.92209026605293, 20.344978892461985], [99.92098824760964, 20.34602996700941], [99.91998485421774, 20.346724176179908], [99.91760023166539, 20.348114561337994], [99.91699756178814, 20.34842655234354], [99.91637955397334, 20.348515524072308], [99.91615939543983, 20.348327750125584], [99.91571074345613, 20.347483028618914], [99.91503670967656, 20.3463910106367], [99.91415717541335, 20.345376866749028], [99.913715190104, 20.344949993647326], [99.91333040077744, 20.344780331147458], [99.91283440668258, 20.34474000374828], [99.91216149705558, 20.345263055745484], [99.9116543882395, 20.3453696092201], [99.91121191999417, 20.345268008312022], [99.91062540913545, 20.344902870071497], [99.90973402450568, 20.34472228530525], [99.90893987547497, 20.344787406113987], [99.90832195309568, 20.345091046914387], [99.9078194991706, 20.3451749761443], [99.90702875317447, 20.34500288997148], [99.90546306856588, 20.344376890780907], [99.90433315315262, 20.343550852689763], [99.90348363466212, 20.34325707475429], [99.90059049405616, 20.34240654812372], [99.9004875477622, 20.34202698116032], [99.90048177141664, 20.3410292534973], [99.8999759873021, 20.34067551596238], [99.89900759102758, 20.340479153490303], [99.89558302213885, 20.339568333611755], [99.89098537577452, 20.338618249332818], [99.88681894623751, 20.338104079040082], [99.88403383129639, 20.337914884164636], [99.8802410206067, 20.338455820979398], [99.87666914096812, 20.339214680613004], [99.87380278397136, 20.339953068979003], [99.87395710403726, 20.340522447752836], [99.87434063970893, 20.341542048726705], [99.87543929918446, 20.344316031859464], [99.87587510165476, 20.345667953912976], [99.87583576710712, 20.346149791779606], [99.87477994863578, 20.34662649721512], [99.8733426539404, 20.347108049996585], [99.87084331206933, 20.347617474566924], [99.8682427443073, 20.347587494767094], [99.86520567440247, 20.347986565327826], [99.86366848031618, 20.348061934810488], [99.86296029568116, 20.34819644910686], [99.86216367351479, 20.348471446500174], [99.86134191799525, 20.34896567702443], [99.85905480893241, 20.35018769740442], [99.85776948527356, 20.35088071227512], [99.8571479467205, 20.351638230120237], [99.85665790973484, 20.35311568673964], [99.85624993228862, 20.353729844556696], [99.85570168938158, 20.35431758209091], [99.85379243407368, 20.35545636571878], [99.85151526341873, 20.35633489184191], [99.84945855796623, 20.357347850423032], [99.84674386353856, 20.358492732353817], [99.84550163089563, 20.358984410602137], [99.84510180040778, 20.359456194048178], [99.84508126798626, 20.360194950236775], [99.84535764583882, 20.361135570949962], [99.84672787898846, 20.363360716723847], [99.84766625319509, 20.364901244596865], [99.84824702637927, 20.365872006088274], [99.84880508178912, 20.366996012955745], [99.84893126296745, 20.36727810060395]]], "crs": null}, "id": 7573, "type": "Feature", "properties": {"fid": 7573, "amphoe_e": "Amphoe Mae Sai", "am_id": 9, "tambon_t": "\u0e15.\u0e42\u0e1b\u0e48\u0e07\u0e07\u0e32\u0e21", "amphoe_t": "\u0e2d.\u0e41\u0e21\u0e48\u0e2a\u0e32\u0e22", "changwat_e": "Changwat Chiangrai", "ch_id": 57, "ad_level": 4, "tambon_e": " ", "changwat_t": "\u0e08.\u0e40\u0e0a\u0e35\u0e22\u0e07\u0e23\u0e32\u0e22", "SHAPE__Length": 40089.468625545116, "SHAPE__Area": 48747422.72471723, "tambon_id": 570909, "subdistrict_id": "570909", "subdistrict_name_th": "\u0e15.\u0e42\u0e1b\u0e48\u0e07\u0e07\u0e32\u0e21", "subdistrict_name": "Pong Ngam"}}, {"geometry": {"type": "Polygon", "coordinates": [[[99.9642908703275, 20.35340308578381], [99.9640360528217, 20.35405782910556], [99.96355837072234, 20.35467455358781], [99.96312499012625, 20.354792143542653], [99.96268639526097, 20.35474486708205], [99.96180203613517, 20.35407208605796], [99.96157226564765, 20.35390393801641], [99.96129979085275, 20.353801531315728], [99.96099477858625, 20.3538596796805], [99.96079933971781, 20.35411148535692], [99.96055692656104, 20.35437957505746], [99.96033125158614, 20.354684854422548], [99.96003966439913, 20.355107291168657], [99.95942349479853, 20.35549016044262], [99.95892006780704, 20.35561038361241], [99.95845917784887, 20.355443500017547], [99.95807819625179, 20.355269536060355], [99.95773465792823, 20.35491372468873], [99.95748681826214, 20.35470046575393], [99.95731152420755, 20.353950267490923], [99.9572127444727, 20.35330695814964], [99.95684252776054, 20.35315593859581], [99.9563302460441, 20.35354870580819], [99.95595723244043, 20.353600442006893], [99.95532382823222, 20.35307985505128], [99.95502366331151, 20.352952742175436], [99.95419828802062, 20.35281042715956], [99.95354047980935, 20.352653640253305], [99.95321866820713, 20.352413700232145], [99.9530442599847, 20.352191026294886], [99.9528055952022, 20.351058389533083], [99.95256892691457, 20.35064179388372], [99.95203148756318, 20.350192953941708], [99.95058745874435, 20.34905078526566], [99.94961085615621, 20.349434673471496], [99.94917293578243, 20.34943109416972], [99.94875809201237, 20.349141207600777], [99.9484058167752, 20.348901675871634], [99.94808302221382, 20.348831887581582], [99.9470640471681, 20.349266647737686], [99.94661115757894, 20.34963126796861], [99.94546400845731, 20.350428880288664], [99.94419776121782, 20.351048640882205], [99.94333488419768, 20.35112448071023], [99.94156779281947, 20.350543811847515], [99.94046078943401, 20.35051118354428], [99.94031921276154, 20.34965957323079], [99.93981145913159, 20.34940581512634], [99.93917847760471, 20.348862832353944], [99.93806322204016, 20.347704781650407], [99.93789712085554, 20.34705319854645], [99.93779364576027, 20.34657487792835], [99.93793583577029, 20.345729304763665], [99.93772327291074, 20.345231239530122], [99.93719706519258, 20.34484779828729], [99.93581262725107, 20.34422499618673], [99.93498776277518, 20.34395834809934], [99.93458806898438, 20.343702976611173], [99.93442659750949, 20.34343503619802], [99.93403502369752, 20.34273688439984], [99.93366386809316, 20.342546864846057], [99.93335230606415, 20.342609517915], [99.93276364132907, 20.34298988797306], [99.93208412708087, 20.343097419910098], [99.93135994620472, 20.34304480867102], [99.92974118001156, 20.34207760040107], [99.92792745878518, 20.341145294819587], [99.92723698899594, 20.34112185219179], [99.92667101145815, 20.34129200841954], [99.92637260651065, 20.341754396648113], [99.92615078872807, 20.34190691537197], [99.92566588777062, 20.34191851932435], [99.92461030761974, 20.340701428128465], [99.9238060645983, 20.339162879663224], [99.92266560643269, 20.336858088130334], [99.92177062541408, 20.335559446411413], [99.92081895652976, 20.334694798626142], [99.91984818064908, 20.333837022560655], [99.91961543250625, 20.333456498718515], [99.9195477054624, 20.332937316504037], [99.91974334218163, 20.331192445575], [99.91988404291432, 20.328763427090635], [99.92010141354943, 20.327759348415338], [99.92008064730402, 20.32718344775789], [99.91970553558208, 20.326720094556823], [99.91891504409409, 20.326374124466284], [99.9166740162929, 20.325423606714214], [99.91566788086806, 20.324748956898873], [99.91462275623527, 20.32365209696671], [99.91355411343172, 20.322523729286694], [99.91291593202473, 20.3223169859402], [99.91216415095495, 20.322338977961536], [99.9107450414506, 20.32259484677482], [99.90996604329838, 20.322569535355786], [99.90935140254533, 20.322292630500627], [99.90834010681067, 20.32082735969502], [99.9072616712892, 20.318623777865113], [99.90637587954325, 20.317320481255248], [99.90601468123269, 20.316665019375215], [99.905701796301, 20.315876033352364], [99.90520732925489, 20.315361309976538], [99.90442850916843, 20.31505135323747], [99.90232661188368, 20.314721113188817], [99.89997688932203, 20.31387258035537], [99.899059530473, 20.313100241682793], [99.89835416251465, 20.31223645454884], [99.89683962145148, 20.310358057678304], [99.89617294142823, 20.309347234986983], [99.89526393098568, 20.308561277880692], [99.89373108152432, 20.307548096267737], [99.89307727529611, 20.306584631875342], [99.89250548543984, 20.3055168371324], [99.89201615891864, 20.304945575178145], [99.89156655725088, 20.304685904930665], [99.90397923035736, 20.30151176845335], [99.90445556797022, 20.30128342159278], [99.90457514722533, 20.300950747978753], [99.90457044646895, 20.300553209862866], [99.90299277209886, 20.294794433516305], [99.90280549277941, 20.293772125583274], [99.90289955287209, 20.293374078450995], [99.90332878669417, 20.292560926745523], [99.90432910080743, 20.291245614293725], [99.90468802832997, 20.29090267042196], [99.9050826427499, 20.29083060684712], [99.90534694360665, 20.291199697608086], [99.90560321351758, 20.29204093514105], [99.90579826028159, 20.292439748495756], [99.9067223541533, 20.293666055943834], [99.90711962067397, 20.29435747451793], [99.90757918952804, 20.295674278944876], [99.90785969167148, 20.29645891494711], [99.90814837764562, 20.296798507944857], [99.90842673850321, 20.297009398964633], [99.91514150677517, 20.2967304814266], [99.91862722236854, 20.296075230887265], [99.92153931258932, 20.295389047266777], [99.92269270120725, 20.295184194295263], [99.92325681355123, 20.294928228355104], [99.92358117563089, 20.29451540356309], [99.92372545206806, 20.293913783194643], [99.92377944286713, 20.292924113457172], [99.92354441044623, 20.292162365201094], [99.92334453702091, 20.291384512785182], [99.92390912780407, 20.289696417855424], [99.9238959617294, 20.28787809479824], [99.92432610566537, 20.284916703742947], [99.92510852124134, 20.2818156605644], [99.92596641242007, 20.280546160477055], [99.92717804473106, 20.2793854702633], [99.9276260231226, 20.27923627363517], [99.92799748989229, 20.279148652688242], [99.92829217434453, 20.27907914318802], [99.92882929443648, 20.27892495262449], [99.92994645026852, 20.278989053602075], [99.93088497646059, 20.27930708985046], [99.93168018309407, 20.27997826648392], [99.93220246257363, 20.280445333885154], [99.93281240526836, 20.281259798600896], [99.93323464596222, 20.28221079299375], [99.93348485174461, 20.282516666810743], [99.93382351664212, 20.282702348934336], [99.93531258890488, 20.28270344250995], [99.93608164235404, 20.282999765526892], [99.93675779673498, 20.28337338257554], [99.93699041087883, 20.283638685277204], [99.93703043700515, 20.28392534687732], [99.93676479885646, 20.28434014028536], [99.93683492349305, 20.28475539684415], [99.93709972167493, 20.285097328079253], [99.93932012802156, 20.28657854836133], [99.93969841794775, 20.28688146700613], [99.94090641250114, 20.288203195221406], [99.94122156822083, 20.288556144050933], [99.94156126194288, 20.28880957030552], [99.94191172684472, 20.288864157355064], [99.9426324219488, 20.288907340101712], [99.94290676283696, 20.288787896644237], [99.94343462530782, 20.288642518537518], [99.9438863790533, 20.288402524556925], [99.9446402573422, 20.288160901004794], [99.94567309993369, 20.28825035297156], [99.94679157147394, 20.288725534056205], [99.94717810998192, 20.28915554759048], [99.94791485438715, 20.29044189467779], [99.94797151257532, 20.29069179828796], [99.94810917899548, 20.291086353352554], [99.94812161392146, 20.29135960785971], [99.94796078995849, 20.291586364719087], [99.9471874161664, 20.292067167465913], [99.94647182201709, 20.292862627708118], [99.94630800600974, 20.29352868090391], [99.94647951301913, 20.294129572821614], [99.94705830319823, 20.294786896298277], [99.94772226187291, 20.29507985045479], [99.94954275859152, 20.295475003568637], [99.95007350968481, 20.29659391487738], [99.95104488721184, 20.297451709828618], [99.95299332328337, 20.299727079141473], [99.95382745707158, 20.3009558723157], [99.95408090850718, 20.30158471156526], [99.95423879528424, 20.30312664777664], [99.95462340924304, 20.303668934473844], [99.95523437086955, 20.30402927752927], [99.95670696755262, 20.304434606471954], [99.95738837217571, 20.30476293276324], [99.95788170337798, 20.30526621676253], [99.9583416400547, 20.30608140363396], [99.95860316020776, 20.307238761859423], [99.95878425129224, 20.310208156881068], [99.95888084837257, 20.311702985704297], [99.95971632035196, 20.314101821142163], [99.96078540112543, 20.316616828304056], [99.96171464901194, 20.320038391658535], [99.96276807348784, 20.32378453832577], [99.96283439219353, 20.326085934918066], [99.96287826022355, 20.32727384491205], [99.96314321938411, 20.328200769849765], [99.96386450444339, 20.329922551584545], [99.96402792474899, 20.332142091884066], [99.9638911891272, 20.335099668015353], [99.96390301970871, 20.33719104593005], [99.96380094755578, 20.339008928319515], [99.96377144979269, 20.340345355054197], [99.96398718186303, 20.34162697800265], [99.96426058116103, 20.34306863440999], [99.96463738720578, 20.345952884318237], [99.96449378346142, 20.34716522169767], [99.96425440281855, 20.348164284853937], [99.96373387431893, 20.34952123591634], [99.9635486922184, 20.35022541676966], [99.96361099455179, 20.35214425615261], [99.9642908703275, 20.35340308578381]]], "crs": null}, "id": 7575, "type": "Feature", "properties": {"fid": 7575, "amphoe_e": "Amphoe Mae Sai", "am_id": 9, "tambon_t": "\u0e15.\u0e1a\u0e49\u0e32\u0e19\u0e14\u0e49\u0e32\u0e22", "amphoe_t": "\u0e2d.\u0e41\u0e21\u0e48\u0e2a\u0e32\u0e22", "changwat_e": "Changwat Chiangrai", "ch_id": 57, "ad_level": 4, "tambon_e": " ", "changwat_t": "\u0e08.\u0e40\u0e0a\u0e35\u0e22\u0e07\u0e23\u0e32\u0e22", "SHAPE__Length": 30937.31878022199, "SHAPE__Area": 38249398.518896945, "tambon_id": 570908, "subdistrict_id": "570908", "subdistrict_name_th": "\u0e15.\u0e1a\u0e49\u0e32\u0e19\u0e14\u0e49\u0e32\u0e22", "subdistrict_name": "Ban Dai"}}, {"geometry": {"type": "Polygon", "coordinates": [[[99.89114772948423, 20.304444007984692], [99.89039822279977, 20.30401185676187], [99.8891331374844, 20.303914138226997], [99.88828284827494, 20.303960688035392], [99.88743303930346, 20.30409169767378], [99.88658178691995, 20.3039693098359], [99.8857365294174, 20.304134892111666], [99.88530034743316, 20.30437879904245], [99.88461226264589, 20.304482797543116], [99.88413723534518, 20.304052620332243], [99.88363174081222, 20.303790882543247], [99.88319590866436, 20.303885696267873], [99.88254315913952, 20.304785765650628], [99.8817539842591, 20.305379311905796], [99.88074536760467, 20.306016877277123], [99.87962626743835, 20.306065422681236], [99.87875427848725, 20.3057761458525], [99.87665671413608, 20.304270946946723], [99.87488566574092, 20.30323619779239], [99.87432948451826, 20.303112478058463], [99.87331007150262, 20.3031085300348], [99.87138954589089, 20.303382388886217], [99.86754767898229, 20.303787737614062], [99.86540511525395, 20.304180094735617], [99.86423129044171, 20.304289801233487], [99.86276829761893, 20.30458522942488], [99.86169709084817, 20.304400466408424], [99.86017447657086, 20.30506256258725], [99.85861117786361, 20.30570374053523], [99.85703967374201, 20.305751805701384], [99.8553919925465, 20.30643747041296], [99.8546344468224, 20.30707467515623], [99.85423849870784, 20.308343617663958], [99.85360072919039, 20.311468780659805], [99.85329236964725, 20.312439352394183], [99.85262336757442, 20.313142871346468], [99.85142352087884, 20.314201359005622], [99.85107109725341, 20.314670665718822], [99.85091474651844, 20.315527548757416], [99.85075013191317, 20.315858147635538], [99.85040256013015, 20.316230296990668], [99.84949834577206, 20.316729387451367], [99.84753371111206, 20.31861831808098], [99.84506153056536, 20.321198644801687], [99.84203462299958, 20.324944942555078], [99.84043314807137, 20.328155765076566], [99.8393138545508, 20.330532985309098], [99.83785958784974, 20.332082787890435], [99.83512443924162, 20.333814893842323], [99.83244841925924, 20.33463633999523], [99.83080552425561, 20.334995680306562], [99.82902579110738, 20.33453068943985], [99.82796257481313, 20.334467887982687], [99.82618141803812, 20.334469535540684], [99.82485082700414, 20.334647493387116], [99.82345861352431, 20.33506065812295], [99.822790763483, 20.335120274181342], [99.82237987493137, 20.335051609144518], [99.82178149212234, 20.334877307042113], [99.82076056284983, 20.33516320871519], [99.82005476141823, 20.3349162710691], [99.81974856384528, 20.334868010750206], [99.81941416083492, 20.33469338309327], [99.81901209463253, 20.334175717135683], [99.81848062228293, 20.333527640488306], [99.8182007514636, 20.33336179021454], [99.81775573813691, 20.333214783435558], [99.81706973078359, 20.33323606139518], [99.81663601024376, 20.333073186977987], [99.81630709129932, 20.332801394768552], [99.81594603598087, 20.332109593982697], [99.81510927527295, 20.33112409260289], [99.81444760447347, 20.330646027392266], [99.81370640392757, 20.330414549991556], [99.81401456112324, 20.32797800957758], [99.81426351774725, 20.326700564879207], [99.81440242792983, 20.326245877545208], [99.81467321739511, 20.326052608740934], [99.81619517606666, 20.32550337568035], [99.81683237901115, 20.32508702104921], [99.8173957826893, 20.324298287735804], [99.81772822787546, 20.32307918115931], [99.81798975432383, 20.321808449900153], [99.81807255580391, 20.31956496335247], [99.81826942279568, 20.3182945333661], [99.81868034372292, 20.31731676165928], [99.81995276121104, 20.315894465856932], [99.82105491365347, 20.314655932125675], [99.82136132166774, 20.313843544843838], [99.82140910714465, 20.312801961741215], [99.82142443518961, 20.30957842100737], [99.82150075975237, 20.308159465287194], [99.82179820422381, 20.30712574495719], [99.82296181813346, 20.30586432347984], [99.82427334354006, 20.304843901425045], [99.82474674396713, 20.30414818589014], [99.82538187847105, 20.30268367591094], [99.82604071640604, 20.301627914996416], [99.82661154578626, 20.300909146240166], [99.82775422168001, 20.29966586408837], [99.83041684536124, 20.296323620938406], [99.83206146526456, 20.2940365721302], [99.83293667198997, 20.29170573263354], [99.83330118430236, 20.289689048810626], [99.83309551744428, 20.289059789577664], [99.83271974382114, 20.28851943642296], [99.83168826190382, 20.287582368931254], [99.83116189680415, 20.286523176203712], [99.83096635631239, 20.285433047697115], [99.83090851731427, 20.284574934385777], [99.83113987240726, 20.28407461635056], [99.831487306594, 20.28379286325009], [99.83244157721718, 20.283388504675834], [99.83319368564018, 20.28278631773442], [99.83327906817463, 20.28252387757497], [99.83315372876162, 20.282028641608527], [99.83228340445568, 20.281674738598397], [99.8320571476193, 20.28122177076822], [99.83216680825173, 20.28068588724397], [99.83364396899398, 20.278903359002946], [99.83410513954055, 20.277956937662577], [99.83448202472577, 20.276471036409312], [99.83460288461559, 20.27556915309401], [99.83493274694885, 20.274580435738628], [99.8352983069714, 20.273776779075195], [99.83610193935314, 20.27263671301389], [99.83629710123036, 20.272312756528535], [99.83648929444547, 20.271993332626227], [99.83670720287515, 20.271782214078055], [99.83717616514794, 20.271626368762], [99.8377537250545, 20.271521958371753], [99.83804185614687, 20.27134890362908], [99.8383110834898, 20.271110430402047], [99.83902915617068, 20.270203429045058], [99.84025065404455, 20.2689868010001], [99.8419786914635, 20.267819687828347], [99.84284101809858, 20.26747896708073], [99.84374601306808, 20.267282607306562], [99.84554758355429, 20.26710451096449], [99.84942687215255, 20.266909566723207], [99.85083623120721, 20.26691177006216], [99.85194193687103, 20.267089372676523], [99.85231664120015, 20.267322478749502], [99.85276089549899, 20.267907635229268], [99.85332836141481, 20.268151096096265], [99.85437029705159, 20.26826574436868], [99.85578017501508, 20.268032978239503], [99.85880324697243, 20.267541568888394], [99.86136479494942, 20.26703204449333], [99.86252123946375, 20.266967628753132], [99.86330983518084, 20.26704732757226], [99.86484338791207, 20.267538988733456], [99.865467628928, 20.268089340550627], [99.86591035078219, 20.268281420451206], [99.86655854793874, 20.268402457507452], [99.8677164178785, 20.268270232885], [99.86821787355603, 20.268369401127053], [99.8687124215411, 20.26873289360817], [99.8694596718265, 20.269768284878502], [99.87025116785725, 20.27036522607438], [99.87079643131034, 20.270484499560098], [99.87119738864867, 20.27048250756178], [99.871962033621, 20.270234745237314], [99.87321458418573, 20.269819317807418], [99.87471358406472, 20.269209624224846], [99.87491167863121, 20.26897025617247], [99.87526163451693, 20.267085209714743], [99.87600211650457, 20.2658413762785], [99.87653084232458, 20.265362105976457], [99.87718162593139, 20.265092302168146], [99.87890454980524, 20.26456412853174], [99.88121134053104, 20.263777069755985], [99.88378923008892, 20.262663741438637], [99.88677185593653, 20.260685889442318], [99.88915823756274, 20.25992025341703], [99.88948475891456, 20.2599822805578], [99.8901255879256, 20.260185761164106], [99.89130488331384, 20.261512918586376], [99.89194803707234, 20.26267534539094], [99.89229438397872, 20.263278966751027], [99.89269871647264, 20.263557011946627], [99.89408408791041, 20.2637668075922], [99.89483744459244, 20.264052512313675], [99.89636399430293, 20.26463143109577], [99.89922577464986, 20.26613718578264], [99.90070703360279, 20.266889786134787], [99.90170627572412, 20.267285531901884], [99.9036135992882, 20.269471351221917], [99.90537616617716, 20.271969621101146], [99.90791207448271, 20.274992444845537], [99.90954741877847, 20.277306097398565], [99.91218195933008, 20.280641906798632], [99.91332274484881, 20.281818497026066], [99.9145757900408, 20.2830655212569], [99.91593169429231, 20.283674510670263], [99.9173606342859, 20.284541220600833], [99.91843461726383, 20.285500134423742], [99.91955745681123, 20.28723131946994], [99.92107458612331, 20.28944156437681], [99.92194559930996, 20.29048058171364], [99.92259601149685, 20.291055428365382], [99.92354441044623, 20.292162365201094], [99.92377944286713, 20.292924113457172], [99.92372545206806, 20.293913783194643], [99.92358117563089, 20.29451540356309], [99.92325681355123, 20.294928228355104], [99.92269270120725, 20.295184194295263], [99.92153931258932, 20.295389047266777], [99.91862722236854, 20.296075230887265], [99.91514150677517, 20.2967304814266], [99.90842673850321, 20.297009398964633], [99.90814837764562, 20.296798507944857], [99.90785969167148, 20.29645891494711], [99.90757918952804, 20.295674278944876], [99.90711962067397, 20.29435747451793], [99.9067223541533, 20.293666055943834], [99.90579826028159, 20.292439748495756], [99.90560321351758, 20.29204093514105], [99.90534694360665, 20.291199697608086], [99.9050826427499, 20.29083060684712], [99.90468802832997, 20.29090267042196], [99.90432910080743, 20.291245614293725], [99.90332878669417, 20.292560926745523], [99.90289955287209, 20.293374078450995], [99.90280549277941, 20.293772125583274], [99.90299277209886, 20.294794433516305], [99.90457044646895, 20.300553209862866], [99.90457514722533, 20.300950747978753], [99.90445556797022, 20.30128342159278], [99.90397923035736, 20.30151176845335], [99.89156655725088, 20.304685904930665], [99.89114772948423, 20.304444007984692]]], "crs": null}, "id": 7578, "type": "Feature", "properties": {"fid": 7578, "amphoe_e": "Amphoe Mae Sai", "am_id": 9, "tambon_t": "\u0e15.\u0e2b\u0e49\u0e27\u0e22\u0e44\u0e04\u0e23\u0e49", "amphoe_t": "\u0e2d.\u0e41\u0e21\u0e48\u0e2a\u0e32\u0e22", "changwat_e": "Changwat Chiangrai", "ch_id": 57, "ad_level": 4, "tambon_e": " ", "changwat_t": "\u0e08.\u0e40\u0e0a\u0e35\u0e22\u0e07\u0e23\u0e32\u0e22", "SHAPE__Length": 37254.48005504544, "SHAPE__Area": 50621677.99989341, "tambon_id": 570902, "subdistrict_id": "570902", "subdistrict_name_th": "\u0e15.\u0e2b\u0e49\u0e27\u0e22\u0e44\u0e04\u0e23\u0e49", "subdistrict_name": "Huai Khrai"}}]}