{"type":"FeatureCollection","features":[{"type":"Feature","geometry":{"type":"Polygon","coordinates":[[[99.932730549,20.456322959],[99.932112228,20.456213766],[99.930943139,20.455054905],[99.928453037,20.454124725],[99.927532675,20.452988998],[99.928136482,20.451776047],[99.926091881,20.451505859],[99.925944292,20.449560074],[99.924795873,20.449535589],[99.923971709,20.448096293],[99.922895062,20.448878341],[99.922273508,20.44875161],[99.922108814,20.448010569],[99.922652658,20.446674915],[99.9212388,20.445680437],[99.920476976,20.445843179],[99.920436773,20.446927583],[99.919946313,20.447691214],[99.918467326,20.446660727],[99.915926756,20.447584304],[99.91566765,20.448023553],[99.916206804,20.44896723],[99.91583205,20.449747449],[99.914661574,20.449424716],[99.913417538,20.449698956],[99.912303734,20.449352963],[99.911214727,20.449771694],[99.908935426,20.449601966],[99.9075964,20.449939759],[99.907323576,20.449774823],[99.907379465,20.448927444],[99.907019131,20.448715162],[99.90630761,20.449331956],[99.905779904,20.449379162],[99.903597295,20.448223137],[99.902906217,20.448694251],[99.902141908,20.447829135],[99.901055057,20.448272174],[99.900627078,20.447416788],[99.899541446,20.448331635],[99.898633557,20.448152759],[99.898009188,20.44884723],[99.897116044,20.448850406],[99.896900846,20.44768844],[99.895749921,20.446267419],[99.893874356,20.446616953],[99.893189818,20.446117089],[99.894244108,20.444777941],[99.894334513,20.444099135],[99.893255782,20.443050593],[99.891882222,20.445253046],[99.891174869,20.445486128],[99.889819869,20.444894056],[99.888509579,20.445842972],[99.887310293,20.445059606],[99.8858062,20.446046061],[99.884654359,20.446173461],[99.882832304,20.445040435],[99.880425889,20.444541909],[99.884485773,20.434861841],[99.886010037,20.434883532],[99.887255575,20.434229507],[99.88833396,20.432375863],[99.888569584,20.431189787],[99.888540791,20.43076517],[99.886737127,20.429462721],[99.884841945,20.429730558],[99.882609018,20.424274863],[99.883152304,20.421790304],[99.887443343,20.42263383],[99.889342568,20.423741219],[99.891450571,20.422830681],[99.890719716,20.42184539],[99.895923755,20.423000431],[99.898670973,20.421460911],[99.900030988,20.421109666],[99.901189429,20.420132384],[99.903141796,20.416864105],[99.906266495,20.414217673],[99.912979599,20.410696391],[99.916906551,20.409343228],[99.919540771,20.407603328],[99.922380589,20.404042756],[99.927626957,20.399045542],[99.931922941,20.404628619],[99.933997925,20.410957733],[99.937599817,20.419794806],[99.935244897,20.422893053],[99.93123134,20.427070528],[99.930864488,20.428654324],[99.931180377,20.431937437],[99.933857983,20.432433356],[99.93491327,20.433194828],[99.936958321,20.435724932],[99.937824173,20.435356651],[99.944136371,20.436155599],[99.941872442,20.439622627],[99.939635312,20.44163722],[99.93921123,20.4441458],[99.938052653,20.446609386],[99.938056654,20.447268671],[99.936900095,20.449105542],[99.934763869,20.450495568],[99.933742036,20.450623677],[99.933660313,20.452237608],[99.93406955,20.454425044],[99.932730549,20.456322959]]]},"properties":{"id":"TH570901","en":"Mae Sai","th":"แม่สาย"}},{"type":"Feature","geometry":{"type":"Polygon","coordinates":[[[99.860273564,20.304661779],[99.857869213,20.305003666],[99.855963345,20.306161022],[99.855267095,20.311450533],[99.853671055,20.313598442],[99.852526432,20.31609199],[99.849777778,20.318583294],[99.847603949,20.31981973],[99.844862827,20.322056222],[99.84169919,20.32814704],[99.840354534,20.331531204],[99.838110264,20.333540547],[99.836330061,20.334297073],[99.833396195,20.334813651],[99.830206284,20.33611446],[99.827195714,20.33619886],[99.821322675,20.333912419],[99.819917613,20.332984012],[99.818355427,20.332804331],[99.815199136,20.32961384],[99.815154327,20.328531121],[99.815773283,20.325809591],[99.818345345,20.3248581],[99.819403468,20.323819611],[99.819284861,20.32261018],[99.819864465,20.321034483],[99.819643023,20.316662079],[99.820830496,20.316095003],[99.822478994,20.314603321],[99.823051711,20.313528163],[99.823123345,20.312705558],[99.822736573,20.312329258],[99.822592546,20.308690991],[99.823477008,20.306088948],[99.826194913,20.303436496],[99.826958816,20.301313596],[99.828156786,20.300486148],[99.830316871,20.296646264],[99.833892114,20.293172518],[99.833721316,20.292615004],[99.834506915,20.292039797],[99.833905582,20.291156847],[99.834804604,20.290661258],[99.834943462,20.289509928],[99.834692278,20.288917202],[99.83503184,20.288352395],[99.83355478,20.287951418],[99.833427826,20.286809779],[99.832737785,20.285896886],[99.833229829,20.284761726],[99.832345143,20.283333264],[99.834881124,20.282394095],[99.834818878,20.281734702],[99.833583868,20.280519133],[99.833774234,20.28019826],[99.834478689,20.280112912],[99.835639388,20.278732832],[99.835346021,20.276530947],[99.836222245,20.275048134],[99.836147666,20.273765736],[99.837324084,20.271832177],[99.839498212,20.270178223],[99.840421287,20.270084305],[99.840337004,20.269221776],[99.842183488,20.267552663],[99.843179828,20.267409469],[99.843994452,20.267708193],[99.844712381,20.266939526],[99.845577462,20.266605589],[99.846846642,20.267001707],[99.851874859,20.266189246],[99.854452239,20.266037321],[99.854876346,20.266734187],[99.858485801,20.265651465],[99.859929305,20.265532645],[99.860470524,20.264244927],[99.861761395,20.263609647],[99.862778606,20.263636724],[99.863582395,20.264416309],[99.867135178,20.263726944],[99.867802674,20.264080204],[99.868635112,20.265277643],[99.869383065,20.26746631],[99.870264179,20.268035703],[99.871822557,20.268366785],[99.872341962,20.26943497],[99.873007016,20.26966475],[99.873201474,20.270415562],[99.874387167,20.270752994],[99.875566263,20.269606791],[99.876108571,20.26538185],[99.877733302,20.26392938],[99.882432842,20.261786115],[99.884853244,20.261226104],[99.886859169,20.259607371],[99.887997736,20.259111598],[99.891162845,20.258782474],[99.892947546,20.257678881],[99.895273278,20.260961859],[99.895741755,20.261059408],[99.895669269,20.261624999],[99.896024458,20.261855773],[99.89587098,20.262464141],[99.896629916,20.263060413],[99.896127855,20.263662124],[99.896252639,20.264092985],[99.897917886,20.264179625],[99.898061743,20.264732664],[99.898673692,20.264236927],[99.899022556,20.265146375],[99.9004511,20.265109853],[99.900997503,20.26544451],[99.901133027,20.266314267],[99.903530379,20.266822518],[99.903808662,20.26768354],[99.904288243,20.26767227],[99.904687062,20.268565857],[99.905158613,20.268630592],[99.905172694,20.26930505],[99.90622842,20.270153313],[99.906945054,20.271790208],[99.907789371,20.272003236],[99.907650621,20.272462861],[99.908414606,20.273060727],[99.90848336,20.273742699],[99.909877344,20.274565881],[99.909903886,20.275205884],[99.910708914,20.276108747],[99.911033137,20.277254321],[99.911733855,20.277792662],[99.911618166,20.278372704],[99.913394544,20.279976934],[99.913702207,20.280627522],[99.913403516,20.281514706],[99.913676418,20.282998998],[99.912989332,20.283305614],[99.913138969,20.284101495],[99.914839776,20.285275373],[99.916379738,20.285540999],[99.91841919,20.287050373],[99.918896618,20.288585982],[99.918781779,20.289393722],[99.919836492,20.29198417],[99.921320463,20.293281283],[99.923953814,20.294256692],[99.909252213,20.29663875],[99.908702197,20.294888051],[99.905893132,20.289546364],[99.903030091,20.290758708],[99.903669802,20.291669284],[99.90376107,20.294900893],[99.905807503,20.30020229],[99.891753343,20.303769171],[99.891097281,20.302533116],[99.890478132,20.302494519],[99.890015221,20.302946875],[99.888608323,20.303235956],[99.888058416,20.302743653],[99.887453429,20.302803831],[99.886865896,20.30342157],[99.885780087,20.302534989],[99.885337556,20.302581819],[99.883330375,20.304661478],[99.882301191,20.30487508],[99.881777054,20.305713226],[99.879728544,20.303881963],[99.878467864,20.303320455],[99.876880185,20.302073399],[99.875821088,20.301987172],[99.870016554,20.303000522],[99.867998782,20.30272428],[99.867132375,20.303321992],[99.864497822,20.303709709],[99.861697999,20.303431627],[99.86105429,20.303587226],[99.86120342,20.304134596],[99.860273564,20.304661779]]]},"properties":{"id":"TH570902","en":"Huai Khrai","th":"ห้วยไคร้"}},{"type":"Feature","geometry":{"type":"Polygon","coordinates":[[[99.977045485,20.439057851],[99.976291077,20.439103926],[99.976071577,20.439495719],[99.977013346,20.440996871],[99.977082936,20.442642406],[99.976553647,20.443189366],[99.974380283,20.443508417],[99.973926729,20.444333917],[99.974774353,20.444984754],[99.976322432,20.44444001],[99.97706771,20.444916095],[99.978178128,20.447336894],[99.980192266,20.449906032],[99.980300545,20.450644688],[99.979724103,20.450759525],[99.977299134,20.448750634],[99.975893895,20.448856161],[99.975099266,20.449571987],[99.974668853,20.451722471],[99.9726621,20.452668253],[99.971456312,20.453902459],[99.969476394,20.454415652],[99.967314769,20.45427425],[99.966475324,20.4549345],[99.967661217,20.456284164],[99.967733706,20.456897014],[99.970028172,20.457391818],[99.970360755,20.458553425],[99.969614741,20.459952436],[99.968656265,20.460515716],[99.967587984,20.460332366],[99.96684639,20.457471065],[99.966237346,20.457111789],[99.965512443,20.457157661],[99.964105894,20.459439074],[99.96429202,20.460014577],[99.965714179,20.460229864],[99.966219719,20.460603668],[99.966389674,20.461746498],[99.965978859,20.462320671],[99.965031491,20.462298035],[99.963678879,20.461370985],[99.963415787,20.461902486],[99.963703684,20.462974928],[99.963203884,20.463521687],[99.962566355,20.463343889],[99.961464126,20.462220157],[99.960663895,20.462057193],[99.960400184,20.462491054],[99.961386611,20.464033891],[99.960932671,20.46481752],[99.959987027,20.465073815],[99.958518786,20.464593719],[99.955776385,20.464744945],[99.953065286,20.463451088],[99.952611424,20.462524276],[99.951230546,20.461160553],[99.948635411,20.460794846],[99.946717814,20.458967358],[99.944280961,20.457390469],[99.941258049,20.456779169],[99.939977746,20.455544666],[99.936359282,20.455318455],[99.934909883,20.454497935],[99.93406955,20.454425044],[99.933660313,20.452237608],[99.933742036,20.450623677],[99.934763869,20.450495568],[99.936900095,20.449105542],[99.938056654,20.447268671],[99.938052653,20.446609386],[99.93921123,20.4441458],[99.939635312,20.44163722],[99.941872442,20.439622627],[99.944136371,20.436155599],[99.937824173,20.435356651],[99.936958321,20.435724932],[99.93491327,20.433194828],[99.933857983,20.432433356],[99.931180377,20.431937437],[99.931177876,20.429843479],[99.930865283,20.428786584],[99.931131078,20.42737176],[99.931820397,20.426315731],[99.935244897,20.422893053],[99.937753935,20.41959941],[99.949206672,20.407729624],[99.955285703,20.402261068],[99.956518969,20.400765904],[99.95990409,20.398573305],[99.963571425,20.397134007],[99.963223826,20.396161777],[99.963181995,20.393939308],[99.964569584,20.393935744],[99.967904841,20.392822929],[99.969401423,20.392816545],[99.971588066,20.391741598],[99.97199956,20.391204501],[99.972534464,20.391182134],[99.972597966,20.390549557],[99.973393823,20.389859216],[99.974228404,20.390130905],[99.975729515,20.390021118],[99.977344063,20.388840576],[99.981701394,20.388188354],[100.001578358,20.383464067],[100.005772729,20.381281651],[100.005776318,20.380291631],[100.0067632,20.379987428],[100.007773089,20.378687757],[100.008274341,20.378556854],[100.009061633,20.378996321],[100.009307696,20.378072739],[100.009973524,20.378885206],[100.010043972,20.381697934],[100.010401595,20.381695863],[100.010670367,20.380775139],[100.012058032,20.380385907],[100.012494035,20.381032658],[100.012894752,20.383789371],[100.015666376,20.384937636],[100.015657804,20.385377222],[100.014618906,20.385853583],[100.014399226,20.38471768],[100.013231174,20.384484001],[100.013034237,20.384812491],[100.013917885,20.38592049],[100.014029083,20.387034405],[100.015118147,20.386617004],[100.015810825,20.386986175],[100.01542111,20.388207222],[100.015575537,20.388721957],[100.016306465,20.388890217],[100.017348016,20.388399641],[100.017948339,20.389864417],[100.020241656,20.389896648],[100.020923278,20.390948905],[100.02205323,20.391561002],[100.023560358,20.393028489],[100.024303714,20.393077811],[100.025449018,20.392132938],[100.025977411,20.389565916],[100.027444472,20.389281697],[100.027961074,20.38876686],[100.027893657,20.387185351],[100.026837676,20.386493671],[100.026881545,20.38538035],[100.025643325,20.384965317],[100.025997624,20.38430291],[100.027505214,20.384700253],[100.028915448,20.385583103],[100.029972659,20.387031717],[100.030261992,20.388304121],[100.030187188,20.389328149],[100.029637712,20.390320981],[100.026641665,20.392432344],[100.026761067,20.394126288],[100.027105953,20.394618156],[100.028293312,20.395364528],[100.029339334,20.395118567],[100.030194268,20.394106038],[100.030861704,20.392013762],[100.032741819,20.390769681],[100.034762128,20.390630652],[100.035610285,20.39116962],[100.036105393,20.392838057],[100.034941898,20.395384244],[100.034401805,20.397781779],[100.034819742,20.398407405],[100.03580509,20.398167403],[100.036677279,20.402100451],[100.03597101,20.402121618],[100.034953495,20.401225322],[100.034127462,20.39937509],[100.032764602,20.399104204],[100.032460538,20.40009634],[100.03285095,20.400682898],[100.033798497,20.400878842],[100.034216611,20.401504197],[100.03396783,20.402655297],[100.032861627,20.40256283],[100.031439781,20.400102383],[100.030507597,20.40008],[100.029476034,20.400685876],[100.029450242,20.40125791],[100.030593533,20.401878835],[100.030360544,20.402438148],[100.028642287,20.401862059],[100.028830257,20.403453524],[100.028375356,20.404062838],[100.027681113,20.404420691],[100.025786002,20.404208678],[100.025033075,20.404450231],[100.024678768,20.408445539],[100.0244505,20.408629296],[100.023864814,20.408518199],[100.02342903,20.407896637],[100.023663232,20.406036686],[100.021465086,20.406825023],[100.019604048,20.406411132],[100.01903168,20.407753245],[100.016861725,20.409470526],[100.018994493,20.411255367],[100.019038006,20.412112103],[100.018450353,20.412984434],[100.017606594,20.413310737],[100.016138737,20.412807488],[100.014962831,20.414468815],[100.014144465,20.414818756],[100.012821926,20.414589633],[100.011451818,20.413167236],[100.010395385,20.412995626],[100.010261247,20.413722467],[100.012192004,20.415508563],[100.012235092,20.41630579],[100.011406333,20.41700096],[100.009925211,20.416402514],[100.009319665,20.416477443],[100.008831936,20.417194427],[100.00885647,20.418562091],[100.008502926,20.418861094],[100.007401785,20.418607216],[100.006098599,20.417287184],[100.004942867,20.416688465],[100.004604795,20.415635799],[100.005071575,20.413633453],[100.004777336,20.413040019],[100.003966326,20.412580488],[100.00322085,20.41293538],[100.00410642,20.413995272],[100.004252154,20.414957404],[100.004008059,20.415480599],[100.002460663,20.415981427],[99.999897196,20.415912836],[99.999109996,20.417105646],[99.999287977,20.419007527],[99.998503498,20.41947442],[99.996165866,20.418790865],[99.994336697,20.419039367],[99.992209194,20.418051674],[99.989972353,20.417731122],[99.989610021,20.418328318],[99.989776204,20.418648748],[99.993647255,20.419816978],[99.994585683,20.42045437],[99.994983807,20.421499535],[99.994544393,20.422339799],[99.99274055,20.422155079],[99.991345945,20.42323427],[99.987667248,20.422541008],[99.986924145,20.422830883],[99.987055261,20.423591914],[99.987602507,20.424267267],[99.989450163,20.424923331],[99.990783898,20.426165531],[99.9920974,20.426217568],[99.992683014,20.426964099],[99.992346304,20.42762067],[99.991765648,20.427647781],[99.989780802,20.426296446],[99.989155428,20.4262224],[99.988778241,20.426474502],[99.988509438,20.427880549],[99.987908165,20.428633831],[99.984968872,20.429067079],[99.984441743,20.429569971],[99.984797938,20.429984553],[99.98687111,20.430353703],[99.987366275,20.430779391],[99.987497178,20.431504715],[99.986646693,20.432783129],[99.984702939,20.432913159],[99.984340245,20.433462736],[99.987397307,20.434261096],[99.988326559,20.433849654],[99.989219881,20.434327779],[99.989590398,20.435004127],[99.989003039,20.436529082],[99.987993566,20.436803738],[99.985870494,20.435719686],[99.98519337,20.436135345],[99.986928842,20.437423582],[99.986974399,20.4386255],[99.985953569,20.438940755],[99.984390878,20.437449857],[99.983797706,20.437500822],[99.983395836,20.43784827],[99.983280914,20.43963433],[99.98286996,20.440447802],[99.981915202,20.441569068],[99.981354303,20.441795411],[99.978039507,20.441800122],[99.977681272,20.441313934],[99.977581283,20.439543038],[99.977045485,20.439057851]]]},"properties":{"id":"TH570903","en":"Ko Chang","th":"เกาะช้าง"}},{"type":"Feature","geometry":{"type":"Polygon","coordinates":[[[99.910602701,20.38415823],[99.910040848,20.384029968],[99.910149404,20.384469725],[99.909176594,20.384775501],[99.908687903,20.385612614],[99.907803847,20.385375379],[99.906830684,20.386615634],[99.906072324,20.386192484],[99.903944334,20.387029974],[99.904034362,20.387349683],[99.903267112,20.388180025],[99.902903829,20.389128856],[99.902288267,20.389327519],[99.90227108,20.389898823],[99.901505973,20.390576466],[99.901443673,20.391851693],[99.900032857,20.393146466],[99.899282113,20.396616391],[99.898335757,20.397243409],[99.898198895,20.397882454],[99.896492577,20.398606093],[99.896614791,20.399303267],[99.894838437,20.399954488],[99.894787717,20.400380955],[99.894387474,20.400569414],[99.887885033,20.400650932],[99.871379194,20.398924035],[99.87002858,20.39768654],[99.868574265,20.397680577],[99.867345059,20.397119534],[99.865923453,20.395674664],[99.864905294,20.392385772],[99.862892631,20.390033632],[99.862697239,20.385895491],[99.862185789,20.384846991],[99.861240047,20.384223211],[99.85962904,20.383819413],[99.858135771,20.383924282],[99.855486579,20.384879975],[99.854380464,20.384343626],[99.85338697,20.379907751],[99.853398605,20.376497367],[99.854125244,20.372650699],[99.851028949,20.370508503],[99.850162182,20.366209478],[99.848407113,20.362717722],[99.84664892,20.360153656],[99.846669361,20.357838215],[99.848427454,20.357361938],[99.850090128,20.356067554],[99.852558843,20.354796884],[99.855351627,20.354235637],[99.855879703,20.353717527],[99.856921921,20.353478088],[99.859042793,20.350783424],[99.859696441,20.349430473],[99.860742677,20.349770655],[99.862176525,20.348035973],[99.86411233,20.34823414],[99.866351608,20.347407695],[99.869653888,20.346817712],[99.871119742,20.34709168],[99.874204919,20.346479269],[99.877121958,20.34546343],[99.874706858,20.339476143],[99.876538288,20.339020331],[99.876660973,20.338516527],[99.87772932,20.338142818],[99.888187527,20.337882235],[99.900371939,20.339967956],[99.901605019,20.340666086],[99.90217784,20.342605926],[99.902858211,20.342440731],[99.90429051,20.343038507],[99.904943976,20.342979506],[99.906561617,20.344299786],[99.906924484,20.344246699],[99.9070418,20.344701631],[99.907814282,20.344267775],[99.908341146,20.344815635],[99.910065909,20.345500222],[99.911254316,20.344712813],[99.912109479,20.344779455],[99.912715657,20.345385022],[99.913417534,20.345458706],[99.913831028,20.345087558],[99.91415417,20.345551424],[99.914701393,20.344880731],[99.915427273,20.345742707],[99.916020788,20.345666567],[99.916693488,20.346406299],[99.917290853,20.347793475],[99.917926269,20.347532596],[99.917870017,20.346933629],[99.919433724,20.346792165],[99.919496455,20.346321156],[99.922138627,20.345259977],[99.922889841,20.344640308],[99.922598714,20.344054262],[99.924610503,20.343262058],[99.925008687,20.342051745],[99.926328117,20.341627259],[99.926549914,20.340956968],[99.926317686,20.340574582],[99.927744329,20.340613207],[99.927397617,20.340136504],[99.927559461,20.339859915],[99.929575433,20.33998665],[99.930289618,20.340842715],[99.931427476,20.340780503],[99.931706045,20.3411528],[99.932304893,20.341147094],[99.932897273,20.342136211],[99.934216207,20.342041169],[99.934452138,20.341379504],[99.93483312,20.34134478],[99.935758259,20.342109181],[99.93580933,20.342621812],[99.936474221,20.342516005],[99.936668154,20.343143518],[99.937505407,20.34318177],[99.938531336,20.343857618],[99.93862513,20.34438091],[99.939515758,20.343987257],[99.940135615,20.345249418],[99.93937319,20.345979292],[99.939749561,20.346797742],[99.940260429,20.346786613],[99.940102954,20.347488928],[99.941202672,20.348457687],[99.942263705,20.348613714],[99.942004542,20.349836119],[99.942230992,20.350431799],[99.941472807,20.351329307],[99.942397652,20.352495099],[99.941814183,20.353179786],[99.942195752,20.353454568],[99.942171409,20.354757969],[99.941502572,20.35524876],[99.941536292,20.356392549],[99.940328245,20.357931226],[99.939828238,20.357959691],[99.939191805,20.359202207],[99.938688879,20.359079807],[99.938712715,20.359888035],[99.93813245,20.359511721],[99.937746555,20.360061637],[99.935886707,20.360034033],[99.935493406,20.360754112],[99.934758018,20.360856044],[99.93493246,20.361287273],[99.934158917,20.362354871],[99.934405823,20.362984839],[99.933423089,20.363492614],[99.933954229,20.363956985],[99.933392265,20.364539358],[99.932824728,20.364279561],[99.932688399,20.364824012],[99.931756553,20.364743911],[99.93153588,20.365260057],[99.929087733,20.364616681],[99.928801524,20.365046907],[99.927611209,20.365054786],[99.927524268,20.365629286],[99.927181496,20.36499041],[99.926359702,20.364910572],[99.926518987,20.365323178],[99.926161256,20.365416831],[99.925449196,20.36684771],[99.924907374,20.366700481],[99.924512272,20.366959121],[99.923946423,20.367510793],[99.923954737,20.367945786],[99.922996688,20.368633101],[99.9228781,20.369458146],[99.923526585,20.370144172],[99.922939294,20.370138605],[99.922976822,20.37114688],[99.922011609,20.371770203],[99.92208526,20.372668025],[99.921591324,20.372677446],[99.921874859,20.373188243],[99.921370645,20.374011064],[99.922232195,20.37451199],[99.921770594,20.374767787],[99.921605984,20.376029868],[99.921102415,20.376299515],[99.92121583,20.377131601],[99.920171052,20.376856267],[99.920434622,20.377683826],[99.919427018,20.377768162],[99.919656373,20.378510649],[99.919330522,20.378280463],[99.918635411,20.378479411],[99.918538734,20.379112083],[99.918940795,20.379172256],[99.918766457,20.379579325],[99.91811745,20.379842609],[99.918144869,20.380252121],[99.917495743,20.380077082],[99.917152657,20.380731532],[99.916814955,20.380283809],[99.916227594,20.380490598],[99.916172284,20.381000436],[99.91570228,20.380723091],[99.915535467,20.381196613],[99.915923488,20.381221516],[99.915770267,20.381629149],[99.915501431,20.381522063],[99.915188776,20.381868752],[99.914715334,20.381662802],[99.914636169,20.382141854],[99.914016771,20.382061726],[99.914346261,20.382800127],[99.913306922,20.382660133],[99.913024754,20.383268713],[99.912440122,20.38295003],[99.912139688,20.38339272],[99.911481148,20.383354477],[99.911189427,20.383022508],[99.910892009,20.38356826],[99.910363292,20.383669172],[99.910602701,20.38415823]]]},"properties":{"id":"TH570904","en":"Pong Pha","th":"โป่งผา"}},{"type":"Feature","geometry":{"type":"Polygon","coordinates":[[[100.007166134,20.379341595],[100.0067632,20.379987428],[100.005622469,20.3804923],[100.005772729,20.381281651],[100.001578358,20.383464067],[99.981701394,20.388188354],[99.977344063,20.388840576],[99.975729515,20.390021118],[99.974228404,20.390130905],[99.973439593,20.389844545],[99.972597966,20.390549557],[99.972534464,20.391182134],[99.97199956,20.391204501],[99.971588066,20.391741598],[99.969401423,20.392816545],[99.967904841,20.392822929],[99.964569584,20.393935744],[99.963181995,20.393939308],[99.963223826,20.396161777],[99.963571425,20.397134007],[99.95990409,20.398573305],[99.956593523,20.400700178],[99.955285703,20.402261068],[99.949206672,20.407729624],[99.937599817,20.419794806],[99.933997925,20.410957733],[99.931922941,20.404628619],[99.927626957,20.399045542],[99.922380589,20.404042756],[99.919540771,20.407603328],[99.916457417,20.40954773],[99.914176756,20.41027248],[99.913939717,20.409858304],[99.915845289,20.405558991],[99.916017818,20.403605224],[99.916834913,20.402681568],[99.91725317,20.401246124],[99.918305502,20.4004708],[99.919441068,20.398810375],[99.919938282,20.396899717],[99.919482863,20.39532659],[99.919541032,20.391341343],[99.920041355,20.389865329],[99.917118086,20.389515037],[99.912170957,20.391338623],[99.911697772,20.389541252],[99.911813925,20.387547111],[99.911478376,20.385914606],[99.910357338,20.383681708],[99.910914409,20.383550709],[99.911189427,20.383022508],[99.911481148,20.383354477],[99.912139688,20.38339272],[99.912440122,20.38295003],[99.913024754,20.383268713],[99.913306922,20.382660133],[99.914332648,20.382808913],[99.914016771,20.382061726],[99.914636169,20.382141854],[99.914715334,20.381662802],[99.915188776,20.381868752],[99.915501431,20.381522063],[99.915770267,20.381629149],[99.915923488,20.381221516],[99.915535467,20.381196613],[99.91570228,20.380723091],[99.916172284,20.381000436],[99.916227594,20.380490598],[99.916814955,20.380283809],[99.917152657,20.380731532],[99.917495743,20.380077082],[99.918144869,20.380252121],[99.91811745,20.379842609],[99.918766457,20.379579325],[99.918940795,20.379172256],[99.918538734,20.379112083],[99.918635411,20.378479411],[99.919330522,20.378280463],[99.919656373,20.378510649],[99.919427018,20.377768162],[99.920434622,20.377683826],[99.920171052,20.376856267],[99.92121583,20.377131601],[99.921102415,20.376299515],[99.921605984,20.376029868],[99.921770594,20.374767787],[99.922232195,20.37451199],[99.921370645,20.374011064],[99.921874859,20.373188243],[99.921591324,20.372677446],[99.92208526,20.372668025],[99.922011609,20.371770203],[99.922976822,20.37114688],[99.922939294,20.370138605],[99.923526585,20.370144172],[99.9228781,20.369458146],[99.922996688,20.368633101],[99.923954737,20.367945786],[99.923946423,20.367510793],[99.924512272,20.366959121],[99.924907374,20.366700481],[99.925449196,20.36684771],[99.926161256,20.365416831],[99.926518987,20.365323178],[99.926359702,20.364910572],[99.927181496,20.36499041],[99.927524268,20.365629286],[99.927611209,20.365054786],[99.928801524,20.365046907],[99.929121469,20.36461127],[99.929775446,20.364999898],[99.93000463,20.364679122],[99.930332955,20.365106301],[99.93092201,20.364921129],[99.93153588,20.365260057],[99.931756553,20.364743911],[99.932638162,20.364851369],[99.932809653,20.36428677],[99.933320357,20.364566835],[99.933893594,20.364182114],[99.933937882,20.36383635],[99.933398079,20.363542998],[99.934393353,20.363015685],[99.934158917,20.362354871],[99.93493246,20.361287273],[99.934758018,20.360856044],[99.935493406,20.360754112],[99.935886707,20.360034033],[99.937746555,20.360061637],[99.93813245,20.359511721],[99.938729376,20.359871451],[99.938688879,20.359079807],[99.939191805,20.359202207],[99.939852661,20.357930691],[99.940328245,20.357931226],[99.941546571,20.356374965],[99.941524679,20.355198115],[99.942156149,20.354856004],[99.942195752,20.353454568],[99.941814183,20.353179786],[99.942397652,20.352495099],[99.941472807,20.351329307],[99.942221856,20.350457626],[99.942007246,20.349801047],[99.942694931,20.348837986],[99.943829197,20.349921227],[99.944625278,20.349952469],[99.94545802,20.349450326],[99.946293071,20.349571261],[99.946762056,20.348920534],[99.947447669,20.348772545],[99.948912476,20.347586018],[99.949985671,20.347739791],[99.950741659,20.347500103],[99.951131884,20.34835316],[99.952464407,20.347411962],[99.952881291,20.348633567],[99.954053203,20.348856474],[99.954903586,20.349427521],[99.954607722,20.350746138],[99.955129366,20.351614342],[99.955788645,20.351750399],[99.955909232,20.350930805],[99.957075119,20.352330902],[99.957758679,20.352071463],[99.957955874,20.351607843],[99.959006766,20.351330605],[99.959066898,20.352684937],[99.959716935,20.353319001],[99.959320331,20.353750278],[99.96007336,20.354035127],[99.960300922,20.354661205],[99.960749742,20.354346664],[99.960884645,20.353502847],[99.962044316,20.353342817],[99.961687643,20.352450755],[99.962810457,20.351929491],[99.963294865,20.353151625],[99.96428326,20.353549531],[99.965341043,20.35207178],[99.96608496,20.354179286],[99.967250879,20.354164344],[99.968093691,20.354796553],[99.968492367,20.354716503],[99.969036989,20.353976112],[99.970243655,20.353757119],[99.97094588,20.35302434],[99.972548402,20.353476813],[99.972634645,20.353109769],[99.971858881,20.352641382],[99.97195005,20.351862462],[99.97243642,20.351648875],[99.973525908,20.351654127],[99.973774425,20.352278303],[99.974206228,20.352457053],[99.975431169,20.352523809],[99.97607681,20.352104107],[99.976928352,20.353166477],[99.978952171,20.352840951],[99.979572493,20.351976976],[99.980618879,20.353236374],[99.981731024,20.352313019],[99.982514995,20.353125231],[99.984414159,20.352658814],[99.98478972,20.35371484],[99.985589074,20.353552001],[99.98639792,20.354324597],[99.987682216,20.353264767],[99.988422106,20.353605119],[99.988801021,20.353186935],[99.989762721,20.353965065],[99.990116674,20.353294889],[99.990879468,20.353749665],[99.990420233,20.352369937],[99.99130723,20.352140789],[99.993260256,20.35291912],[99.993356269,20.353513151],[99.994062517,20.353581889],[99.994914753,20.353047686],[99.994823676,20.353640273],[99.995824532,20.354159741],[99.995285845,20.35450233],[99.996086543,20.354596024],[99.996222606,20.355165017],[99.997341922,20.355671534],[99.997011179,20.35626995],[99.996023418,20.356736088],[99.996001229,20.35714765],[99.99744428,20.357250917],[99.997926378,20.356840066],[99.998581083,20.357900042],[99.997200748,20.359463367],[99.996386484,20.359885029],[99.996438132,20.360379795],[99.997696025,20.360551014],[99.99882145,20.361816451],[99.999707431,20.361407888],[99.999777125,20.362178518],[100.000515247,20.36204064],[100.001222299,20.361279612],[100.001807733,20.361619892],[100.001931941,20.362223246],[100.001323498,20.362401794],[100.00131547,20.362756285],[100.002885408,20.363127653],[100.00232575,20.363764108],[100.002031682,20.365072263],[100.002903278,20.36553949],[100.002907181,20.364191936],[100.003263895,20.363891637],[100.005379177,20.366546431],[100.00528455,20.367658275],[100.006025262,20.367964892],[100.005598065,20.368564629],[100.006438224,20.368591257],[100.006271543,20.368972005],[100.004981646,20.369683676],[100.004967807,20.370043431],[100.004122451,20.370238122],[100.003083529,20.3711312],[100.004906045,20.372271652],[100.004698832,20.373250287],[100.005216021,20.373718217],[100.005765873,20.375423636],[100.00766529,20.375999764],[100.007166134,20.379341595]]]},"properties":{"id":"TH570905","en":"Si Mueang Chum","th":"ศรีเมืองชุม"}},{"type":"Feature","geometry":{"type":"Polygon","coordinates":[[[99.872922643,20.443872729],[99.869660844,20.446121085],[99.868035967,20.446328583],[99.866385607,20.445512677],[99.865134157,20.446171565],[99.862443346,20.443529458],[99.860085263,20.442433151],[99.859438238,20.440911329],[99.861677015,20.439177997],[99.863391223,20.43521175],[99.863902323,20.433125361],[99.862090317,20.431200926],[99.859349413,20.423345995],[99.859361738,20.421302637],[99.856729444,20.417766782],[99.854953923,20.416565593],[99.853805943,20.41445843],[99.850420672,20.411775513],[99.848219073,20.408638411],[99.847490589,20.408025345],[99.844849443,20.407241205],[99.841837877,20.404845397],[99.839924377,20.401209297],[99.840874812,20.398958002],[99.840430889,20.395038325],[99.839752092,20.39214827],[99.838373798,20.389739713],[99.839403205,20.387748661],[99.840953193,20.385853181],[99.841054323,20.384122521],[99.843033638,20.381095102],[99.843145393,20.380022787],[99.842295564,20.375093049],[99.842385242,20.37418326],[99.846148261,20.371428745],[99.851028949,20.370508503],[99.854010315,20.372464926],[99.854141959,20.373513272],[99.853398605,20.376497367],[99.85338697,20.379907751],[99.854380464,20.384343626],[99.855486579,20.384879975],[99.858135771,20.383924282],[99.85962904,20.383819413],[99.861240047,20.384223211],[99.862185789,20.384846991],[99.862697239,20.385895491],[99.862892631,20.390033632],[99.864905294,20.392385772],[99.865923453,20.395674664],[99.867345059,20.397119534],[99.868574265,20.397680577],[99.87002858,20.39768654],[99.871477785,20.398962001],[99.887885033,20.400650932],[99.894387474,20.400569414],[99.894787717,20.400380955],[99.894838437,20.399954488],[99.896614791,20.399303267],[99.896492577,20.398606093],[99.898198895,20.397882454],[99.898335757,20.397243409],[99.899282113,20.396616391],[99.900032857,20.393146466],[99.901443673,20.391851693],[99.901505973,20.390576466],[99.90227108,20.389898823],[99.902288267,20.389327519],[99.902903829,20.389128856],[99.903267112,20.388180025],[99.904034362,20.387349683],[99.903927419,20.387047758],[99.906072324,20.386192484],[99.906847578,20.386608246],[99.907803847,20.385375379],[99.908687903,20.385612614],[99.909176594,20.384775501],[99.91013979,20.384480726],[99.910105994,20.383999056],[99.910684312,20.384250268],[99.911436028,20.385739508],[99.911813925,20.387547111],[99.911697772,20.389541252],[99.912170957,20.391338623],[99.917118086,20.389515037],[99.920041355,20.389865329],[99.919528991,20.391733855],[99.919482863,20.39532659],[99.919931035,20.396796038],[99.919827823,20.397474639],[99.919200271,20.39931198],[99.91725317,20.401246124],[99.916834913,20.402681568],[99.91595393,20.403738981],[99.915845289,20.405558991],[99.913941528,20.409696728],[99.914176756,20.41027248],[99.90974037,20.412239881],[99.906266495,20.414217673],[99.903141796,20.416864105],[99.900560486,20.420789502],[99.898670973,20.421460911],[99.895968498,20.422987306],[99.890719716,20.42184539],[99.891450571,20.422830681],[99.889342568,20.423741219],[99.887443343,20.42263383],[99.883152304,20.421790304],[99.882609018,20.424274863],[99.884841945,20.429730558],[99.886679053,20.429445628],[99.888540791,20.43076517],[99.88833396,20.432375863],[99.887779108,20.433498976],[99.886303207,20.434811383],[99.884485773,20.434861841],[99.880425889,20.444541909],[99.878984926,20.444918607],[99.877412907,20.444320404],[99.876134961,20.444440274],[99.872922643,20.443872729]]]},"properties":{"id":"TH570906","en":"Wiang Phang Kham","th":"เวียงพางคำ"}},{"type":"Feature","geometry":{"type":"Polygon","coordinates":[[[99.962810457,20.351929491],[99.961687643,20.352450755],[99.962044316,20.353342817],[99.960884645,20.353502847],[99.960719714,20.354404945],[99.960273043,20.354657378],[99.96007336,20.354035127],[99.959320331,20.353750278],[99.959716935,20.353319001],[99.959066898,20.352684937],[99.959006766,20.351330605],[99.957955874,20.351607843],[99.957758679,20.352071463],[99.957075119,20.352330902],[99.955909232,20.350930805],[99.955788645,20.351750399],[99.955129366,20.351614342],[99.954607722,20.350746138],[99.954903586,20.349427521],[99.954053203,20.348856474],[99.952881291,20.348633567],[99.952417799,20.347403158],[99.951131884,20.34835316],[99.950741659,20.347500103],[99.949985671,20.347739791],[99.948912476,20.347586018],[99.947447669,20.348772545],[99.946762056,20.348920534],[99.946293071,20.349571261],[99.94545802,20.349450326],[99.944726399,20.349932406],[99.943895158,20.349952233],[99.942937342,20.348842253],[99.942096558,20.349331168],[99.942213414,20.34852599],[99.941202672,20.348457687],[99.940128066,20.347526507],[99.940260429,20.346786613],[99.939749561,20.346797742],[99.93937319,20.345979292],[99.940135615,20.345249418],[99.939549703,20.344016408],[99.93862513,20.34438091],[99.938531336,20.343857618],[99.937505407,20.34318177],[99.936668154,20.343143518],[99.936474221,20.342516005],[99.93580933,20.342621812],[99.935792294,20.342154257],[99.934862533,20.341359708],[99.934476854,20.341351714],[99.934216207,20.342041169],[99.932982622,20.342144136],[99.932598336,20.341924097],[99.932369966,20.341181944],[99.931706045,20.3411528],[99.931427476,20.340780503],[99.930289618,20.340842715],[99.929575433,20.33998665],[99.927559461,20.339859915],[99.927397617,20.340136504],[99.927719567,20.340632611],[99.926317686,20.340574582],[99.926229037,20.339969239],[99.924981886,20.339030327],[99.924871793,20.338437661],[99.923835118,20.337959147],[99.923964352,20.336763625],[99.923191592,20.336144909],[99.923380616,20.335882054],[99.92299496,20.335631433],[99.923205948,20.335277164],[99.922875445,20.335342605],[99.922355804,20.334259693],[99.921943765,20.334493297],[99.921798409,20.334147983],[99.921101493,20.334043376],[99.920710306,20.331462236],[99.921082643,20.330606754],[99.920714163,20.330465736],[99.920972555,20.33000789],[99.920490765,20.32875111],[99.920703768,20.327554714],[99.921166744,20.327127013],[99.9208116,20.326167632],[99.920102832,20.325470867],[99.919226754,20.325584424],[99.917496018,20.324499062],[99.915706156,20.322679402],[99.915482082,20.321872803],[99.913083129,20.322476198],[99.912636857,20.322271742],[99.911453043,20.322792451],[99.910620155,20.321638739],[99.909710613,20.321014864],[99.909212009,20.31938914],[99.908323522,20.319418826],[99.908126766,20.317069119],[99.907010119,20.315714578],[99.90564435,20.314450639],[99.903509292,20.314828264],[99.903049314,20.314068232],[99.902523974,20.314064677],[99.902067283,20.313584003],[99.901165641,20.313598571],[99.899576221,20.311755975],[99.898929423,20.311518566],[99.898950502,20.311142477],[99.898535525,20.311137656],[99.89844914,20.310678169],[99.897819509,20.310511822],[99.898066215,20.30975239],[99.897622847,20.309084288],[99.897001522,20.308861374],[99.89702542,20.308273784],[99.896536577,20.308295467],[99.896572576,20.307858216],[99.895500097,20.3076048],[99.894715401,20.306879019],[99.894735704,20.306501907],[99.894301822,20.306405204],[99.893585448,20.30537121],[99.891885519,20.303966272],[99.891753343,20.303769171],[99.892694605,20.303417841],[99.900212227,20.301803357],[99.905807503,20.30020229],[99.90376107,20.294900893],[99.903669802,20.291669284],[99.903030091,20.290758708],[99.905893132,20.289546364],[99.908702197,20.294888051],[99.909252213,20.29663875],[99.923953814,20.294256692],[99.921320463,20.293281283],[99.919836492,20.29198417],[99.918781779,20.289393722],[99.918896618,20.288585982],[99.91841919,20.287050373],[99.916379738,20.285540999],[99.914839776,20.285275373],[99.913138969,20.284101495],[99.912989332,20.283305614],[99.913676418,20.282998998],[99.913403516,20.281514706],[99.91358114,20.280911413],[99.914399886,20.281858545],[99.914988504,20.281494864],[99.914981259,20.281872591],[99.915827106,20.282351259],[99.915988767,20.283061115],[99.917669161,20.283549711],[99.919386963,20.285139391],[99.919982743,20.284545963],[99.921623718,20.287860277],[99.922674354,20.287380132],[99.92589368,20.284839397],[99.928586678,20.284214138],[99.92833602,20.283355985],[99.928588078,20.282454061],[99.930467343,20.279261164],[99.932541348,20.280344312],[99.93322521,20.281880172],[99.933849278,20.282406921],[99.934897664,20.282565661],[99.936688611,20.282265801],[99.937501046,20.282615709],[99.937776703,20.283190877],[99.936730423,20.283670779],[99.936960635,20.284319998],[99.939643966,20.285170592],[99.940637407,20.28682352],[99.943596043,20.289267692],[99.94512898,20.288574881],[99.94554329,20.289639713],[99.948184967,20.292386199],[99.948988774,20.294531113],[99.949801901,20.294700794],[99.950702563,20.29389429],[99.951353488,20.294147745],[99.951450567,20.29547633],[99.95472636,20.298472437],[99.956652131,20.302503538],[99.95905899,20.304698985],[99.959365593,20.305450031],[99.959631136,20.311835633],[99.96059521,20.31428118],[99.961374704,20.315406864],[99.962685136,20.321025203],[99.965962092,20.331169212],[99.965737522,20.333414197],[99.965253704,20.334760695],[99.965626889,20.336543308],[99.965151946,20.340894104],[99.965267102,20.341929377],[99.966607268,20.344976198],[99.966584303,20.347952281],[99.965396309,20.351056963],[99.965587968,20.352842413],[99.965171466,20.352071303],[99.964841736,20.353103457],[99.964160034,20.353521904],[99.963294865,20.353151625],[99.962810457,20.351929491]]]},"properties":{"id":"TH570908","en":"Ban Dai","th":"บ้านด้าย"}},{"type":"Feature","geometry":{"type":"Polygon","coordinates":[[[99.851028949,20.370508503],[99.846148261,20.371428745],[99.842532646,20.373925287],[99.842295564,20.375093049],[99.843109713,20.38066972],[99.842530257,20.382224737],[99.841054323,20.384122521],[99.840834309,20.38314485],[99.839313364,20.380256699],[99.838936968,20.378398435],[99.838926624,20.376485299],[99.839596411,20.375286334],[99.839647777,20.37435607],[99.839222226,20.373826659],[99.836682352,20.373121376],[99.833341948,20.370267587],[99.831582991,20.368043912],[99.830088345,20.365194461],[99.828493014,20.3637561],[99.828072377,20.362887643],[99.82818303,20.362148652],[99.827109877,20.356511797],[99.82417312,20.352106762],[99.821984204,20.351363149],[99.819237924,20.348579503],[99.817317202,20.347355141],[99.815201773,20.34450297],[99.812905272,20.342839808],[99.812010111,20.341346326],[99.810850959,20.338082254],[99.810699036,20.33610271],[99.811852155,20.33410332],[99.815041951,20.331333745],[99.815199136,20.32961384],[99.818355427,20.332804331],[99.819917613,20.332984012],[99.821322675,20.333912419],[99.827195714,20.33619886],[99.830206284,20.33611446],[99.833396195,20.334813651],[99.837603705,20.333811784],[99.840354534,20.331531204],[99.84169919,20.32814704],[99.844862827,20.322056222],[99.847603949,20.31981973],[99.849777778,20.318583294],[99.852526432,20.31609199],[99.853671055,20.313598442],[99.855267095,20.311450533],[99.855598132,20.307563466],[99.856085617,20.306003254],[99.858279152,20.304841658],[99.860273564,20.304661779],[99.86120342,20.304134596],[99.86105429,20.303587226],[99.861697999,20.303431627],[99.864497822,20.303709709],[99.867132375,20.303321992],[99.867998782,20.30272428],[99.870016554,20.303000522],[99.875821088,20.301987172],[99.876880185,20.302073399],[99.878467864,20.303320455],[99.879728544,20.303881963],[99.881751194,20.305714762],[99.882301191,20.30487508],[99.883330375,20.304661478],[99.885174108,20.302624422],[99.885780087,20.302534989],[99.886865896,20.30342157],[99.887453429,20.302803831],[99.888058416,20.302743653],[99.888608323,20.303235956],[99.890015221,20.302946875],[99.890478132,20.302494519],[99.89114624,20.302552384],[99.892068293,20.304217761],[99.893585448,20.30537121],[99.894301822,20.306405204],[99.894735704,20.306501907],[99.895146885,20.307302272],[99.896572576,20.307858216],[99.896536577,20.308295467],[99.89702542,20.308273784],[99.897001522,20.308861374],[99.897622847,20.309084288],[99.898066215,20.30975239],[99.897819509,20.310511822],[99.89844914,20.310678169],[99.898535525,20.311137656],[99.898950502,20.311142477],[99.898929423,20.311518566],[99.899576221,20.311755975],[99.901165641,20.313598571],[99.902067283,20.313584003],[99.902523974,20.314064677],[99.903049314,20.314068232],[99.903509292,20.314828264],[99.90564435,20.314450639],[99.907175074,20.315875873],[99.908126766,20.317069119],[99.908323522,20.319418826],[99.909212009,20.31938914],[99.909710613,20.321014864],[99.910620155,20.321638739],[99.911453043,20.322792451],[99.912693615,20.322258909],[99.913083129,20.322476198],[99.915513067,20.321884744],[99.915706156,20.322679402],[99.917496018,20.324499062],[99.919226754,20.325584424],[99.920102832,20.325470867],[99.921193369,20.326667636],[99.920490765,20.32875111],[99.920972555,20.33000789],[99.920714163,20.330465736],[99.921082643,20.330606754],[99.920710306,20.331462236],[99.921101493,20.334043376],[99.921798409,20.334147983],[99.921943765,20.334493297],[99.922355804,20.334259693],[99.922875445,20.335342605],[99.923205948,20.335277164],[99.92299496,20.335631433],[99.923380616,20.335882054],[99.923191592,20.336144909],[99.923964352,20.336763625],[99.923835118,20.337959147],[99.924871793,20.338437661],[99.924981886,20.339030327],[99.926229037,20.339969239],[99.926238155,20.340785719],[99.926549914,20.340956968],[99.92627252,20.341676051],[99.924974599,20.342084254],[99.924610503,20.343262058],[99.922598714,20.344054262],[99.922876567,20.344664277],[99.92155841,20.345686859],[99.920777145,20.345638261],[99.920028451,20.346307106],[99.91948013,20.346333187],[99.919433724,20.346792165],[99.917909962,20.346913532],[99.917926269,20.347532596],[99.917290853,20.347793475],[99.916693488,20.346406299],[99.916020788,20.345666567],[99.915427273,20.345742707],[99.914701393,20.344880731],[99.91415417,20.345551424],[99.913831028,20.345087558],[99.913417534,20.345458706],[99.912715657,20.345385022],[99.912109479,20.344779455],[99.911254316,20.344712813],[99.910065909,20.345500222],[99.908341146,20.344815635],[99.907814282,20.344267775],[99.9070418,20.344701631],[99.906924484,20.344246699],[99.906561617,20.344299786],[99.904943976,20.342979506],[99.90429051,20.343038507],[99.902858211,20.342440731],[99.90217784,20.342605926],[99.901605019,20.340666086],[99.900371939,20.339967956],[99.888187527,20.337882235],[99.879717741,20.337922025],[99.876827948,20.338446622],[99.876538288,20.339020331],[99.874706858,20.339476143],[99.877121958,20.34546343],[99.874204919,20.346479269],[99.871119742,20.34709168],[99.869653888,20.346817712],[99.866351608,20.347407695],[99.86411233,20.34823414],[99.862176525,20.348035973],[99.860742677,20.349770655],[99.859696441,20.349430473],[99.859042793,20.350783424],[99.856921921,20.353478088],[99.855879703,20.353717527],[99.855351627,20.354235637],[99.852558843,20.354796884],[99.850090128,20.356067554],[99.848427454,20.357361938],[99.846669361,20.357838215],[99.84664892,20.360153656],[99.848407113,20.362717722],[99.850162182,20.366209478],[99.851028949,20.370508503]]]},"properties":{"id":"TH570909","en":"Pong Ngam","th":"โป่งงาม"}}]}