{"type":"FeatureCollection","features":[{"type":"Feature","geometry":{"type":"Point","coordinates":[99.826353,20.3509601]},"properties":{"id":"OSM-11566575669","type":"shelter_candidate","n":"","t":"TH570909","h":null,"k":1.0,"m":true}},{"type":"Feature","geometry":{"type":"Point","coordinates":[99.988879,20.3652724]},"properties":{"id":"OSM-13325258501","type":"school","n":"โรงเรียนสอนคนตาบอดแม่สาย","t":"TH570905","h":1.75,"k":1.0,"m":true}},{"type":"Feature","geometry":{"type":"Point","coordinates":[99.9151215,20.4103767]},"properties":{"id":"OSM-13327552901","type":"emergency_service","n":"ตำรวจหน่วยบริการประชาชนบายพาส","t":"TH570901","h":3.0,"k":1.0,"m":true}},{"type":"Feature","geometry":{"type":"Point","coordinates":[99.847065,20.3989143]},"properties":{"id":"OSM-13334892601","type":"community_facility","n":"ศูนย์ปฏิบัติการ ชรบ.อพปร.บ้านผาหมี","t":"TH570906","h":null,"k":1.0,"m":true}},{"type":"Feature","geometry":{"type":"Point","coordinates":[99.8510167,20.399391]},"properties":{"id":"OSM-13334924301","type":"community_facility","n":"ศูนย์ชุมชนบ้านผาหมี","t":"TH570906","h":null,"k":1.0,"m":true}},{"type":"Feature","geometry":{"type":"Point","coordinates":[99.8522424,20.3983491]},"properties":{"id":"OSM-13334942801","type":"healthcare","n":"โรงพยาบาลส่งเสริมสุขภาพตำบลบ้านผาหมี","t":"TH570906","h":null,"k":1.0,"m":true}},{"type":"Feature","geometry":{"type":"Point","coordinates":[99.8275992,20.350611]},"properties":{"id":"OSM-13337290901","type":"community_facility","n":"ศูนย์การเรียนรู้ชาวไทยภูเขาบ้านเผาฮี้","t":"TH570909","h":null,"k":1.0,"m":true}},{"type":"Feature","geometry":{"type":"Point","coordinates":[99.8817446,20.4416377]},"properties":{"id":"OSM-13441903001","type":"emergency_service","n":"Tourist Police","t":"TH570901","h":6.65,"k":1.0,"m":true}},{"type":"Feature","geometry":{"type":"Point","coordinates":[99.883266,20.4413221]},"properties":{"id":"OSM-13444489401","type":"healthcare","n":"พรประภาเภสัช","t":"TH570901","h":8.5,"k":1.0,"m":true}},{"type":"Feature","geometry":{"type":"Point","coordinates":[99.825304,20.3525236]},"properties":{"id":"OSM-1485439457","type":"shelter_candidate","n":"","t":"TH570909","h":null,"k":1.0,"m":true}},{"type":"Feature","geometry":{"type":"Point","coordinates":[99.8617764,20.2761526]},"properties":{"id":"OSM-2174005761","type":"school","n":"โรงเรียนบ้านห้วยไคร้","t":"TH570902","h":null,"k":1.0,"m":true}},{"type":"Feature","geometry":{"type":"Point","coordinates":[99.8646825,20.2769361]},"properties":{"id":"OSM-2174059464","type":"healthcare","n":"โรงพยาบาลส่งเสริมสุขภาพตำบล","t":"TH570902","h":null,"k":1.0,"m":true}},{"type":"Feature","geometry":{"type":"Point","coordinates":[99.881298,20.3130342]},"properties":{"id":"OSM-2174067529","type":"school","n":"โรงเรียนบ้านโป่ง","t":"TH570909","h":null,"k":1.0,"m":true}},{"type":"Feature","geometry":{"type":"Point","coordinates":[99.8812122,20.3172476]},"properties":{"id":"OSM-2174080832","type":"healthcare","n":"โรงพยาบาลส่งเสริมสุขภาพตำบล","t":"TH570909","h":null,"k":1.0,"m":true}},{"type":"Feature","geometry":{"type":"Point","coordinates":[99.8852792,20.3670577]},"properties":{"id":"OSM-2193400988","type":"healthcare","n":"โรงพยาบาลส่งเสริมสุขภาพตำบล","t":"TH570904","h":null,"k":1.0,"m":true}},{"type":"Feature","geometry":{"type":"Point","coordinates":[99.8855639,20.3868768]},"properties":{"id":"OSM-2193414929","type":"school","n":"โรงเรียนบ้านน้ำจำ","t":"TH570904","h":null,"k":1.0,"m":true}},{"type":"Feature","geometry":{"type":"Point","coordinates":[99.8831031,20.4261522]},"properties":{"id":"OSM-2193469978","type":"emergency_service","n":"","t":"TH570906","h":null,"k":1.0,"m":true}},{"type":"Feature","geometry":{"type":"Point","coordinates":[99.9528208,20.3824516]},"properties":{"id":"OSM-2207472330","type":"school","n":"โรงเรียนบ้านสันถนน","t":"TH570905","h":7.7,"k":1.0,"m":true}},{"type":"Feature","geometry":{"type":"Point","coordinates":[99.9672125,20.3666997]},"properties":{"id":"OSM-2207495991","type":"school","n":"โรงเรียนบ้านสันธาตุ","t":"TH570905","h":7.7,"k":0.624,"m":true}},{"type":"Feature","geometry":{"type":"Point","coordinates":[99.9581027,20.3696857]},"properties":{"id":"OSM-2207495993","type":"emergency_service","n":"","t":"TH570905","h":7.05,"k":1.0,"m":true}},{"type":"Feature","geometry":{"type":"Point","coordinates":[99.8518477,20.3989096]},"properties":{"id":"OSM-3218696030","type":"school","n":"","t":"TH570906","h":null,"k":1.0,"m":true}},{"type":"Feature","geometry":{"type":"Point","coordinates":[99.8754617,20.3796359]},"properties":{"id":"OSM-4526416790","type":"shelter_candidate","n":"ไร่บ่าวน้อย","t":"TH570904","h":null,"k":1.0,"m":true}},{"type":"Feature","geometry":{"type":"Point","coordinates":[99.8903617,20.4260019]},"properties":{"id":"OSM-5041556226","type":"shelter_candidate","n":"","t":"TH570901","h":5.8,"k":1.0,"m":true}},{"type":"Feature","geometry":{"type":"Point","coordinates":[99.8902351,20.4262165]},"properties":{"id":"OSM-5041556227","type":"shelter_candidate","n":"","t":"TH570901","h":5.9,"k":1.0,"m":true}},{"type":"Feature","geometry":{"type":"Point","coordinates":[99.8828083,20.3238742]},"properties":{"id":"OSM-5260253643","type":"healthcare","n":"ร้านขายยา พญานาคเภสัช","t":"TH570909","h":null,"k":1.0,"m":true}},{"type":"Feature","geometry":{"type":"Point","coordinates":[99.8629884,20.2896817]},"properties":{"id":"OSM-6304951685","type":"community_facility","n":"หมู่บ้านเก้าหลัง","t":"TH570902","h":null,"k":1.0,"m":true}},{"type":"Feature","geometry":{"type":"Point","coordinates":[99.8214954,20.3199805]},"properties":{"id":"OSM-6376938985","type":"emergency_service","n":"สถานีควบคุมไฟป่าดอยตุง","t":"TH570902","h":null,"k":1.0,"m":true}},{"type":"Feature","geometry":{"type":"Point","coordinates":[99.8580688,20.2830123]},"properties":{"id":"OSM-6382206185","type":"shelter_candidate","n":"","t":"TH570902","h":null,"k":1.0,"m":true}},{"type":"Feature","geometry":{"type":"Point","coordinates":[99.856352,20.2855914]},"properties":{"id":"OSM-6386943287","type":"shelter_candidate","n":"","t":"TH570902","h":null,"k":1.0,"m":true}},{"type":"Feature","geometry":{"type":"Point","coordinates":[99.8576435,20.2827301]},"properties":{"id":"OSM-6386943486","type":"shelter_candidate","n":"","t":"TH570902","h":null,"k":1.0,"m":true}},{"type":"Feature","geometry":{"type":"Point","coordinates":[99.8589239,20.280603]},"properties":{"id":"OSM-6387061889","type":"shelter_candidate","n":"","t":"TH570902","h":null,"k":1.0,"m":true}},{"type":"Feature","geometry":{"type":"Point","coordinates":[99.855482,20.2761171]},"properties":{"id":"OSM-6387061890","type":"shelter_candidate","n":"","t":"TH570902","h":null,"k":1.0,"m":true}},{"type":"Feature","geometry":{"type":"Point","coordinates":[99.8581652,20.2800438]},"properties":{"id":"OSM-6387066085","type":"shelter_candidate","n":"","t":"TH570902","h":null,"k":1.0,"m":true}},{"type":"Feature","geometry":{"type":"Point","coordinates":[99.8894397,20.3398211]},"properties":{"id":"OSM-6388482785","type":"shelter_candidate","n":"กระท่อมกลางนา","t":"TH570904","h":4.8,"k":0.391,"m":true}},{"type":"Feature","geometry":{"type":"Point","coordinates":[99.8766082,20.3755998]},"properties":{"id":"OSM-6388482985","type":"shelter_candidate","n":"กระท่อมในสวนปาล์ม","t":"TH570904","h":null,"k":1.0,"m":true}},{"type":"Feature","geometry":{"type":"Point","coordinates":[99.9179267,20.345502]},"properties":{"id":"OSM-6395095385","type":"shelter_candidate","n":"กนะท่อมปลายนา","t":"TH570909","h":1.95,"k":0.481,"m":true}},{"type":"Feature","geometry":{"type":"Point","coordinates":[99.9542021,20.3108643]},"properties":{"id":"OSM-6395095685","type":"shelter_candidate","n":"","t":"TH570908","h":6.85,"k":0.617,"m":true}},{"type":"Feature","geometry":{"type":"Point","coordinates":[99.9562887,20.3094549]},"properties":{"id":"OSM-6395095785","type":"shelter_candidate","n":"","t":"TH570908","h":7.15,"k":0.617,"m":true}},{"type":"Feature","geometry":{"type":"Point","coordinates":[99.8863633,20.3523059]},"properties":{"id":"OSM-7194811385","type":"shelter_candidate","n":"","t":"TH570904","h":6.7,"k":0.391,"m":true}},{"type":"Feature","geometry":{"type":"Point","coordinates":[99.8611476,20.2706547]},"properties":{"id":"OSM-7358917585","type":"emergency_service","n":"หน่วยตำรวจบริการประชาชนห้วยไคร้","t":"TH570902","h":null,"k":1.0,"m":true}},{"type":"Feature","geometry":{"type":"Point","coordinates":[99.8594557,20.2732205]},"properties":{"id":"OSM-7358917586","type":"school","n":"โรงเรียนอนุบาลมานิตวิทยา","t":"TH570902","h":null,"k":1.0,"m":true}},{"type":"Feature","geometry":{"type":"Point","coordinates":[99.8601945,20.2717048]},"properties":{"id":"OSM-7358917985","type":"school","n":"โรงเรียนมานิตวิทยา","t":"TH570902","h":null,"k":1.0,"m":true}}]}