{
  "type": "FeatureCollection",
  "features": [
    {
      "type": "Feature",
      "properties": {
        "id": "corridor_candidate_proposal",
        "status": "candidate",
        "status_note": "Candidate: open item OI-02 (the route rule) is an owner decision that has not been made. This file is not the corridor or the join log of record.",
        "generated_at_utc": "2026-10-02T17:03:03Z",
        "source_timestamp": "2026-07-10T02:46:49Z",
        "source_timestamp_note": "Retrieval time of the OpenStreetMap extract the routes were found on. AOI-02 and the boundaries are named by their SHA-256.",
        "confidence_class": "low",
        "confidence_basis": "OSM roads and hospitals are unverified map records; travel times are modelled class speeds on an undirected graph; the timing was taken on a shared machine.",
        "assumptions": [
          "The route rule is a candidate for open item OI-02; it is not an owner decision.",
          "The fastest path is found on fixed class speeds on an undirected graph that joins ways at every shared vertex coordinate. One-way rules, turn restrictions and road condition are not represented.",
          "The polygon is AOI-02 plus 3 km buffers measured in EPSG:32647. It is a routing context, not a hazard zone, an evacuation zone or a flood extent.",
          "OSM hospital ways are map records. Their operation, entrance and capacity are not verified."
        ],
        "route_rule_variant": "proposal",
        "route_rule": "For each of the three hospitals: build an undirected vehicle graph from every OSM road in the search window that lies inside Thailand, joining ways wherever they share a vertex coordinate; use the modelled class speeds; snap the hospital to the road vertex nearest to its OSM way polygon; take the fastest path from that vertex to the first road vertex inside AOI-02 (the vertex of AOI-02 with the smallest travel time); keep the segments of that path whose class is trunk or primary, links included; buffer them by 3 km in EPSG:32647; and union the three buffers with AOI-02.",
        "base": "resources/aoi/aoi-02_mae_sai_district.geojson",
        "base_sha256": "d49de53e86264c06218fd9a03cc2b5da1549085a49fae2f3cd288bf6334f5a56",
        "buffer_m": 3000,
        "osm_pbf_sha256": "b7f46018249638413b1d318bc86519f140c27af20cac7c00d42fe03775b7add1",
        "boundaries_sha256": "09e62345481bb80030ff6779e074bfb2c16629b70ae1e373ebd31945f1c6e0d8",
        "geometry_sha256": "572727719bf9244454a094c48524efe49fee33c9fe9ac5f6ff4bf06e54079417",
        "official_warning": false,
        "operational_status": "non_operational"
      },
      "geometry": {
        "type": "Polygon",
        "coordinates": [
          [
            [
              99.82402095494035,
              20.172208167338745
            ],
            [
              99.82400783462381,
              20.17269116630969
            ],
            [
              99.82401964778398,
              20.17316687129851
            ],
            [
              99.82403022740226,
              20.173304357527208
            ],
            [
              99.82402796717456,
              20.17344218966901
            ],
            [
              99.82407543833239,
              20.174775512596742
            ],
            [
              99.82408192939651,
              20.175556237493332
            ],
            [
              99.82409572993048,
              20.175784847815095
            ],
            [
              99.82408982390474,
              20.176013761284164
            ],
            [
              99.82412358862427,
              20.177302575082976
            ],
            [
              99.82415581344262,
              20.17771400436013
            ],
            [
              99.82415846443276,
              20.178126549574124
            ],
            [
              99.82425965482484,
              20.179039777145512
            ],
            [
              99.82433137934616,
              20.179955488202676
            ],
            [
              99.82440616139617,
              20.180361953711053
            ],
            [
              99.82445162760749,
              20.180772266820096
            ],
            [
              99.82448469235513,
              20.18097427332929
            ],
            [
              99.8244927629013,
              20.18101140260918
            ],
            [
              99.8244970516402,
              20.1810490888324
            ],
            [
              99.82460753616812,
              20.181711810492992
            ],
            [
              99.8248835644526,
              20.18296391040634
            ],
            [
              99.82515458544333,
              20.184216985232915
            ],
            [
              99.82531631731304,
              20.184813695357622
            ],
            [
              99.82536351924533,
              20.18498808484155
            ],
            [
              99.82560917369908,
              20.18573976496982
            ],
            [
              99.82582268560355,
              20.186500146192603
            ],
            [
              99.8260061575157,
              20.187044211864407
            ],
            [
              99.82604397918406,
              20.187185391837293
            ],
            [
              99.82635036313641,
              20.18813114387227
            ],
            [
              99.82637088447804,
              20.188194546818472
            ],
            [
              99.82637576767293,
              20.188207349309767
            ],
            [
              99.82637931225223,
              20.18822053870252
            ],
            [
              99.82638274322245,
              20.18823110114409
            ],
            [
              99.8269225970864,
              20.18989738168081
            ],
            [
              99.82711248217853,
              20.190489312501022
            ],
            [
              99.82713554214655,
              20.190550244160445
            ],
            [
              99.82715248214406,
              20.190612940830796
            ],
            [
              99.82757048440368,
              20.191893912149325
            ],
            [
              99.82760578725797,
              20.19198580616645
            ],
            [
              99.82766738014098,
              20.192209274706432
            ],
            [
              99.8278782825987,
              20.192844710565524
            ],
            [
              99.82787861457217,
              20.192845561907173
            ],
            [
              99.82787885662312,
              20.192846439854527
            ],
            [
              99.82801891013659,
              20.193268310239777
            ],
            [
              99.82838527766091,
              20.194398536799177
            ],
            [
              99.82838537093994,
              20.194398781026894
            ],
            [
              99.82838543841895,
              20.194399032709192
            ],
            [
              99.8286838959677,
              20.195319683716573
            ],
            [
              99.82868405357051,
              20.195320096330168
            ],
            [
              99.82868416759082,
              20.19532052153758
            ],
            [
              99.82882200181221,
              20.195745645094597
            ],
            [
              99.82883384248468,
              20.195776641360162
            ],
            [
              99.82884249019271,
              20.195808564338176
            ],
            [
              99.82920069869134,
              20.196903866953505
            ],
            [
              99.82920737504733,
              20.196924309007375
            ],
            [
              99.82930936826955,
              20.19718959849398
            ],
            [
              99.82934697614968,
              20.197325652811315
            ],
            [
              99.82959946158114,
              20.198084499725887
            ],
            [
              99.8298442506297,
              20.198820445311643
            ],
            [
              99.82984871679889,
              20.19883187696673
            ],
            [
              99.8298519857961,
              20.19884366408636
            ],
            [
              99.82989014545089,
              20.19895802899961
            ],
            [
              99.83029673300473,
              20.20018242636107
            ],
            [
              99.83019009715065,
              20.201632221368904
            ],
            [
              99.8301900640114,
              20.20163376693198
            ],
            [
              99.83018987074765,
              20.201635302007062
            ],
            [
              99.83015297880686,
              20.202137699370365
            ],
            [
              99.83015185655142,
              20.20219033551734
            ],
            [
              99.83014548960473,
              20.202242638076363
            ],
            [
              99.83010067119403,
              20.202889335110903
            ],
            [
              99.83009809104415,
              20.203039258010698
            ],
            [
              99.83008170237973,
              20.20318840034817
            ],
            [
              99.82998602583847,
              20.204850763581856
            ],
            [
              99.8299561897633,
              20.20508430006923
            ],
            [
              99.82994929952991,
              20.205121899374532
            ],
            [
              99.82986578335468,
              20.205763790178455
            ],
            [
              99.82984870755475,
              20.205983832546746
            ],
            [
              99.829812618059,
              20.206201818258847
            ],
            [
              99.82972248929231,
              20.207001860730312
            ],
            [
              99.82962134276623,
              20.207899602000126
            ],
            [
              99.82957775014783,
              20.20862237430182
            ],
            [
              99.82949993614073,
              20.209342580710246
            ],
            [
              99.82946548628382,
              20.20996079722333
            ],
            [
              99.82933091433492,
              20.210369590406124
            ],
            [
              99.8290647209223,
              20.211069712698187
            ],
            [
              99.82898868241305,
              20.211305502352815
            ],
            [
              99.82887259467059,
              20.21174117026289
            ],
            [
              99.82872675352907,
              20.21216879376499
            ],
            [
              99.82852907258689,
              20.21303036719606
            ],
            [
              99.82830126603514,
              20.213885286431292
            ],
            [
              99.82823097099221,
              20.214329597502537
            ],
            [
              99.82813023030957,
              20.21476865579632
            ],
            [
              99.82808948891594,
              20.21500075079605
            ],
            [
              99.82796842370051,
              20.215989049762186
            ],
            [
              99.82788501243398,
              20.216516251114403
            ],
            [
              99.82787110075833,
              20.216778258782753
            ],
            [
              99.82776820742075,
              20.217608957157815
            ],
            [
              99.82766173423053,
              20.21909994977445
            ],
            [
              99.8276609386186,
              20.219141165877957
            ],
            [
              99.82765599885559,
              20.219182124257234
            ],
            [
              99.82758520852633,
              20.220220419653778
            ],
            [
              99.82757530268894,
              20.220836287404797
            ],
            [
              99.82753101546854,
              20.22145080581618
            ],
            [
              99.82751637598699,
              20.22218436439296
            ],
            [
              99.82749420316324,
              20.222771823981773
            ],
            [
              99.82749700445305,
              20.22296803737416
            ],
            [
              99.82748241564342,
              20.223163784796395
            ],
            [
              99.82747031641249,
              20.223703786380536
            ],
            [
              99.82747182955258,
              20.22375489047635
            ],
            [
              99.8274682323151,
              20.223805901643413
            ],
            [
              99.8274320714226,
              20.225769808666147
            ],
            [
              99.82743417686252,
              20.225832461311775
            ],
            [
              99.82743007235389,
              20.225895025626798
            ],
            [
              99.82739837163388,
              20.228240266877492
            ],
            [
              99.82738746407594,
              20.228781708011976
            ],
            [
              99.82738986125806,
              20.228856920320958
            ],
            [
              99.82738487770942,
              20.228932019483963
            ],
            [
              99.82737180937384,
              20.229847923368908
            ],
            [
              99.82738236163718,
              20.23012741909208
            ],
            [
              99.82737245436816,
              20.230301837154386
            ],
            [
              99.82736735903181,
              20.231376481746814
            ],
            [
              99.82735072455665,
              20.234858631496266
            ],
            [
              99.82734805806622,
              20.23541046087596
            ],
            [
              99.82731272285325,
              20.236793472487506
            ],
            [
              99.82731813902136,
              20.23699809349723
            ],
            [
              99.82730554451771,
              20.237202432881215
            ],
            [
              99.82726934818331,
              20.240989651809354
            ],
            [
              99.8272694357208,
              20.240991712706084
            ],
            [
              99.82726930913933,
              20.2409937717953
            ],
            [
              99.82726726921766,
              20.241210872885905
            ],
            [
              99.82726755623958,
              20.241217604667586
            ],
            [
              99.82726714630509,
              20.24122433077912
            ],
            [
              99.8272638785619,
              20.241592732660962
            ],
            [
              99.82726423604151,
              20.241601014564843
            ],
            [
              99.8272637370567,
              20.24160928994852
            ],
            [
              99.82725340601958,
              20.242865696497155
            ],
            [
              99.82725481276731,
              20.24289780459836
            ],
            [
              99.82725295871114,
              20.24292989246069
            ],
            [
              99.82724589097444,
              20.24416701775407
            ],
            [
              99.82720461226154,
              20.246307469280847
            ],
            [
              99.82720685241397,
              20.24637589383323
            ],
            [
              99.82720234068334,
              20.24644421848448
            ],
            [
              99.82719818583867,
              20.24674231976363
            ],
            [
              99.8272000270116,
              20.246790655703837
            ],
            [
              99.82719702167606,
              20.246838939630514
            ],
            [
              99.82719370086804,
              20.247165785625796
            ],
            [
              99.82719100494873,
              20.2473196390232
            ],
            [
              99.82719355553205,
              20.247393562542612
            ],
            [
              99.82718884274715,
              20.247467391386632
            ],
            [
              99.82718061385133,
              20.248167994640056
            ],
            [
              99.82718726625826,
              20.24833312143355
            ],
            [
              99.82717886667717,
              20.248498177282016
            ],
            [
              99.82718023175133,
              20.249672829642723
            ],
            [
              99.82717459995517,
              20.25016024638152
            ],
            [
              99.82716401919255,
              20.25097488111328
            ],
            [
              99.82716085382012,
              20.251169653697335
            ],
            [
              99.82716122711854,
              20.25118008791125
            ],
            [
              99.82716052342336,
              20.251190506927053
            ],
            [
              99.82713147709448,
              20.253072214544726
            ],
            [
              99.82714006374492,
              20.25330686481233
            ],
            [
              99.82712853791885,
              20.253541402860826
            ],
            [
              99.8271305893792,
              20.25424721371976
            ],
            [
              99.82711630925901,
              20.256060167192228
            ],
            [
              99.82714765413762,
              20.25676990214521
            ],
            [
              99.82714455557888,
              20.257480247193058
            ],
            [
              99.8271550346624,
              20.2577
            ],
            [
              99.8107,
              20.2577
            ],
            [
              99.8107,
              20.4651
            ],
            [
              100.0368,
              20.4651
            ],
            [
              100.0368,
              20.309697731606278
            ],
            [
              100.03914199043757,
              20.309611345243255
            ],
            [
              100.04136709109666,
              20.309321374094846
            ],
            [
              100.04136884981381,
              20.309321452699944
            ],
            [
              100.04266667486633,
              20.309259155600774
            ],
            [
              100.04381362624444,
              20.30921242786821
            ],
            [
              100.04386955585701,
              20.309210785794477
            ],
            [
              100.04387732972216,
              20.30920983231585
            ],
            [
              100.0439649677542,
              20.309206261529337
            ],
            [
              100.04407439920995,
              20.309191572291493
            ],
            [
              100.04418478997819,
              20.309186272070818
            ],
            [
              100.04443433233595,
              20.309162666183504
            ],
            [
              100.04554842459754,
              20.30900486126243
            ],
            [
              100.04666559880147,
              20.308867823161645
            ],
            [
              100.04718598350186,
              20.308779304491804
            ],
            [
              100.04724089827167,
              20.308767311951776
            ],
            [
              100.04729676569337,
              20.308760248425184
            ],
            [
              100.04861423446053,
              20.308467390329383
            ],
            [
              100.04993290442683,
              20.308179396085016
            ],
            [
              100.04998630821743,
              20.308162382568202
            ],
            [
              100.05004117226453,
              20.30815018621365
            ],
            [
              100.05049453972639,
              20.308026962922213
            ],
            [
              100.05068559558856,
              20.307965306986397
            ],
            [
              100.05088146746645,
              20.30791901497278
            ],
            [
              100.05196248211992,
              20.30755407627902
            ],
            [
              100.0521991855007,
              20.30748940367525
            ],
            [
              100.05243103200432,
              20.30740202270475
            ],
            [
              100.05316231259353,
              20.307166018766427
            ],
            [
              100.05334604005917,
              20.30708699020987
            ],
            [
              100.05353615682058,
              20.30702280615615
            ],
            [
              100.05385809768232,
              20.30689698440203
            ],
            [
              100.05433134311443,
              20.306685796591548
            ],
            [
              100.05481749917406,
              20.306502560353774
            ],
            [
              100.05560500281459,
              20.306117411412878
            ],
            [
              100.05640684843006,
              20.30575957188058
            ],
            [
              100.0568558655752,
              20.305505633745657
            ],
            [
              100.05732063549299,
              20.30527831850932
            ],
            [
              100.05769616972606,
              20.30507198639114
            ],
            [
              100.05821963002602,
              20.304750929365753
            ],
            [
              100.05876091878395,
              20.304457363319596
            ],
            [
              100.05905594156941,
              20.304278636496775
            ],
            [
              100.05921265892904,
              20.304173103051887
            ],
            [
              100.05937828584771,
              20.30408046878196
            ],
            [
              100.05988510327519,
              20.30372941588398
            ],
            [
              100.06006000773823,
              20.303622137043735
            ],
            [
              100.06028399387073,
              20.303453117642547
            ],
            [
              100.06035975131856,
              20.303400642770427
            ],
            [
              100.061350769713,
              20.302733271870615
            ],
            [
              100.06149576477765,
              20.302613752914443
            ],
            [
              100.06165096672466,
              20.302506247004114
            ],
            [
              100.06195947770125,
              20.302269715008286
            ],
            [
              100.06294610542994,
              20.301434184092393
            ],
            [
              100.06393788501443,
              20.300604105943638
            ],
            [
              100.06428928283307,
              20.300279566230568
            ],
            [
              100.06522436998856,
              20.29932677814926
            ],
            [
              100.06616179196813,
              20.29837603982377
            ],
            [
              100.06618206277285,
              20.298350939728664
            ],
            [
              100.06620478662418,
              20.29832778511665
            ],
            [
              100.06703636101183,
              20.297293105388363
            ],
            [
              100.06723212085264,
              20.297050703341018
            ],
            [
              100.06736235306214,
              20.29690436096763
            ],
            [
              100.06745802099138,
              20.29677250039763
            ],
            [
              100.06789399711369,
              20.296752931622176
            ],
            [
              100.06825165785027,
              20.296720223312796
            ],
            [
              100.0684127896178,
              20.296697912817812
            ],
            [
              100.06857536519809,
              20.29668887253719
            ],
            [
              100.06958314152693,
              20.296538309763893
            ],
            [
              100.06988118533283,
              20.29651148454444
            ],
            [
              100.07024692001721,
              20.296443946120206
            ],
            [
              100.07104110698414,
              20.29633397118271
            ],
            [
              100.07119914383246,
              20.296296864799967
            ],
            [
              100.0713599963936,
              20.29627283116045
            ],
            [
              100.07163323993137,
              20.296218920150068
            ],
            [
              100.07181988717072,
              20.29617297121703
            ],
            [
              100.0720259620856,
              20.296199790361452
            ],
            [
              100.07249396648484,
              20.29629021970281
            ],
            [
              100.07342164881337,
              20.296381422116397
            ],
            [
              100.07434560705538,
              20.296501657712646
            ],
            [
              100.07482296481285,
              20.29651917888389
            ],
            [
              100.07529811169627,
              20.29656588571748
            ],
            [
              100.0762308027115,
              20.296570845231113
            ],
            [
              100.07716280384598,
              20.29660504254899
            ],
            [
              100.07721471285981,
              20.296604542055054
            ],
            [
              100.07767893703229,
              20.29657853572227
            ],
            [
              100.07811739370864,
              20.29658086183512
            ],
            [
              100.07896979244555,
              20.29650621412662
            ],
            [
              100.08002907898633,
              20.29644685928964
            ],
            [
              100.08056585909107,
              20.29636642936195
            ],
            [
              100.08092464717124,
              20.296335004391818
            ],
            [
              100.08161540253639,
              20.29620916316348
            ],
            [
              100.08281349664401,
              20.29602962974022
            ],
            [
              100.08341463403757,
              20.295881367051845
            ],
            [
              100.083692822948,
              20.295830682963445
            ],
            [
              100.08422306665388,
              20.295681974043234
            ],
            [
              100.08554113715758,
              20.295356874193832
            ],
            [
              100.08619568209949,
              20.29512872993149
            ],
            [
              100.08639524914503,
              20.295072757474586
            ],
            [
              100.0867716570774,
              20.29492796900384
            ],
            [
              100.08818571988202,
              20.29443507541932
            ],
            [
              100.0888802643604,
              20.294116855868808
            ],
            [
              100.08900588847067,
              20.29406853127778
            ],
            [
              100.08924017580951,
              20.293951953616443
            ],
            [
              100.09072176576079,
              20.293273115589386
            ],
            [
              100.09144083474696,
              20.292856917261155
            ],
            [
              100.09149958942973,
              20.29282768065931
            ],
            [
              100.09160782043978,
              20.292760264937506
            ],
            [
              100.09312484309882,
              20.29188219055723
            ],
            [
              100.09385137036939,
              20.29136275854645
            ],
            [
              100.09385232891601,
              20.291362161456863
            ],
            [
              100.09385407027831,
              20.291360828229777
            ],
            [
              100.09537180316796,
              20.29027570182034
            ],
            [
              100.09744100336395,
              20.28846912722036
            ],
            [
              100.0993125157569,
              20.286479871633244
            ],
            [
              100.10096831902285,
              20.284327099097354
            ],
            [
              100.10239247190677,
              20.28203154800615
            ],
            [
              100.10357126655074,
              20.279615331154552
            ],
            [
              100.10449336021794,
              20.27710172257381
            ],
            [
              100.10514988415525,
              20.27451493321552
            ],
            [
              100.10553452856055,
              20.271879877651887
            ],
            [
              100.10564360285355,
              20.269221934044165
            ],
            [
              100.10547607068894,
              20.26656669969424
            ],
            [
              100.10503355939494,
              20.26393974453528
            ],
            [
              100.1043203437673,
              20.261366364934887
            ],
            [
              100.10334330439522,
              20.258871340179795
            ],
            [
              100.10211186093996,
              20.256478693983176
            ],
            [
              100.10180396843457,
              20.256005109990515
            ],
            [
              100.10175132349231,
              20.255902541591354
            ],
            [
              100.10165230558869,
              20.255731556469783
            ],
            [
              100.10140802578498,
              20.25535491236647
            ],
            [
              100.10124425071834,
              20.25506284869993
            ],
            [
              100.10105920229326,
              20.25479912884245
            ],
            [
              100.100759091571,
              20.254295756394896
            ],
            [
              100.1004564381771,
              20.253887680315945
            ],
            [
              100.10018090607437,
              20.25346283697185
            ],
            [
              100.09970483562054,
              20.25286864449023
            ],
            [
              100.09944973284696,
              20.252504862110346
            ],
            [
              100.09931445751776,
              20.252347890606178
            ],
            [
              100.09914289686927,
              20.25211656336624
            ],
            [
              100.09899898864201,
              20.251941482139102
            ],
            [
              100.09868615808402,
              20.251597193469742
            ],
            [
              100.09848100514684,
              20.251341130746077
            ],
            [
              100.09819456948536,
              20.251048372147785
            ],
            [
              100.09767136904205,
              20.250441239873375
            ],
            [
              100.09743486543108,
              20.250192768502163
            ],
            [
              100.09725105781693,
              20.250017752369917
            ],
            [
              100.0971642953758,
              20.249922261995952
            ],
            [
              100.09706665554936,
              20.24983401198589
            ],
            [
              100.09683812423859,
              20.249584784370786
            ],
            [
              100.09613407714222,
              20.248954183596137
            ],
            [
              100.09545079225984,
              20.24830356104296
            ],
            [
              100.09511244327406,
              20.248039112154213
            ],
            [
              100.09479379514588,
              20.24775369736353
            ],
            [
              100.09427901844153,
              20.247335950593182
            ],
            [
              100.09358474684241,
              20.24682625621319
            ],
            [
              100.09291088865473,
              20.24629271903885
            ],
            [
              100.09269580346745,
              20.246138739389995
            ],
            [
              100.09231707624744,
              20.245894276517063
            ],
            [
              100.09195632556671,
              20.24562669032599
            ],
            [
              100.09115452672437,
              20.245143857649563
            ],
            [
              100.0903694774069,
              20.244637104254682
            ],
            [
              100.0899671917427,
              20.244428847642396
            ],
            [
              100.08958039480059,
              20.24419591630247
            ],
            [
              100.08941231327407,
              20.244105328942982
            ],
            [
              100.0885499820121,
              20.243692146149893
            ],
            [
              100.08817296449175,
              20.243485474817184
            ],
            [
              100.08800637003829,
              20.243413741100124
            ],
            [
              100.08789844087465,
              20.24335786572459
            ],
            [
              100.08764173641032,
              20.24325441933951
            ],
            [
              100.08699859796076,
              20.242943351785566
            ],
            [
              100.08681272264087,
              20.24286406304493
            ],
            [
              100.08620406651032,
              20.242637674630505
            ],
            [
              100.08560887254204,
              20.24238138001594
            ],
            [
              100.08489382153871,
              20.24215032209717
            ],
            [
              100.0841906613229,
              20.241888772553942
            ],
            [
              100.08356143102027,
              20.241719770490036
            ],
            [
              100.08294249250545,
              20.241519761014274
            ],
            [
              100.08275222248487,
              20.24146796818056
            ],
            [
              100.0821260191693,
              20.24132852016882
            ],
            [
              100.08150859218134,
              20.241157734931463
            ],
            [
              100.08075533943243,
              20.24102327736282
            ],
            [
              100.08000922304464,
              20.24085711630297
            ],
            [
              100.07967150380726,
              20.240814293386503
            ],
            [
              100.0795037466608,
              20.240778819325513
            ],
            [
              100.0791675054191,
              20.240739833414082
            ],
            [
              100.07873936955465,
              20.24066340430107
            ],
            [
              100.07855380127567,
              20.240639106986947
            ],
            [
              100.07777232571655,
              20.240573464315634
            ],
            [
              100.07721600610834,
              20.24050291503543
            ],
            [
              100.07708714971086,
              20.240498609116415
            ],
            [
              100.07670646362111,
              20.240454464505817
            ],
            [
              100.07655468994275,
              20.240443965107822
            ],
            [
              100.0761106026862,
              20.240433870486456
            ],
            [
              100.07574658491149,
              20.240403288856577
            ],
            [
              100.07505683528798,
              20.24040940390849
            ],
            [
              100.07439793138526,
              20.240392077564422
            ],
            [
              100.07396712496478,
              20.240376545948333
            ],
            [
              100.07391649391316,
              20.240379416256246
            ],
            [
              100.07384527564469,
              20.24037754317684
            ],
            [
              100.07367070586831,
              20.240381041210235
            ],
            [
              100.07299644024087,
              20.240425860742903
            ],
            [
              100.07270350162361,
              20.240425721997276
            ],
            [
              100.07207617510596,
              20.240483735188004
            ],
            [
              100.07115387763568,
              20.240536008556294
            ],
            [
              100.0709720083157,
              20.240554803968486
            ],
            [
              100.07090529225863,
              20.240564846157362
            ],
            [
              100.07085935158177,
              20.24056789926264
            ],
            [
              100.07047344806449,
              20.24062984727443
            ],
            [
              100.07043739893278,
              20.24063527333364
            ],
            [
              100.0698986127131,
              20.240685091670894
            ],
            [
              100.06904661477444,
              20.240844606098527
            ],
            [
              100.06818885222535,
              20.24097370580563
            ],
            [
              100.06771483208583,
              20.24109095262672
            ],
            [
              100.06736698333405,
              20.241150926843456
            ],
            [
              100.0672690146301,
              20.241177401185713
            ],
            [
              100.06713414793732,
              20.241202649594435
            ],
            [
              100.06694467709312,
              20.241247340849903
            ],
            [
              100.0660567785678,
              20.241501053619196
            ],
            [
              100.06546257821017,
              20.241648018139184
            ],
            [
              100.06538889760525,
              20.24167375491888
            ],
            [
              100.06518985348815,
              20.241722196692884
            ],
            [
              100.06496217931863,
              20.241800765204953
            ],
            [
              100.06465750966058,
              20.241883091880688
            ],
            [
              100.06446663638103,
              20.24194438073444
            ],
            [
              100.06434120244029,
              20.241991256430662
            ],
            [
              100.06424724518186,
              20.242018102887315
            ],
            [
              100.0641960345998,
              20.242038091674615
            ],
            [
              100.0641794137775,
              20.24203935792978
            ],
            [
              100.06343258157713,
              20.242166688957298
            ],
            [
              100.06317149669563,
              20.242193637323656
            ],
            [
              100.06308049749849,
              20.24221168323976
            ],
            [
              100.06266835413656,
              20.242264045495972
            ],
            [
              100.06204065200549,
              20.242403996780578
            ],
            [
              100.06140594379661,
              20.24251220328174
            ],
            [
              100.0612048752268,
              20.24255619452875
            ],
            [
              100.06081252632478,
              20.24266142479653
            ],
            [
              100.06052610136359,
              20.242718220979523
            ],
            [
              100.05923197123148,
              20.24273253605922
            ],
            [
              100.05751467613447,
              20.242749981392855
            ],
            [
              100.05751089110872,
              20.24275019543449
            ],
            [
              100.05750710204171,
              20.24275005924069
            ],
            [
              100.05735342869049,
              20.24275165777987
            ],
            [
              100.05695405529355,
              20.242774341129458
            ],
            [
              100.05655398021543,
              20.242770480480107
            ],
            [
              100.05625433193302,
              20.242781476295225
            ],
            [
              100.05523417784444,
              20.242866370330084
            ],
            [
              100.05482685569356,
              20.242878418832497
            ],
            [
              100.05457392745356,
              20.242909507135025
            ],
            [
              100.05454014455871,
              20.242911425411485
            ],
            [
              100.05445954630393,
              20.24292356600265
            ],
            [
              100.0543321475827,
              20.24293922480166
            ],
            [
              100.05356141580053,
              20.243000404492566
            ],
            [
              100.05332545516866,
              20.243030197682657
            ],
            [
              100.05268143662475,
              20.243142107963273
            ],
            [
              100.05203207521105,
              20.243221914346822
            ],
            [
              100.05129636863556,
              20.243382780972716
            ],
            [
              100.05055365693703,
              20.24351183171278
            ],
            [
              100.04992435627673,
              20.243682770607336
            ],
            [
              100.04928640465846,
              20.243822254315976
            ],
            [
              100.04909133374072,
              20.243874544406825
            ],
            [
              100.04904703499902,
              20.243888669985864
            ],
            [
              100.04900151712266,
              20.243898769327892
            ],
            [
              100.04831727121366,
              20.244119296310586
            ],
            [
              100.04784519983829,
              20.24424751983243
            ],
            [
              100.04741259794847,
              20.244409834892288
            ],
            [
              100.04642120100074,
              20.244725947763172
            ],
            [
              100.046378582002,
              20.244744102686614
            ],
            [
              100.04633433165124,
              20.24475836351334
            ],
            [
              100.0453511068928,
              20.245180833638138
            ],
            [
              100.04493198189142,
              20.245336402527993
            ],
            [
              100.04451135356227,
              20.245539494179102
            ],
            [
              100.04385231194158,
              20.2458202224535
            ],
            [
              100.04381178297501,
              20.245842231966105
            ],
            [
              100.04376922613442,
              20.245860517014176
            ],
            [
              100.04357394678755,
              20.245955601620686
            ],
            [
              100.04300662829802,
              20.24626600714362
            ],
            [
              100.0425187812053,
              20.24650154581601
            ],
            [
              100.0422461598316,
              20.246572519563266
            ],
            [
              100.04194420269503,
              20.24666640239353
            ],
            [
              100.04187663785387,
              20.246690938923788
            ],
            [
              100.04180694789383,
              20.246709438554596
            ],
            [
              100.04056298938023,
              20.247167982953666
            ],
            [
              100.0401994773777,
              20.24729135048674
            ],
            [
              100.040097814144,
              20.247336916215687
            ],
            [
              100.03931374861325,
              20.24762164117141
            ],
            [
              100.03924905643515,
              20.247652308795
            ],
            [
              100.03918162247695,
              20.24767716513155
            ],
            [
              100.03812405572694,
              20.248184814386754
            ],
            [
              100.03792890808191,
              20.248264391648227
            ],
            [
              100.03764835149498,
              20.248411119062286
            ],
            [
              100.036795130262,
              20.24881557766957
            ],
            [
              100.03673393355143,
              20.24885208118279
            ],
            [
              100.03666940477898,
              20.248883054972588
            ],
            [
              100.03633973556134,
              20.24906102714568
            ],
            [
              100.03590985788755,
              20.24932031253704
            ],
            [
              100.0354636178142,
              20.24955368175773
            ],
            [
              100.03472305552478,
              20.250036135530404
            ],
            [
              100.03469488894444,
              20.250053124104117
            ],
            [
              100.03451449113288,
              20.250154249649423
            ],
            [
              100.03443007417071,
              20.250212845807827
            ],
            [
              100.03396480598565,
              20.25049346825559
            ],
            [
              100.03356391877756,
              20.25079126579241
            ],
            [
              100.03314405651491,
              20.251064785294318
            ],
            [
              100.03291966712726,
              20.25122686277144
            ],
            [
              100.03259090297813,
              20.251489445051778
            ],
            [
              100.03224394138712,
              20.25173027243927
            ],
            [
              100.03185110080588,
              20.252063603483382
            ],
            [
              100.03175003665378,
              20.252138676123987
            ],
            [
              100.03156426367796,
              20.252306987608343
            ],
            [
              100.03151570393416,
              20.252348190909974
            ],
            [
              100.03076816430712,
              20.252945230711255
            ],
            [
              100.0304682475424,
              20.25323695703468
            ],
            [
              100.03014796156843,
              20.25350871629972
            ],
            [
              100.02989355917212,
              20.253746887426296
            ],
            [
              100.02974679879718,
              20.25389847552913
            ],
            [
              100.02958722124487,
              20.254038053570515
            ],
            [
              100.0289810131428,
              20.254683553394795
            ],
            [
              100.02880544306947,
              20.254854323555875
            ],
            [
              100.02869792090465,
              20.25498184475955
            ],
            [
              100.02799232777213,
              20.255710628968878
            ],
            [
              100.02786201458423,
              20.255875061481788
            ],
            [
              100.02771769851746,
              20.256028727231865
            ],
            [
              100.02744297852297,
              20.25635189344715
            ],
            [
              100.02687364792598,
              20.25709342229308
            ],
            [
              100.02681732449247,
              20.257162245850708
            ],
            [
              100.02588752624767,
              20.257466252890886
            ],
            [
              100.02534984140031,
              20.2577
            ],
            [
              99.88470292387407,
              20.2577
            ],
            [
              99.88462740847214,
              20.256034858998312
            ],
            [
              99.88456882439185,
              20.25543467990268
            ],
            [
              99.88457483779908,
              20.25463383479221
            ],
            [
              99.88457472576884,
              20.25463131905281
            ],
            [
              99.88457487507246,
              20.254628805038212
            ],
            [
              99.88457585052431,
              20.254495405778503
            ],
            [
              99.88456979334812,
              20.254359985076437
            ],
            [
              99.88457639726447,
              20.254224587137607
            ],
            [
              99.88457441071768,
              20.253617896048002
            ],
            [
              99.88459907257871,
              20.25198121093279
            ],
            [
              99.88460266343928,
              20.25175513838919
            ],
            [
              99.88460115419002,
              20.251713382812742
            ],
            [
              99.88460385287814,
              20.251671680650162
            ],
            [
              99.88461489190962,
              20.250796984756906
            ],
            [
              99.884614168752,
              20.250778635764497
            ],
            [
              99.88461532850464,
              20.250760306734712
            ],
            [
              99.88462280551406,
              20.250091910027397
            ],
            [
              99.88461616047574,
              20.24992922812783
            ],
            [
              99.88462437608024,
              20.249766610129974
            ],
            [
              99.88462258275575,
              20.248594413532363
            ],
            [
              99.8846278350349,
              20.2481327799487
            ],
            [
              99.88463082212779,
              20.24795865376631
            ],
            [
              99.88462753705211,
              20.247864448159238
            ],
            [
              99.88463335918901,
              20.247770351844743
            ],
            [
              99.88463700866699,
              20.24739766444003
            ],
            [
              99.88463947041885,
              20.247216251023474
            ],
            [
              99.88468195123684,
              20.24497063095526
            ],
            [
              99.88467620219325,
              20.24479697818073
            ],
            [
              99.8846861622345,
              20.24462349514399
            ],
            [
              99.88469353125528,
              20.243244901284786
            ],
            [
              99.88470308306218,
              20.24202888411516
            ],
            [
              99.88470608771857,
              20.241675493517164
            ],
            [
              99.88470796844582,
              20.241467183495008
            ],
            [
              99.8847408737461,
              20.237886567004068
            ],
            [
              99.88477722214893,
              20.236443125014986
            ],
            [
              99.8847701084266,
              20.236178051974637
            ],
            [
              99.88478507547424,
              20.235913270475063
            ],
            [
              99.8847887252352,
              20.23509577538917
            ],
            [
              99.88478869151189,
              20.235095066544098
            ],
            [
              99.88478873152413,
              20.235094357990484
            ],
            [
              99.88480409145309,
              20.231611078960736
            ],
            [
              99.88480406946246,
              20.231610617250286
            ],
            [
              99.88480409550787,
              20.23161015572778
            ],
            [
              99.88480879798126,
              20.23053506220656
            ],
            [
              99.88480508208146,
              20.230457102131922
            ],
            [
              99.88481521943986,
              20.229727836121548
            ],
            [
              99.88482611798202,
              20.229176790180873
            ],
            [
              99.88482338322336,
              20.22909196512942
            ],
            [
              99.88482890903023,
              20.229007261240767
            ],
            [
              99.88486003915926,
              20.22663988255217
            ],
            [
              99.88488533313502,
              20.22523819076561
            ],
            [
              99.88491980636906,
              20.225140938215674
            ],
            [
              99.88502090005075,
              20.224801165914357
            ],
            [
              99.88514767957138,
              20.224469156541424
            ],
            [
              99.88538687170981,
              20.223576633294403
            ],
            [
              99.88539858536356,
              20.223540305531944
            ],
            [
              99.88540485754048,
              20.223510685246374
            ],
            [
              99.88542426580983,
              20.223445453526413
            ],
            [
              99.88543825003359,
              20.22340568378333
            ],
            [
              99.8854471226196,
              20.223368631100705
            ],
            [
              99.88568178710979,
              20.222579912441994
            ],
            [
              99.88574710901833,
              20.22223242283333
            ],
            [
              99.88583879893,
              20.221890282228376
            ],
            [
              99.88591375348803,
              20.221538865137017
            ],
            [
              99.8859139293454,
              20.22153821042875
            ],
            [
              99.8859212233642,
              20.221504109496195
            ],
            [
              99.8859771375191,
              20.221155213269068
            ],
            [
              99.88605955283036,
              20.220811029869832
            ],
            [
              99.88616671026142,
              20.220000258134498
            ],
            [
              99.88617414283115,
              20.219960718359232
            ],
            [
              99.8861777731107,
              20.219916554285994
            ],
            [
              99.8861877933245,
              20.219840739171307
            ],
            [
              99.88626173824807,
              20.2193793245695
            ],
            [
              99.88632976422839,
              20.218960339696487
            ],
            [
              99.88633025266229,
              20.218951794066964
            ],
            [
              99.88634273145942,
              20.21887392604827
            ],
            [
              99.88636214631752,
              20.218521536481568
            ],
            [
              99.88640842380845,
              20.218171385064462
            ],
            [
              99.8864788194471,
              20.21728737089276
            ],
            [
              99.88652085533245,
              20.216847322309963
            ],
            [
              99.88652666884195,
              20.216713030788956
            ],
            [
              99.88654500070041,
              20.21657974583122
            ],
            [
              99.88655088802673,
              20.216510445351393
            ],
            [
              99.88655432397668,
              20.216405630748174
            ],
            [
              99.88656777495368,
              20.216301537514585
            ],
            [
              99.8865943328105,
              20.2159553597681
            ],
            [
              99.88671686186673,
              20.21435987502408
            ],
            [
              99.88672088811683,
              20.214196647338
            ],
            [
              99.88673977576141,
              20.21403435182906
            ],
            [
              99.88679521692222,
              20.21316794875303
            ],
            [
              99.88679652958183,
              20.213057755668327
            ],
            [
              99.88680833467467,
              20.212948120514774
            ],
            [
              99.88681076922052,
              20.21290414202692
            ],
            [
              99.88683075149768,
              20.212726207189476
            ],
            [
              99.88683076043593,
              20.212726058086712
            ],
            [
              99.88683078481124,
              20.21272591052869
            ],
            [
              99.88689602305502,
              20.21214492461434
            ],
            [
              99.88695091669095,
              20.211721831751035
            ],
            [
              99.88695381501195,
              20.211684306750342
            ],
            [
              99.8869677737612,
              20.21160697298463
            ],
            [
              99.88705065587304,
              20.210956364065602
            ],
            [
              99.88705074444162,
              20.21095518168938
            ],
            [
              99.88705095524418,
              20.2109540131843
            ],
            [
              99.88711576299649,
              20.21044490621336
            ],
            [
              99.88718217137165,
              20.209557253177927
            ],
            [
              99.88727911245988,
              20.20867210721527
            ],
            [
              99.88741649029843,
              20.206269883833627
            ],
            [
              99.88744714930405,
              20.2058251421827
            ],
            [
              99.88747991157042,
              20.205376743043995
            ],
            [
              99.88762724799543,
              20.20336354831935
            ],
            [
              99.88767908973895,
              20.202694260104288
            ],
            [
              99.88768361893392,
              20.20266026236568
            ],
            [
              99.88772123369239,
              20.202194059466034
            ],
            [
              99.88772128349405,
              20.20219231435932
            ],
            [
              99.88772151400761,
              20.202190582236064
            ],
            [
              99.88773207202182,
              20.202059501582237
            ],
            [
              99.88774067865958,
              20.202001193322914
            ],
            [
              99.88774718728938,
              20.201932621982056
            ],
            [
              99.88791548517248,
              20.20016073613802
            ],
            [
              99.88795716349095,
              20.199185926327665
            ],
            [
              99.88802585914166,
              20.19821248061848
            ],
            [
              99.88803486964389,
              20.197724682466607
            ],
            [
              99.8880281744866,
              20.19752504318389
            ],
            [
              99.8880291260128,
              20.197502787720932
            ],
            [
              99.88802537920627,
              20.197441691980885
            ],
            [
              99.88799416355975,
              20.19651087683257
            ],
            [
              99.88796444306374,
              20.19529678700774
            ],
            [
              99.88794959094879,
              20.19518174075658
            ],
            [
              99.88794570632547,
              20.19506590121062
            ],
            [
              99.88777918045874,
              20.193861706514987
            ],
            [
              99.88776844077395,
              20.19377851385636
            ],
            [
              99.88776709102899,
              20.19375683117254
            ],
            [
              99.88776077532131,
              20.193719135012127
            ],
            [
              99.88762355953935,
              20.192656212324113
            ],
            [
              99.88751805946036,
              20.192077232750165
            ],
            [
              99.88740676315372,
              20.19160613187572
            ],
            [
              99.88732689006964,
              20.19112938191906
            ],
            [
              99.88710025131844,
              20.190308695912766
            ],
            [
              99.88690469557332,
              20.189480914058493
            ],
            [
              99.88674503067683,
              20.189022380069318
            ],
            [
              99.88661605103188,
              20.188555316424406
            ],
            [
              99.88467435548846,
              20.18271434754922
            ],
            [
              99.88466753250775,
              20.182696873570034
            ],
            [
              99.88466253021775,
              20.182678858766323
            ],
            [
              99.88462228666236,
              20.182558372711036
            ],
            [
              99.8843807393604,
              20.18183292424661
            ],
            [
              99.88438027892086,
              20.18183174674719
            ],
            [
              99.88437994281857,
              20.181830532335557
            ],
            [
              99.8841268264041,
              20.181070575467896
            ],
            [
              99.88407835561135,
              20.180946653179692
            ],
            [
              99.88407706950021,
              20.180941903984486
            ],
            [
              99.88406876558523,
              20.180916505405065
            ],
            [
              99.88406688633779,
              20.18091162184442
            ],
            [
              99.88406552106952,
              20.18090658837598
            ],
            [
              99.88371564592644,
              20.179837894333577
            ],
            [
              99.88358802964503,
              20.1794447046715
            ],
            [
              99.8832895038273,
              20.17852482269296
            ],
            [
              99.88289449617062,
              20.177307538284513
            ],
            [
              99.88286158150966,
              20.177221437369855
            ],
            [
              99.88283712995732,
              20.17713285860884
            ],
            [
              99.88266823924025,
              20.17662465197075
            ],
            [
              99.88247339622862,
              20.17603821079552
            ],
            [
              99.88244236314324,
              20.175923501139287
            ],
            [
              99.88222916940619,
              20.17527086000527
            ],
            [
              99.8824054012292,
              20.174993529096422
            ],
            [
              99.88287837005542,
              20.174309389174446
            ],
            [
              99.88313632379035,
              20.173892955082067
            ],
            [
              99.8832458305742,
              20.173694413226936
            ],
            [
              99.88337212609153,
              20.17350496849947
            ],
            [
              99.88389625895495,
              20.172515139247587
            ],
            [
              99.88443761296826,
              20.171533610212336
            ],
            [
              99.88452173421332,
              20.171335868176705
            ],
            [
              99.88452684628498,
              20.171324251902355
            ],
            [
              99.88463199803982,
              20.17112566704205
            ],
            [
              99.88479814785245,
              20.170769144445416
            ],
            [
              99.88511237236693,
              20.169993736108935
            ],
            [
              99.88557907103578,
              20.168933220098253
            ],
            [
              99.88577207574279,
              20.16842567788425
            ],
            [
              99.88592430779751,
              20.168074869314353
            ],
            [
              99.88611765788184,
              20.167631884989294
            ],
            [
              99.88643463588791,
              20.166906597129714
            ],
            [
              99.88652134536294,
              20.16667681672389
            ],
            [
              99.88662726889861,
              20.166454333446175
            ],
            [
              99.88672523363029,
              20.166218220088854
            ],
            [
              99.88675865339415,
              20.166124351196636
            ],
            [
              99.88680095660985,
              20.16603373347253
            ],
            [
              99.88707844435898,
              20.16523507134683
            ],
            [
              99.88722623204298,
              20.164882208155564
            ],
            [
              99.88733854984523,
              20.16451118867537
            ],
            [
              99.88738020522865,
              20.16440079844942
            ],
            [
              99.88740288350931,
              20.164314826130575
            ],
            [
              99.88762292183826,
              20.16369676898196
            ],
            [
              99.88764643604114,
              20.16360025882404
            ],
            [
              99.88767912827055,
              20.16350616193163
            ],
            [
              99.88772800022126,
              20.163338055394316
            ],
            [
              99.88784825458846,
              20.162827459135116
            ],
            [
              99.88800050025931,
              20.16232453265298
            ],
            [
              99.88804806723567,
              20.162132126429704
            ],
            [
              99.88817545767091,
              20.16147201242902
            ],
            [
              99.888336710659,
              20.16081853351737
            ],
            [
              99.88842782260332,
              20.160164288417533
            ],
            [
              99.88855310146207,
              20.159515101409507
            ],
            [
              99.88859856092941,
              20.158993262209904
            ],
            [
              99.88865469162225,
              20.158653670256808
            ],
            [
              99.88866720534493,
              20.158445336736882
            ],
            [
              99.88870400040042,
              20.158181117136866
            ],
            [
              99.88871936809738,
              20.15800381587047
            ],
            [
              99.88874207970629,
              20.15734576119302
            ],
            [
              99.88878405283974,
              20.156863932250452
            ],
            [
              99.88877922014876,
              20.15658045274987
            ],
            [
              99.88881421612808,
              20.155997814488494
            ],
            [
              99.88881656260124,
              20.155705216091636
            ],
            [
              99.88880655337105,
              20.155477665118873
            ],
            [
              99.88881112847814,
              20.155345102733918
            ],
            [
              99.88878282435886,
              20.15493820313866
            ],
            [
              99.88875863636774,
              20.15438830091534
            ],
            [
              99.88870194899795,
              20.153071337469925
            ],
            [
              99.88868261259331,
              20.152868341911095
            ],
            [
              99.88852716590223,
              20.15181752556758
            ],
            [
              99.88849417039332,
              20.15144872067335
            ],
            [
              99.88840614265766,
              20.150998186351284
            ],
            [
              99.88829448987694,
              20.150241748562028
            ],
            [
              99.88824554836998,
              20.14999825782256
            ],
            [
              99.88815795116633,
              20.149655278574865
            ],
            [
              99.8881374829995,
              20.14952487733219
            ],
            [
              99.8880645012623,
              20.14924960534488
            ],
            [
              99.88798305671278,
              20.148832751215842
            ],
            [
              99.88792241669627,
              20.14858986217816
            ],
            [
              99.88769836893024,
              20.147855796593163
            ],
            [
              99.88758509898355,
              20.147412284011285
            ],
            [
              99.88755759806557,
              20.14733764159163
            ],
            [
              99.88745334352963,
              20.146944402437022
            ],
            [
              99.88728264851918,
              20.146493718161775
            ],
            [
              99.88714227715676,
              20.146033795348888
            ],
            [
              99.88680858956101,
              20.14524204977958
            ],
            [
              99.88663931403758,
              20.144795102371866
            ],
            [
              99.88715964065993,
              20.14350452666645
            ],
            [
              99.88789907745901,
              20.140937696657158
            ],
            [
              99.8883685371213,
              20.138314775912946
            ],
            [
              99.88856351188078,
              20.135661026228718
            ],
            [
              99.88848213794321,
              20.133002005038268
            ],
            [
              99.88812521290019,
              20.13036331926882
            ],
            [
              99.88749618751338,
              20.127770378767778
            ],
            [
              99.88660113196802,
              20.125248151675102
            ],
            [
              99.88544867694118,
              20.1228209240937
            ],
            [
              99.88404993006942,
              20.12051206636772
            ],
            [
              99.88241836863712,
              20.118343808212785
            ],
            [
              99.88056970953092,
              20.11633702485637
            ],
            [
              99.87852175772318,
              20.11451103623923
            ],
            [
              99.87629423474851,
              20.11288342120227
            ],
            [
              99.87390858882809,
              20.111469848439057
            ],
            [
              99.87138778846719,
              20.110283925832395
            ],
            [
              99.86875610150875,
              20.109337069617148
            ],
            [
              99.86603886176017,
              20.108638394621064
            ],
            [
              99.86326222542849,
              20.108194626633633
            ],
            [
              99.86045291969323,
              20.108010037741288
            ],
            [
              99.85763798582074,
              20.108086405247555
            ],
            [
              99.85484451927418,
              20.108422994571335
            ],
            [
              99.85209940930164,
              20.109016566287657
            ],
            [
              99.84942908049014,
              20.109861407244157
            ],
            [
              99.84685923875487,
              20.110949385456884
            ],
            [
              99.84441462419184,
              20.11227002826137
            ],
            [
              99.8421187731582,
              20.113810622972675
            ],
            [
              99.83999379185859,
              20.115556339092475
            ],
            [
              99.83933845859572,
              20.116150491869128
            ],
            [
              99.83850740038274,
              20.11684686186976
            ],
            [
              99.8376798321763,
              20.11761204650343
            ],
            [
              99.83683824773814,
              20.11836347210175
            ],
            [
              99.83656904236724,
              20.11862864111949
            ],
            [
              99.83650477157862,
              20.11869850983833
            ],
            [
              99.83650146571652,
              20.118701566413304
            ],
            [
              99.83643328316776,
              20.118763285679524
            ],
            [
              99.83558097303612,
              20.119702761190833
            ],
            [
              99.83472185040166,
              20.120636688550956
            ],
            [
              99.83466482687568,
              20.12071258447041
            ],
            [
              99.83460071374229,
              20.12078325260437
            ],
            [
              99.83440729815943,
              20.12101892863698
            ],
            [
              99.83395186525316,
              20.121633980028392
            ],
            [
              99.83366848522729,
              20.121971842865975
            ],
            [
              99.8333584763807,
              20.122426860283383
            ],
            [
              99.83293724230033,
              20.12298452061051
            ],
            [
              99.83285883100761,
              20.12309991042786
            ],
            [
              99.83282419037435,
              20.123156853218646
            ],
            [
              99.8327931165011,
              20.123198816552264
            ],
            [
              99.8326607365863,
              20.123421220381083
            ],
            [
              99.83263501802945,
              20.123455623984103
            ],
            [
              99.83246527839161,
              20.123737839908355
            ],
            [
              99.8321443761553,
              20.12420883368452
            ],
            [
              99.83210606908345,
              20.124271628612533
            ],
            [
              99.8320914976071,
              20.124298480465544
            ],
            [
              99.83207426955322,
              20.124323890239992
            ],
            [
              99.83203110951284,
              20.124395005385953
            ],
            [
              99.83196464511532,
              20.124504517458703
            ],
            [
              99.83188674844844,
              20.124648849733802
            ],
            [
              99.83188265760188,
              20.12465489589631
            ],
            [
              99.83165007756627,
              20.12508684983679
            ],
            [
              99.83145566246395,
              20.12540642255508
            ],
            [
              99.83143254277321,
              20.125454882942552
            ],
            [
              99.83124384458387,
              20.1257686110564
            ],
            [
              99.83117542823855,
              20.125896601842783
            ],
            [
              99.83091630745496,
              20.126446924951765
            ],
            [
              99.83068552985706,
              20.12687451309534
            ],
            [
              99.83067887107839,
              20.126890572826685
            ],
            [
              99.83060592856205,
              20.12702603971628
            ],
            [
              99.83051085611777,
              20.12722636786218
            ],
            [
              99.83047360718899,
              20.127304706648324
            ],
            [
              99.83028646267506,
              20.12775638413087
            ],
            [
              99.83006985816236,
              20.12819615886415
            ],
            [
              99.82977354506403,
              20.128994308584236
            ],
            [
              99.82944719681765,
              20.129781938220592
            ],
            [
              99.82930782177942,
              20.130248765465165
            ],
            [
              99.82928145222343,
              20.130319793026388
            ],
            [
              99.82917040933975,
              20.130608657556593
            ],
            [
              99.82916021505542,
              20.130646349847076
            ],
            [
              99.82913789319916,
              20.130706474447596
            ],
            [
              99.82907886241914,
              20.13089456646831
            ],
            [
              99.82888236542198,
              20.13165597870071
            ],
            [
              99.8288173949815,
              20.131846593010113
            ],
            [
              99.82877311537433,
              20.13203970319493
            ],
            [
              99.8286827821825,
              20.132342259914928
            ],
            [
              99.82863925358814,
              20.132572526705054
            ],
            [
              99.82847331169803,
              20.133186062391808
            ],
            [
              99.82841316310788,
              20.133464854674227
            ],
            [
              99.8283473217659,
              20.13387100759571
            ],
            [
              99.82830115733289,
              20.134049316912403
            ],
            [
              99.82827965643224,
              20.134191723370588
            ],
            [
              99.82822123734256,
              20.134446490758684
            ],
            [
              99.82816668214171,
              20.13475748409845
            ],
            [
              99.82805280887379,
              20.135687734777385
            ],
            [
              99.8279868859041,
              20.13609438092405
            ],
            [
              99.82798355361368,
              20.136152871623928
            ],
            [
              99.82790353483702,
              20.136682844562067
            ],
            [
              99.82788697200994,
              20.137042468387815
            ],
            [
              99.82784319895771,
              20.137400050369063
            ],
            [
              99.827825800281,
              20.138370663977266
            ],
            [
              99.82778113289804,
              20.139340499516724
            ],
            [
              99.82778190907239,
              20.13947100049484
            ],
            [
              99.82778202518823,
              20.13947300315234
            ],
            [
              99.82778193321487,
              20.139475006928294
            ],
            [
              99.82778348675038,
              20.13972950884217
            ],
            [
              99.82779721092426,
              20.13996557030412
            ],
            [
              99.8277955211562,
              20.14005983700649
            ],
            [
              99.82781753769332,
              20.140315197371688
            ],
            [
              99.82785090042563,
              20.14088904271214
            ],
            [
              99.82790300099573,
              20.14204928011351
            ],
            [
              99.82794881650614,
              20.14252099046425
            ],
            [
              99.82795366619817,
              20.14255336056227
            ],
            [
              99.82795521629986,
              20.14258602028776
            ],
            [
              99.8279888559167,
              20.14292342782745
            ],
            [
              99.82799833103249,
              20.14298559070577
            ],
            [
              99.82800393655138,
              20.143093058634662
            ],
            [
              99.82823593959967,
              20.14531460992318
            ],
            [
              99.82825301532382,
              20.14542322325149
            ],
            [
              99.82829196517257,
              20.145845673556217
            ],
            [
              99.82833166381775,
              20.146276738874832
            ],
            [
              99.82839250709131,
              20.14669712194732
            ],
            [
              99.82842346330398,
              20.147120405394507
            ],
            [
              99.82856036228665,
              20.14821053308528
            ],
            [
              99.82864527809566,
              20.14892080085257
            ],
            [
              99.82866110523048,
              20.14901253493192
            ],
            [
              99.82866800775604,
              20.14910524984595
            ],
            [
              99.8287887391873,
              20.150056575137036
            ],
            [
              99.82893614907425,
              20.15087555914193
            ],
            [
              99.82899787010926,
              20.151316295685366
            ],
            [
              99.82884214689531,
              20.151552361821782
            ],
            [
              99.8286484689224,
              20.15192249734734
            ],
            [
              99.82842870815062,
              20.152279405599838
            ],
            [
              99.82815924655647,
              20.152771069349736
            ],
            [
              99.82808299938415,
              20.1529286889534
            ],
            [
              99.82799279318503,
              20.153079592325337
            ],
            [
              99.82749791296833,
              20.15413817950698
            ],
            [
              99.8269887478477,
              20.155190709435793
            ],
            [
              99.82692922557933,
              20.155354627343755
            ],
            [
              99.8268551142405,
              20.1555131533561
            ],
            [
              99.82647247844423,
              20.15661244822467
            ],
            [
              99.82643227223834,
              20.15672316979782
            ],
            [
              99.8264162994275,
              20.156760378478168
            ],
            [
              99.82640110722224,
              20.15680899324674
            ],
            [
              99.82607499906403,
              20.157707037069592
            ],
            [
              99.82603277564705,
              20.157875674919755
            ],
            [
              99.82597547356971,
              20.158040297150144
            ],
            [
              99.82583909555117,
              20.158508378803063
            ],
            [
              99.82574341011532,
              20.158913583101082
            ],
            [
              99.82561897452582,
              20.15931176300408
            ],
            [
              99.82543700797824,
              20.16021110750566
            ],
            [
              99.82522597234022,
              20.1611047705694
            ],
            [
              99.82517280442168,
              20.16151688005526
            ],
            [
              99.82509029541725,
              20.16192465996763
            ],
            [
              99.82504033519852,
              20.162260154163356
            ],
            [
              99.82503213032051,
              20.162345420924648
            ],
            [
              99.82501567663061,
              20.16242961740293
            ],
            [
              99.82487620007319,
              20.163411101478633
            ],
            [
              99.82487610497408,
              20.16341216411759
            ],
            [
              99.82487590011822,
              20.16341321285284
            ],
            [
              99.82482593683046,
              20.163765007149227
            ],
            [
              99.82482399955221,
              20.16378667451162
            ],
            [
              99.8248198588171,
              20.163808064525714
            ],
            [
              99.82474456221284,
              20.16434475597069
            ],
            [
              99.82474444495251,
              20.164346093005246
            ],
            [
              99.82474418960993,
              20.16434741277234
            ],
            [
              99.82468671814615,
              20.16475736112516
            ],
            [
              99.82457387441106,
              20.16556161380877
            ],
            [
              99.82452988363976,
              20.165821333230802
            ],
            [
              99.82449958933445,
              20.166081509768553
            ],
            [
              99.82444767837599,
              20.166338623304878
            ],
            [
              99.82428948706783,
              20.1674040049344
            ],
            [
              99.82425204718422,
              20.167794826728656
            ],
            [
              99.82418606267206,
              20.16818226627236
            ],
            [
              99.82412520895815,
              20.169118834742502
            ],
            [
              99.82403568272913,
              20.17005334850453
            ],
            [
              99.82403899127938,
              20.17044575349845
            ],
            [
              99.82401354128027,
              20.170837434410913
            ],
            [
              99.82400207866988,
              20.17172533835521
            ],
            [
              99.82402095494035,
              20.172208167338745
            ]
          ]
        ]
      }
    }
  ]
}
