{
 "type": "FeatureCollection",
 "name": "shelter_sites",
 "metadata": {
  "floodguard_export": "shelter_sites.geojson",
  "title": "Shelter sites as points: every modelled candidate and every located site reported in use in September 2024",
  "title_th": "ตำแหน่งที่พักพิงแบบจุด: สถานที่ที่เป็นไปได้ทุกแห่งตามแบบจำลอง และสถานที่ที่มีรายงานว่าใช้ในเดือนกันยายน 2567 (2024) ที่ระบุตำแหน่งได้",
  "tier": "T1 scenario (model) replay of a reconstructed 2024 event for preparedness planning and exercises; illustrative stage keyframes; not a forecast, not an observed closure record, not an official warning; non_operational; accepted_* null",
  "tier_th": "การย้อนดูสถานการณ์จำลองระดับ T1 (แบบจำลอง) ของเหตุการณ์ปี 2567 (2024) ที่จำลองขึ้นใหม่ เพื่อการวางแผนเตรียมความพร้อมและการฝึกซ้อม ใช้จุดกำหนดระดับน้ำเพื่อการอธิบาย ไม่ใช่การพยากรณ์ ไม่ใช่บันทึกการปิดถนนที่สังเกตได้จริง ไม่ใช่การเตือนภัยอย่างเป็นทางการ ไม่ใช้ในการปฏิบัติการ และไม่มีคะแนนหรือระดับการดำเนินการที่ยอมรับ (accepted_* เป็น null)",
  "operational_status": "non_operational",
  "confidence_class": "low",
  "confidence_reason": "The tables come from a terrain-model reconstruction with illustrative stages, WorldPop 2020 residents, OpenStreetMap roads and sites, and unverified capacity estimates; nothing was checked on the ground.",
  "confidence_reason_th": "ตารางมาจากการจำลองด้วยแบบจำลองภูมิประเทศและระดับน้ำสมมุติ ผู้อยู่อาศัยตาม WorldPop 2020 ถนนและสถานที่จาก OpenStreetMap และค่าประมาณความจุที่ยังไม่ได้ตรวจสอบ ยังไม่มีการตรวจสอบในพื้นที่",
  "lanes": "SCN, REP",
  "source_timestamp": "OpenStreetMap extract 2026-07-09 (sites and roads); WorldPop 2020; reported shelters compiled 2026-09-27; reconstructed peak 2024-09-12 ICT",
  "generated_at": "2026-10-03T13:51:00+07:00",
  "generated_by": "scripts/build_mae_sai_flood_timeline.py",
  "study": "mae-sai-2024-flood-timeline r4",
  "accepted": "accepted_fpps=null; accepted_action_class=null (no priority score and no action class is computed)",
  "licence": "ODbL 1.0 (https://opendatacommons.org/licenses/odbl/1-0/): OpenStreetMap-derived, attribution and share-alike",
  "licence_th": "ODbL 1.0: ดัดแปลงจาก OpenStreetMap ต้องแสดงที่มาและเผยแพร่งานดัดแปลงภายใต้สัญญาอนุญาตเดียวกัน",
  "attribution": "© OpenStreetMap contributors; WorldPop (www.worldpop.org), University of Southampton; © DLR e.V. 2010-2014 and © Airbus Defence and Space GmbH 2014-2018, provided under COPERNICUS by the European Union and ESA; FloodGuard desk research of public reporting, sources linked per site",
  "licence_inputs": "OpenStreetMap roads and candidate facilities (Geofabrik extract): ODbL 1.0; WorldPop Thailand 100 m population 2020, unconstrained top-down (tha_ppp_2020): CC BY 4.0; Copernicus DEM GLO-30 (tiles N20 E099 and N20 E100): Copernicus DEM licence (free, attribution); Shelters reported in use in September 2024 (FloodGuard desk research): Facts with citations; OSM-derived coordinates © OpenStreetMap contributors (ODbL)",
  "not_included": "No HII rain values (CC BY-NC), nothing from a source without a stated licence and nothing from UNOSAT/GISTDA product 4009 is in this file.",
  "not_included_th": "ไฟล์นี้ไม่มีค่าปริมาณฝนของ สสน. (CC BY-NC) ไม่มีข้อมูลจากแหล่งที่ไม่ระบุสัญญาอนุญาต และไม่มีข้อมูลใดจากผลิตภัณฑ์ 4009 ของ UNOSAT/GISTDA",
  "assumption_1": "The water is a HAND terrain-model reconstruction driven by illustrative stage keyframes (no gauge record was used): modelled, not observed.",
  "assumption_1_th": "น้ำเป็นการจำลองจากแบบจำลองภูมิประเทศ HAND ด้วยจุดกำหนดระดับน้ำเพื่อการอธิบาย (ไม่ได้ใช้ข้อมูลจากสถานีวัดน้ำ) เป็นค่าจากแบบจำลอง ไม่ใช่ค่าที่สังเกตได้",
  "assumption_2": "The sites are candidates to verify on the ground, not a list of sites to open. They are OpenStreetMap public buildings and grounds (schools, places of worship, government offices, community centres).",
  "assumption_2_th": "สถานที่เหล่านี้เป็นสถานที่ที่ควรตรวจสอบในพื้นที่ ไม่ใช่รายชื่อสถานที่ที่ต้องเปิด เป็นอาคารและพื้นที่สาธารณะใน OpenStreetMap (โรงเรียน ศาสนสถาน หน่วยงานราชการ ศูนย์ชุมชน)",
  "assumption_3": "A candidate is eligible when it keeps 0.5 m of freeboard at the modelled peak (3.5 m stage) and a road node lies within 400 m.",
  "assumption_3_th": "สถานที่เข้าเกณฑ์เมื่อยังสูงกว่าระดับน้ำสูงสุดตามแบบจำลอง (ระดับ 3.5 ม.) อย่างน้อย 0.5 ม. และมีจุดถนนภายในระยะ 400 ม.",
  "assumption_4": "Capacity is an unverified estimate from mapped building footprints (footprint x 0.5 usable share / 3.5 m2 per person, Sphere) and is unknown for most candidates. No listed capacity from a shelter register is used or published here.",
  "assumption_4_th": "ความจุเป็นค่าประมาณที่ยังไม่ได้ตรวจสอบ คำนวณจากขอบเขตอาคารในแผนที่ (พื้นที่อาคาร x สัดส่วนใช้สอย 0.5 / 3.5 ตร.ม. ต่อคน ตามมาตรฐาน Sphere) และไม่ทราบค่าสำหรับสถานที่ส่วนใหญ่ ไม่มีการใช้หรือเผยแพร่ความจุจากทะเบียนที่พักพิงใด ๆ ในไฟล์นี้",
  "assumption_5": "site_set tells the lane of a point: candidate is a modelled screening of an OpenStreetMap building; reported_2024 is reported use from public sources, not an official register.",
  "assumption_5_th": "site_set บอกประเภทของจุด: candidate คือการคัดกรองอาคารใน OpenStreetMap ด้วยแบบจำลอง ส่วน reported_2024 คือการใช้งานตามรายงานจากแหล่งข้อมูลสาธารณะ ไม่ใช่ทะเบียนทางการ",
  "input_receipt": "docs/mae_sai_timeline_r4_input_receipt.json lists every input file of the bake with its SHA-256 (also timeline.json input_sha256); input_set_sha256=b4668d3a27ad34df3a6140f0c53a23d9780d09c0cc2a4309ff857ba7a53347ee",
  "input_sha256": "external:open_context/osm_geofabrik/thailand-latest.osm.pbf=b7f46018249638413b1d318bc86519f140c27af20cac7c00d42fe03775b7add1; repo:outputs/mae_sai_facilities.geojson=5f9d2381fc6dccec5343e48e6526a92f80028840e27e4753bb3fbb42445b97ce; repo:outputs/mae_sai_reported_shelters_2024.json=674d95881b857916f65f864e555a1b20f815a25bd9c43e2d475fc0c8f2d00d35; repo:outputs/mae_sai_access_edges.csv=266fd0f662b44b8210fc5ab064eadbb26b822ccb869221c92d666f4b172de454; repo:outputs/mae_sai_population_nodes.csv=172235bb7954bb8a60d944c5acc8414e3f73c6b7c204a84e10c3b0b35411f4ac; external:open_context/copernicus_dem_glo30/Copernicus_DSM_COG_10_N20_00_E099_00_DEM.tif=8965f85514b577b4b606c658412bfe3d713c0abf478d237539af309d8edb3757; external:open_context/copernicus_dem_glo30/Copernicus_DSM_COG_10_N20_00_E100_00_DEM.tif=353574d52c8d93f0e650207acf4c9045bcebe02bb956b30ca1596cb2dafa17bf",
  "git_commit": "null: a file cannot hold the hash of the commit that adds it; git log -1 --format=%H -- apps/web/public/studies/mae-sai-2024-timeline/r4/exports/shelter_sites.geojson",
  "knee_k": "8",
  "crs": "WGS 84 (EPSG:4326), longitude then latitude",
  "fields": [
   {
    "key": "site_set",
    "th": "ชุดสถานที่",
    "en": "candidate (OpenStreetMap public building, modelled screening) or reported_2024 (reported in use in September 2024)"
   },
   {
    "key": "id",
    "th": "รหัสสถานที่",
    "en": "Candidate id or reported-site id in this revision"
   },
   {
    "key": "name",
    "th": "ชื่อ",
    "en": "Name (Thai where the source gives one)"
   },
   {
    "key": "name_en",
    "th": "ชื่อภาษาอังกฤษ",
    "en": "English name of a reported site"
   },
   {
    "key": "kind",
    "th": "ประเภท",
    "en": "Kind of site"
   },
   {
    "key": "osm_source",
    "th": "ที่มาใน OSM",
    "en": "OpenStreetMap element of a candidate"
   },
   {
    "key": "modelled_eligible",
    "th": "เข้าเกณฑ์ตามแบบจำลอง",
    "en": "Candidate keeps its freeboard at the modelled peak and has a road within reach"
   },
   {
    "key": "modelled_ineligible_reasons",
    "th": "เหตุผลที่ไม่เข้าเกณฑ์",
    "en": "Why a candidate is not eligible"
   },
   {
    "key": "coverage_rank",
    "th": "ลำดับในการจัดอันดับความครอบคลุม",
    "en": "Rank in the coverage ranking (null: not ranked)"
   },
   {
    "key": "in_knee_plan",
    "th": "อยู่ในแผนที่แสดง",
    "en": "Among the first k sites the replay shows by default"
   },
   {
    "key": "in_robust_core",
    "th": "อยู่ในแกนที่คงทน",
    "en": "Among the first k at every what-if level"
   },
   {
    "key": "capacity_rank",
    "th": "ลำดับในการจัดอันดับแบบคิดความจุ",
    "en": "Rank in the capacity-aware ranking (null: not ranked)"
   },
   {
    "key": "estimated_capacity",
    "th": "ความจุโดยประมาณ",
    "en": "Unverified footprint estimate (null: unknown)"
   },
   {
    "key": "capacity_basis",
    "th": "ที่มาของค่าความจุ",
    "en": "How the estimate was made, or unknown"
   },
   {
    "key": "capacity_basis_th",
    "th": "ที่มาของค่าความจุ ภาษาไทย",
    "en": "The same phrase in Thai"
   },
   {
    "key": "counted_in_access_set",
    "th": "นับในชุดการเข้าถึง",
    "en": "Reported site counted by the reported 2024 access set"
   },
   {
    "key": "location_confidence",
    "th": "ความเชื่อมั่นของตำแหน่ง",
    "en": "Reported site: high, medium or low"
   },
   {
    "key": "modelled_floods_at_peak",
    "th": "น้ำถึงสถานที่ที่ระดับสูงสุดตามแบบจำลอง",
    "en": "Model check: the modelled peak reaches the site"
   },
   {
    "key": "modelled_freeboard_m",
    "th": "ระยะพ้นน้ำตามแบบจำลอง ม.",
    "en": "Model check: height above the modelled peak, metres"
   }
  ]
 },
 "features": [
  {"type":"Feature","geometry":{"type":"Point","coordinates":[99.863965,20.329773]},"properties":{"site_set":"candidate","id":"C001","name":"วัดถ้ำปลา","name_en":null,"kind":"worship","osm_source":"OSM relation/6666702","modelled_eligible":true,"modelled_ineligible_reasons":"","coverage_rank":null,"in_knee_plan":false,"in_robust_core":false,"capacity_rank":null,"estimated_capacity":null,"capacity_basis":"unknown","capacity_basis_th":"ไม่ทราบ","counted_in_access_set":null,"location_confidence":null,"modelled_floods_at_peak":false,"modelled_freeboard_m":null}},
  {"type":"Feature","geometry":{"type":"Point","coordinates":[99.884614,20.436535]},"properties":{"site_set":"candidate","id":"C002","name":"มูลนิธิกวงเม้งแม่สาย","name_en":null,"kind":"worship","osm_source":"OSM way/106085171","modelled_eligible":true,"modelled_ineligible_reasons":"","coverage_rank":null,"in_knee_plan":false,"in_robust_core":false,"capacity_rank":8,"estimated_capacity":130,"capacity_basis":"OSM footprint x 0.5 / 3.5 m2 (Sphere), unverified","capacity_basis_th":"พื้นที่อาคารใน OSM x 0.5 / 3.5 ตร.ม. ต่อคน (Sphere) ยังไม่ได้ตรวจสอบ","counted_in_access_set":null,"location_confidence":null,"modelled_floods_at_peak":false,"modelled_freeboard_m":null}},
  {"type":"Feature","geometry":{"type":"Point","coordinates":[99.833001,20.324269]},"properties":{"site_set":"candidate","id":"C003","name":"พระธาตุน้อยดอยตุง","name_en":null,"kind":"worship","osm_source":"OSM way/222735500","modelled_eligible":true,"modelled_ineligible_reasons":"","coverage_rank":null,"in_knee_plan":false,"in_robust_core":false,"capacity_rank":null,"estimated_capacity":18,"capacity_basis":"OSM footprint x 0.5 / 3.5 m2 (Sphere), unverified","capacity_basis_th":"พื้นที่อาคารใน OSM x 0.5 / 3.5 ตร.ม. ต่อคน (Sphere) ยังไม่ได้ตรวจสอบ","counted_in_access_set":null,"location_confidence":null,"modelled_floods_at_peak":false,"modelled_freeboard_m":null}},
  {"type":"Feature","geometry":{"type":"Point","coordinates":[99.825757,20.327896]},"properties":{"site_set":"candidate","id":"C004","name":"","name_en":null,"kind":"worship","osm_source":"OSM way/222735519","modelled_eligible":true,"modelled_ineligible_reasons":"","coverage_rank":null,"in_knee_plan":false,"in_robust_core":false,"capacity_rank":null,"estimated_capacity":191,"capacity_basis":"OSM footprint x 0.5 / 3.5 m2 (Sphere), unverified","capacity_basis_th":"พื้นที่อาคารใน OSM x 0.5 / 3.5 ตร.ม. ต่อคน (Sphere) ยังไม่ได้ตรวจสอบ","counted_in_access_set":null,"location_confidence":null,"modelled_floods_at_peak":false,"modelled_freeboard_m":null}},
  {"type":"Feature","geometry":{"type":"Point","coordinates":[99.873484,20.441814]},"properties":{"site_set":"candidate","id":"C005","name":"วัดถ้ำผาจม","name_en":null,"kind":"worship","osm_source":"OSM way/369030754","modelled_eligible":true,"modelled_ineligible_reasons":"","coverage_rank":null,"in_knee_plan":false,"in_robust_core":false,"capacity_rank":null,"estimated_capacity":null,"capacity_basis":"unknown","capacity_basis_th":"ไม่ทราบ","counted_in_access_set":null,"location_confidence":null,"modelled_floods_at_peak":false,"modelled_freeboard_m":null}},
  {"type":"Feature","geometry":{"type":"Point","coordinates":[99.881465,20.42964]},"properties":{"site_set":"candidate","id":"C006","name":"โรงเรียนแม่สายประสิทธิ์ศาสตร์","name_en":null,"kind":"school","osm_source":"OSM way/371215803","modelled_eligible":true,"modelled_ineligible_reasons":"","coverage_rank":null,"in_knee_plan":false,"in_robust_core":false,"capacity_rank":1,"estimated_capacity":984,"capacity_basis":"OSM footprint x 0.5 / 3.5 m2 (Sphere), unverified","capacity_basis_th":"พื้นที่อาคารใน OSM x 0.5 / 3.5 ตร.ม. ต่อคน (Sphere) ยังไม่ได้ตรวจสอบ","counted_in_access_set":null,"location_confidence":null,"modelled_floods_at_peak":false,"modelled_freeboard_m":null}},
  {"type":"Feature","geometry":{"type":"Point","coordinates":[99.893756,20.437352]},"properties":{"site_set":"candidate","id":"C007","name":"โรงเรียนบ้านเหมืองแดง","name_en":null,"kind":"school","osm_source":"OSM way/371233879","modelled_eligible":true,"modelled_ineligible_reasons":"","coverage_rank":2,"in_knee_plan":true,"in_robust_core":false,"capacity_rank":2,"estimated_capacity":306,"capacity_basis":"OSM footprint x 0.5 / 3.5 m2 (Sphere), unverified","capacity_basis_th":"พื้นที่อาคารใน OSM x 0.5 / 3.5 ตร.ม. ต่อคน (Sphere) ยังไม่ได้ตรวจสอบ","counted_in_access_set":null,"location_confidence":null,"modelled_floods_at_peak":false,"modelled_freeboard_m":null}},
  {"type":"Feature","geometry":{"type":"Point","coordinates":[99.88432,20.426533]},"properties":{"site_set":"candidate","id":"C008","name":"สำนักงานเทศบาลตำบลแม่สาย","name_en":null,"kind":"government","osm_source":"OSM way/371846370","modelled_eligible":true,"modelled_ineligible_reasons":"","coverage_rank":null,"in_knee_plan":false,"in_robust_core":false,"capacity_rank":9,"estimated_capacity":121,"capacity_basis":"OSM footprint x 0.5 / 3.5 m2 (Sphere), unverified","capacity_basis_th":"พื้นที่อาคารใน OSM x 0.5 / 3.5 ตร.ม. ต่อคน (Sphere) ยังไม่ได้ตรวจสอบ","counted_in_access_set":null,"location_confidence":null,"modelled_floods_at_peak":false,"modelled_freeboard_m":null}},
  {"type":"Feature","geometry":{"type":"Point","coordinates":[99.88562,20.403363]},"properties":{"site_set":"candidate","id":"C009","name":"สำนักงานเทศบาลตำบลเวียงพางคำ","name_en":null,"kind":"government","osm_source":"OSM way/371846371","modelled_eligible":true,"modelled_ineligible_reasons":"","coverage_rank":null,"in_knee_plan":false,"in_robust_core":false,"capacity_rank":null,"estimated_capacity":81,"capacity_basis":"OSM footprint x 0.5 / 3.5 m2 (Sphere), unverified","capacity_basis_th":"พื้นที่อาคารใน OSM x 0.5 / 3.5 ตร.ม. ต่อคน (Sphere) ยังไม่ได้ตรวจสอบ","counted_in_access_set":null,"location_confidence":null,"modelled_floods_at_peak":false,"modelled_freeboard_m":null}},
  {"type":"Feature","geometry":{"type":"Point","coordinates":[99.881307,20.435298]},"properties":{"site_set":"candidate","id":"C010","name":"โรงเรียนอนุบาลแม่สาย","name_en":null,"kind":"school","osm_source":"OSM way/372005086","modelled_eligible":true,"modelled_ineligible_reasons":"","coverage_rank":null,"in_knee_plan":false,"in_robust_core":false,"capacity_rank":3,"estimated_capacity":null,"capacity_basis":"unknown","capacity_basis_th":"ไม่ทราบ","counted_in_access_set":null,"location_confidence":null,"modelled_floods_at_peak":false,"modelled_freeboard_m":null}},
  {"type":"Feature","geometry":{"type":"Point","coordinates":[99.88522,20.378527]},"properties":{"site_set":"candidate","id":"C011","name":"องค์การบริหารส่วนตำบลโป่งผา","name_en":null,"kind":"government","osm_source":"OSM way/372608928","modelled_eligible":true,"modelled_ineligible_reasons":"","coverage_rank":6,"in_knee_plan":true,"in_robust_core":true,"capacity_rank":10,"estimated_capacity":110,"capacity_basis":"OSM footprint x 0.5 / 3.5 m2 (Sphere), unverified","capacity_basis_th":"พื้นที่อาคารใน OSM x 0.5 / 3.5 ตร.ม. ต่อคน (Sphere) ยังไม่ได้ตรวจสอบ","counted_in_access_set":null,"location_confidence":null,"modelled_floods_at_peak":false,"modelled_freeboard_m":null}},
  {"type":"Feature","geometry":{"type":"Point","coordinates":[99.880792,20.367565]},"properties":{"site_set":"candidate","id":"C012","name":"วัดบ้านจ้อง","name_en":null,"kind":"worship","osm_source":"OSM way/372608929","modelled_eligible":true,"modelled_ineligible_reasons":"","coverage_rank":null,"in_knee_plan":false,"in_robust_core":false,"capacity_rank":null,"estimated_capacity":262,"capacity_basis":"OSM footprint x 0.5 / 3.5 m2 (Sphere), unverified","capacity_basis_th":"พื้นที่อาคารใน OSM x 0.5 / 3.5 ตร.ม. ต่อคน (Sphere) ยังไม่ได้ตรวจสอบ","counted_in_access_set":null,"location_confidence":null,"modelled_floods_at_peak":false,"modelled_freeboard_m":null}},
  {"type":"Feature","geometry":{"type":"Point","coordinates":[99.990452,20.415396]},"properties":{"site_set":"candidate","id":"C013","name":"องค์การบริหารส่วนตำบลเกาะช้าง","name_en":null,"kind":"government","osm_source":"OSM way/372687262","modelled_eligible":true,"modelled_ineligible_reasons":"","coverage_rank":null,"in_knee_plan":false,"in_robust_core":false,"capacity_rank":null,"estimated_capacity":56,"capacity_basis":"OSM footprint x 0.5 / 3.5 m2 (Sphere), unverified","capacity_basis_th":"พื้นที่อาคารใน OSM x 0.5 / 3.5 ตร.ม. ต่อคน (Sphere) ยังไม่ได้ตรวจสอบ","counted_in_access_set":null,"location_confidence":null,"modelled_floods_at_peak":false,"modelled_freeboard_m":4.55}},
  {"type":"Feature","geometry":{"type":"Point","coordinates":[99.879765,20.435442]},"properties":{"site_set":"candidate","id":"C014","name":"วัดพญาสี่ตวงคำ","name_en":null,"kind":"worship","osm_source":"OSM way/372704767","modelled_eligible":true,"modelled_ineligible_reasons":"","coverage_rank":null,"in_knee_plan":false,"in_robust_core":false,"capacity_rank":null,"estimated_capacity":null,"capacity_basis":"unknown","capacity_basis_th":"ไม่ทราบ","counted_in_access_set":null,"location_confidence":null,"modelled_floods_at_peak":false,"modelled_freeboard_m":null}},
  {"type":"Feature","geometry":{"type":"Point","coordinates":[99.879955,20.426665]},"properties":{"site_set":"candidate","id":"C015","name":"วัดพรหมวิหาร","name_en":null,"kind":"worship","osm_source":"OSM way/372716639","modelled_eligible":true,"modelled_ineligible_reasons":"","coverage_rank":null,"in_knee_plan":false,"in_robust_core":false,"capacity_rank":null,"estimated_capacity":33,"capacity_basis":"OSM footprint x 0.5 / 3.5 m2 (Sphere), unverified","capacity_basis_th":"พื้นที่อาคารใน OSM x 0.5 / 3.5 ตร.ม. ต่อคน (Sphere) ยังไม่ได้ตรวจสอบ","counted_in_access_set":null,"location_confidence":null,"modelled_floods_at_peak":false,"modelled_freeboard_m":null}},
  {"type":"Feature","geometry":{"type":"Point","coordinates":[99.886779,20.412416]},"properties":{"site_set":"candidate","id":"C016","name":"โรงเรียนบ้านป่าเหมือด","name_en":null,"kind":"school","osm_source":"OSM way/373173963","modelled_eligible":true,"modelled_ineligible_reasons":"","coverage_rank":null,"in_knee_plan":false,"in_robust_core":false,"capacity_rank":null,"estimated_capacity":577,"capacity_basis":"OSM footprint x 0.5 / 3.5 m2 (Sphere), unverified","capacity_basis_th":"พื้นที่อาคารใน OSM x 0.5 / 3.5 ตร.ม. ต่อคน (Sphere) ยังไม่ได้ตรวจสอบ","counted_in_access_set":null,"location_confidence":null,"modelled_floods_at_peak":false,"modelled_freeboard_m":null}},
  {"type":"Feature","geometry":{"type":"Point","coordinates":[99.890878,20.42359]},"properties":{"site_set":"candidate","id":"C017","name":"โรงเรียนบ้านป่ายาง","name_en":null,"kind":"school","osm_source":"OSM way/373241355","modelled_eligible":true,"modelled_ineligible_reasons":"","coverage_rank":null,"in_knee_plan":false,"in_robust_core":false,"capacity_rank":7,"estimated_capacity":null,"capacity_basis":"unknown","capacity_basis_th":"ไม่ทราบ","counted_in_access_set":null,"location_confidence":null,"modelled_floods_at_peak":false,"modelled_freeboard_m":null}},
  {"type":"Feature","geometry":{"type":"Point","coordinates":[99.831126,20.348139]},"properties":{"site_set":"candidate","id":"C018","name":"โรงเรียนบ้านผาฮี้","name_en":null,"kind":"school","osm_source":"OSM way/373744725","modelled_eligible":true,"modelled_ineligible_reasons":"","coverage_rank":null,"in_knee_plan":false,"in_robust_core":false,"capacity_rank":null,"estimated_capacity":76,"capacity_basis":"OSM footprint x 0.5 / 3.5 m2 (Sphere), unverified","capacity_basis_th":"พื้นที่อาคารใน OSM x 0.5 / 3.5 ตร.ม. ต่อคน (Sphere) ยังไม่ได้ตรวจสอบ","counted_in_access_set":null,"location_confidence":null,"modelled_floods_at_peak":false,"modelled_freeboard_m":null}},
  {"type":"Feature","geometry":{"type":"Point","coordinates":[99.884198,20.4308]},"properties":{"site_set":"candidate","id":"C019","name":"มัสยิดอันนุร แม่สาย","name_en":null,"kind":"worship","osm_source":"OSM way/373885318","modelled_eligible":true,"modelled_ineligible_reasons":"","coverage_rank":null,"in_knee_plan":false,"in_robust_core":false,"capacity_rank":null,"estimated_capacity":41,"capacity_basis":"OSM footprint x 0.5 / 3.5 m2 (Sphere), unverified","capacity_basis_th":"พื้นที่อาคารใน OSM x 0.5 / 3.5 ตร.ม. ต่อคน (Sphere) ยังไม่ได้ตรวจสอบ","counted_in_access_set":null,"location_confidence":null,"modelled_floods_at_peak":false,"modelled_freeboard_m":null}},
  {"type":"Feature","geometry":{"type":"Point","coordinates":[99.893498,20.433015]},"properties":{"site_set":"candidate","id":"C020","name":"มัสยิด อัรเราะห์มานิยะฮ์","name_en":null,"kind":"worship","osm_source":"OSM way/374663602","modelled_eligible":true,"modelled_ineligible_reasons":"","coverage_rank":null,"in_knee_plan":false,"in_robust_core":false,"capacity_rank":18,"estimated_capacity":null,"capacity_basis":"unknown","capacity_basis_th":"ไม่ทราบ","counted_in_access_set":null,"location_confidence":null,"modelled_floods_at_peak":false,"modelled_freeboard_m":9.05}},
  {"type":"Feature","geometry":{"type":"Point","coordinates":[99.959478,20.43716]},"properties":{"site_set":"candidate","id":"C021","name":"คริสตจักรศรีชัยภูมิ","name_en":null,"kind":"worship","osm_source":"OSM way/374815115","modelled_eligible":true,"modelled_ineligible_reasons":"","coverage_rank":null,"in_knee_plan":false,"in_robust_core":false,"capacity_rank":null,"estimated_capacity":50,"capacity_basis":"OSM footprint x 0.5 / 3.5 m2 (Sphere), unverified","capacity_basis_th":"พื้นที่อาคารใน OSM x 0.5 / 3.5 ตร.ม. ต่อคน (Sphere) ยังไม่ได้ตรวจสอบ","counted_in_access_set":null,"location_confidence":null,"modelled_floods_at_peak":false,"modelled_freeboard_m":null}},
  {"type":"Feature","geometry":{"type":"Point","coordinates":[99.99415,20.412819]},"properties":{"site_set":"candidate","id":"C022","name":"คริสตจักรพัฒนาพระพรปางห้า","name_en":null,"kind":"worship","osm_source":"OSM way/374815116","modelled_eligible":true,"modelled_ineligible_reasons":"","coverage_rank":null,"in_knee_plan":false,"in_robust_core":false,"capacity_rank":null,"estimated_capacity":29,"capacity_basis":"OSM footprint x 0.5 / 3.5 m2 (Sphere), unverified","capacity_basis_th":"พื้นที่อาคารใน OSM x 0.5 / 3.5 ตร.ม. ต่อคน (Sphere) ยังไม่ได้ตรวจสอบ","counted_in_access_set":null,"location_confidence":null,"modelled_floods_at_peak":false,"modelled_freeboard_m":3.15}},
  {"type":"Feature","geometry":{"type":"Point","coordinates":[99.876697,20.419351]},"properties":{"site_set":"candidate","id":"C023","name":"ศูนย์พัฒนาการศึกษาเพื่อลูกหญิงและชุมชน","name_en":null,"kind":"school","osm_source":"OSM way/375366265","modelled_eligible":true,"modelled_ineligible_reasons":"","coverage_rank":null,"in_knee_plan":false,"in_robust_core":false,"capacity_rank":null,"estimated_capacity":253,"capacity_basis":"OSM footprint x 0.5 / 3.5 m2 (Sphere), unverified","capacity_basis_th":"พื้นที่อาคารใน OSM x 0.5 / 3.5 ตร.ม. ต่อคน (Sphere) ยังไม่ได้ตรวจสอบ","counted_in_access_set":null,"location_confidence":null,"modelled_floods_at_peak":false,"modelled_freeboard_m":null}},
  {"type":"Feature","geometry":{"type":"Point","coordinates":[99.876165,20.419895]},"properties":{"site_set":"candidate","id":"C024","name":"ศูนย์การเรียนชุมชนป่ายางใหม่","name_en":null,"kind":"school","osm_source":"OSM way/375366268","modelled_eligible":true,"modelled_ineligible_reasons":"","coverage_rank":null,"in_knee_plan":false,"in_robust_core":false,"capacity_rank":null,"estimated_capacity":39,"capacity_basis":"OSM footprint x 0.5 / 3.5 m2 (Sphere), unverified","capacity_basis_th":"พื้นที่อาคารใน OSM x 0.5 / 3.5 ตร.ม. ต่อคน (Sphere) ยังไม่ได้ตรวจสอบ","counted_in_access_set":null,"location_confidence":null,"modelled_floods_at_peak":false,"modelled_freeboard_m":null}},
  {"type":"Feature","geometry":{"type":"Point","coordinates":[99.89229,20.437428]},"properties":{"site_set":"candidate","id":"C025","name":"วัดเหมืองแดง","name_en":null,"kind":"worship","osm_source":"OSM way/375664608","modelled_eligible":true,"modelled_ineligible_reasons":"","coverage_rank":null,"in_knee_plan":false,"in_robust_core":false,"capacity_rank":13,"estimated_capacity":88,"capacity_basis":"OSM footprint x 0.5 / 3.5 m2 (Sphere), unverified","capacity_basis_th":"พื้นที่อาคารใน OSM x 0.5 / 3.5 ตร.ม. ต่อคน (Sphere) ยังไม่ได้ตรวจสอบ","counted_in_access_set":null,"location_confidence":null,"modelled_floods_at_peak":false,"modelled_freeboard_m":3.85}},
  {"type":"Feature","geometry":{"type":"Point","coordinates":[99.881577,20.433657]},"properties":{"site_set":"candidate","id":"C026","name":"วัดเวียงพาน","name_en":null,"kind":"worship","osm_source":"OSM way/375707979","modelled_eligible":true,"modelled_ineligible_reasons":"","coverage_rank":null,"in_knee_plan":false,"in_robust_core":false,"capacity_rank":16,"estimated_capacity":79,"capacity_basis":"OSM footprint x 0.5 / 3.5 m2 (Sphere), unverified","capacity_basis_th":"พื้นที่อาคารใน OSM x 0.5 / 3.5 ตร.ม. ต่อคน (Sphere) ยังไม่ได้ตรวจสอบ","counted_in_access_set":null,"location_confidence":null,"modelled_floods_at_peak":false,"modelled_freeboard_m":null}},
  {"type":"Feature","geometry":{"type":"Point","coordinates":[99.868036,20.420463]},"properties":{"site_set":"candidate","id":"C027","name":"วัดผาแตก","name_en":null,"kind":"worship","osm_source":"OSM way/376045443","modelled_eligible":true,"modelled_ineligible_reasons":"","coverage_rank":null,"in_knee_plan":false,"in_robust_core":false,"capacity_rank":null,"estimated_capacity":73,"capacity_basis":"OSM footprint x 0.5 / 3.5 m2 (Sphere), unverified","capacity_basis_th":"พื้นที่อาคารใน OSM x 0.5 / 3.5 ตร.ม. ต่อคน (Sphere) ยังไม่ได้ตรวจสอบ","counted_in_access_set":null,"location_confidence":null,"modelled_floods_at_peak":false,"modelled_freeboard_m":null}},
  {"type":"Feature","geometry":{"type":"Point","coordinates":[99.884244,20.428375]},"properties":{"site_set":"candidate","id":"C028","name":"ศาลหลักเมืองแม่สาย","name_en":null,"kind":"worship","osm_source":"OSM way/376095627","modelled_eligible":true,"modelled_ineligible_reasons":"","coverage_rank":null,"in_knee_plan":false,"in_robust_core":false,"capacity_rank":null,"estimated_capacity":5,"capacity_basis":"OSM footprint x 0.5 / 3.5 m2 (Sphere), unverified","capacity_basis_th":"พื้นที่อาคารใน OSM x 0.5 / 3.5 ตร.ม. ต่อคน (Sphere) ยังไม่ได้ตรวจสอบ","counted_in_access_set":null,"location_confidence":null,"modelled_floods_at_peak":false,"modelled_freeboard_m":null}},
  {"type":"Feature","geometry":{"type":"Point","coordinates":[99.884471,20.368865]},"properties":{"site_set":"candidate","id":"C029","name":"โรงเรียนบ้านจ้อง","name_en":null,"kind":"school","osm_source":"OSM way/395972246","modelled_eligible":true,"modelled_ineligible_reasons":"","coverage_rank":null,"in_knee_plan":false,"in_robust_core":false,"capacity_rank":6,"estimated_capacity":240,"capacity_basis":"OSM footprint x 0.5 / 3.5 m2 (Sphere), unverified","capacity_basis_th":"พื้นที่อาคารใน OSM x 0.5 / 3.5 ตร.ม. ต่อคน (Sphere) ยังไม่ได้ตรวจสอบ","counted_in_access_set":null,"location_confidence":null,"modelled_floods_at_peak":false,"modelled_freeboard_m":1.47}},
  {"type":"Feature","geometry":{"type":"Point","coordinates":[99.859724,20.272562]},"properties":{"site_set":"candidate","id":"C030","name":"วัดห้วยไคร้ใหม่","name_en":null,"kind":"worship","osm_source":"OSM way/417036549","modelled_eligible":true,"modelled_ineligible_reasons":"","coverage_rank":null,"in_knee_plan":false,"in_robust_core":false,"capacity_rank":null,"estimated_capacity":63,"capacity_basis":"OSM footprint x 0.5 / 3.5 m2 (Sphere), unverified","capacity_basis_th":"พื้นที่อาคารใน OSM x 0.5 / 3.5 ตร.ม. ต่อคน (Sphere) ยังไม่ได้ตรวจสอบ","counted_in_access_set":null,"location_confidence":null,"modelled_floods_at_peak":false,"modelled_freeboard_m":null}},
  {"type":"Feature","geometry":{"type":"Point","coordinates":[100.014857,20.280797]},"properties":{"site_set":"candidate","id":"C031","name":"","name_en":null,"kind":"worship","osm_source":"OSM way/449291304","modelled_eligible":false,"modelled_ineligible_reasons":"no_road_within_400m","coverage_rank":null,"in_knee_plan":false,"in_robust_core":false,"capacity_rank":null,"estimated_capacity":65,"capacity_basis":"OSM footprint x 0.5 / 3.5 m2 (Sphere), unverified","capacity_basis_th":"พื้นที่อาคารใน OSM x 0.5 / 3.5 ตร.ม. ต่อคน (Sphere) ยังไม่ได้ตรวจสอบ","counted_in_access_set":null,"location_confidence":null,"modelled_floods_at_peak":false,"modelled_freeboard_m":4.31}},
  {"type":"Feature","geometry":{"type":"Point","coordinates":[99.866584,20.325862]},"properties":{"site_set":"candidate","id":"C032","name":"วัดถ้ำเสาหินพญานาค","name_en":null,"kind":"worship","osm_source":"OSM way/544166249","modelled_eligible":true,"modelled_ineligible_reasons":"","coverage_rank":null,"in_knee_plan":false,"in_robust_core":false,"capacity_rank":null,"estimated_capacity":183,"capacity_basis":"OSM footprint x 0.5 / 3.5 m2 (Sphere), unverified","capacity_basis_th":"พื้นที่อาคารใน OSM x 0.5 / 3.5 ตร.ม. ต่อคน (Sphere) ยังไม่ได้ตรวจสอบ","counted_in_access_set":null,"location_confidence":null,"modelled_floods_at_peak":false,"modelled_freeboard_m":null}},
  {"type":"Feature","geometry":{"type":"Point","coordinates":[99.870027,20.325688]},"properties":{"site_set":"candidate","id":"C033","name":"วิทยาลัยอาชีวศึกษาแม่สาย","name_en":null,"kind":"school","osm_source":"OSM way/544166402","modelled_eligible":true,"modelled_ineligible_reasons":"","coverage_rank":null,"in_knee_plan":false,"in_robust_core":false,"capacity_rank":null,"estimated_capacity":null,"capacity_basis":"unknown","capacity_basis_th":"ไม่ทราบ","counted_in_access_set":null,"location_confidence":null,"modelled_floods_at_peak":false,"modelled_freeboard_m":null}},
  {"type":"Feature","geometry":{"type":"Point","coordinates":[99.875955,20.322844]},"properties":{"site_set":"candidate","id":"C034","name":"โรงเรียนบ้านถ้ำปลา","name_en":null,"kind":"school","osm_source":"OSM way/544166623","modelled_eligible":true,"modelled_ineligible_reasons":"","coverage_rank":null,"in_knee_plan":false,"in_robust_core":false,"capacity_rank":null,"estimated_capacity":null,"capacity_basis":"unknown","capacity_basis_th":"ไม่ทราบ","counted_in_access_set":null,"location_confidence":null,"modelled_floods_at_peak":false,"modelled_freeboard_m":null}},
  {"type":"Feature","geometry":{"type":"Point","coordinates":[99.865162,20.327835]},"properties":{"site_set":"candidate","id":"C035","name":"โรงเรียนบ้านถ้ำ ตชด","name_en":null,"kind":"school","osm_source":"OSM way/544167202","modelled_eligible":true,"modelled_ineligible_reasons":"","coverage_rank":null,"in_knee_plan":false,"in_robust_core":false,"capacity_rank":null,"estimated_capacity":null,"capacity_basis":"unknown","capacity_basis_th":"ไม่ทราบ","counted_in_access_set":null,"location_confidence":null,"modelled_floods_at_peak":false,"modelled_freeboard_m":null}},
  {"type":"Feature","geometry":{"type":"Point","coordinates":[99.864753,20.332872]},"properties":{"site_set":"candidate","id":"C036","name":"Wat Tham Pla Wittayakhom School","name_en":null,"kind":"school","osm_source":"OSM way/544167670","modelled_eligible":true,"modelled_ineligible_reasons":"","coverage_rank":null,"in_knee_plan":false,"in_robust_core":false,"capacity_rank":null,"estimated_capacity":null,"capacity_basis":"unknown","capacity_basis_th":"ไม่ทราบ","counted_in_access_set":null,"location_confidence":null,"modelled_floods_at_peak":false,"modelled_freeboard_m":null}},
  {"type":"Feature","geometry":{"type":"Point","coordinates":[99.883166,20.327545]},"properties":{"site_set":"candidate","id":"C037","name":"โรงเรียนบ้านถ้ำ","name_en":null,"kind":"school","osm_source":"OSM way/544167935","modelled_eligible":true,"modelled_ineligible_reasons":"","coverage_rank":null,"in_knee_plan":false,"in_robust_core":false,"capacity_rank":null,"estimated_capacity":null,"capacity_basis":"unknown","capacity_basis_th":"ไม่ทราบ","counted_in_access_set":null,"location_confidence":null,"modelled_floods_at_peak":false,"modelled_freeboard_m":null}},
  {"type":"Feature","geometry":{"type":"Point","coordinates":[99.877845,20.442704]},"properties":{"site_set":"candidate","id":"C038","name":"วัดพระธาตุดอยเวา","name_en":null,"kind":"worship","osm_source":"OSM way/544168721","modelled_eligible":true,"modelled_ineligible_reasons":"","coverage_rank":null,"in_knee_plan":false,"in_robust_core":false,"capacity_rank":5,"estimated_capacity":212,"capacity_basis":"OSM footprint x 0.5 / 3.5 m2 (Sphere), unverified","capacity_basis_th":"พื้นที่อาคารใน OSM x 0.5 / 3.5 ตร.ม. ต่อคน (Sphere) ยังไม่ได้ตรวจสอบ","counted_in_access_set":null,"location_confidence":null,"modelled_floods_at_peak":false,"modelled_freeboard_m":null}},
  {"type":"Feature","geometry":{"type":"Point","coordinates":[99.883726,20.330642]},"properties":{"site_set":"candidate","id":"C039","name":"วัดบ้านถ้ำหลวง","name_en":null,"kind":"worship","osm_source":"OSM way/545628893","modelled_eligible":true,"modelled_ineligible_reasons":"","coverage_rank":null,"in_knee_plan":false,"in_robust_core":false,"capacity_rank":null,"estimated_capacity":1609,"capacity_basis":"OSM footprint x 0.5 / 3.5 m2 (Sphere), unverified","capacity_basis_th":"พื้นที่อาคารใน OSM x 0.5 / 3.5 ตร.ม. ต่อคน (Sphere) ยังไม่ได้ตรวจสอบ","counted_in_access_set":null,"location_confidence":null,"modelled_floods_at_peak":false,"modelled_freeboard_m":null}},
  {"type":"Feature","geometry":{"type":"Point","coordinates":[99.83245,20.325031]},"properties":{"site_set":"candidate","id":"C040","name":"พระธาตุดอยตุง","name_en":null,"kind":"worship","osm_source":"OSM way/547707431","modelled_eligible":true,"modelled_ineligible_reasons":"","coverage_rank":null,"in_knee_plan":false,"in_robust_core":false,"capacity_rank":null,"estimated_capacity":20,"capacity_basis":"OSM footprint x 0.5 / 3.5 m2 (Sphere), unverified","capacity_basis_th":"พื้นที่อาคารใน OSM x 0.5 / 3.5 ตร.ม. ต่อคน (Sphere) ยังไม่ได้ตรวจสอบ","counted_in_access_set":null,"location_confidence":null,"modelled_floods_at_peak":false,"modelled_freeboard_m":null}},
  {"type":"Feature","geometry":{"type":"Point","coordinates":[99.869312,20.326853]},"properties":{"site_set":"candidate","id":"C041","name":"Chinese School","name_en":null,"kind":"school","osm_source":"OSM way/551265918","modelled_eligible":true,"modelled_ineligible_reasons":"","coverage_rank":null,"in_knee_plan":false,"in_robust_core":false,"capacity_rank":null,"estimated_capacity":null,"capacity_basis":"unknown","capacity_basis_th":"ไม่ทราบ","counted_in_access_set":null,"location_confidence":null,"modelled_floods_at_peak":false,"modelled_freeboard_m":null}},
  {"type":"Feature","geometry":{"type":"Point","coordinates":[99.868754,20.326932]},"properties":{"site_set":"candidate","id":"C042","name":"Chinese shrine","name_en":null,"kind":"worship","osm_source":"OSM way/551266015","modelled_eligible":true,"modelled_ineligible_reasons":"","coverage_rank":null,"in_knee_plan":false,"in_robust_core":false,"capacity_rank":null,"estimated_capacity":203,"capacity_basis":"OSM footprint x 0.5 / 3.5 m2 (Sphere), unverified","capacity_basis_th":"พื้นที่อาคารใน OSM x 0.5 / 3.5 ตร.ม. ต่อคน (Sphere) ยังไม่ได้ตรวจสอบ","counted_in_access_set":null,"location_confidence":null,"modelled_floods_at_peak":false,"modelled_freeboard_m":null}},
  {"type":"Feature","geometry":{"type":"Point","coordinates":[99.86045,20.344417]},"properties":{"site_set":"candidate","id":"C043","name":"","name_en":null,"kind":"worship","osm_source":"OSM way/607937575","modelled_eligible":true,"modelled_ineligible_reasons":"","coverage_rank":null,"in_knee_plan":false,"in_robust_core":false,"capacity_rank":null,"estimated_capacity":null,"capacity_basis":"unknown","capacity_basis_th":"ไม่ทราบ","counted_in_access_set":null,"location_confidence":null,"modelled_floods_at_peak":false,"modelled_freeboard_m":null}},
  {"type":"Feature","geometry":{"type":"Point","coordinates":[99.860507,20.346465]},"properties":{"site_set":"candidate","id":"C044","name":"","name_en":null,"kind":"worship","osm_source":"OSM way/607937577","modelled_eligible":true,"modelled_ineligible_reasons":"","coverage_rank":null,"in_knee_plan":false,"in_robust_core":false,"capacity_rank":null,"estimated_capacity":null,"capacity_basis":"unknown","capacity_basis_th":"ไม่ทราบ","counted_in_access_set":null,"location_confidence":null,"modelled_floods_at_peak":false,"modelled_freeboard_m":null}},
  {"type":"Feature","geometry":{"type":"Point","coordinates":[99.866894,20.328942]},"properties":{"site_set":"candidate","id":"C045","name":"คริสตจักรแบ๊บติสต์บ้านถ้ำ","name_en":null,"kind":"worship","osm_source":"OSM way/702971303","modelled_eligible":true,"modelled_ineligible_reasons":"","coverage_rank":null,"in_knee_plan":false,"in_robust_core":false,"capacity_rank":null,"estimated_capacity":135,"capacity_basis":"OSM footprint x 0.5 / 3.5 m2 (Sphere), unverified","capacity_basis_th":"พื้นที่อาคารใน OSM x 0.5 / 3.5 ตร.ม. ต่อคน (Sphere) ยังไม่ได้ตรวจสอบ","counted_in_access_set":null,"location_confidence":null,"modelled_floods_at_peak":false,"modelled_freeboard_m":null}},
  {"type":"Feature","geometry":{"type":"Point","coordinates":[99.907329,20.391369]},"properties":{"site_set":"candidate","id":"C046","name":"","name_en":null,"kind":"worship","osm_source":"OSM way/1112439832","modelled_eligible":true,"modelled_ineligible_reasons":"","coverage_rank":null,"in_knee_plan":false,"in_robust_core":false,"capacity_rank":null,"estimated_capacity":null,"capacity_basis":"unknown","capacity_basis_th":"ไม่ทราบ","counted_in_access_set":null,"location_confidence":null,"modelled_floods_at_peak":false,"modelled_freeboard_m":1.38}},
  {"type":"Feature","geometry":{"type":"Point","coordinates":[99.894953,20.424352]},"properties":{"site_set":"candidate","id":"C047","name":"","name_en":null,"kind":"worship","osm_source":"OSM way/1112440182","modelled_eligible":true,"modelled_ineligible_reasons":"","coverage_rank":null,"in_knee_plan":false,"in_robust_core":false,"capacity_rank":14,"estimated_capacity":84,"capacity_basis":"OSM footprint x 0.5 / 3.5 m2 (Sphere), unverified","capacity_basis_th":"พื้นที่อาคารใน OSM x 0.5 / 3.5 ตร.ม. ต่อคน (Sphere) ยังไม่ได้ตรวจสอบ","counted_in_access_set":null,"location_confidence":null,"modelled_floods_at_peak":false,"modelled_freeboard_m":null}},
  {"type":"Feature","geometry":{"type":"Point","coordinates":[99.879994,20.442127]},"properties":{"site_set":"candidate","id":"C048","name":"วัดพระธาตุดอยเวา","name_en":null,"kind":"worship","osm_source":"OSM way/1112440711","modelled_eligible":true,"modelled_ineligible_reasons":"","coverage_rank":null,"in_knee_plan":false,"in_robust_core":false,"capacity_rank":null,"estimated_capacity":57,"capacity_basis":"OSM footprint x 0.5 / 3.5 m2 (Sphere), unverified","capacity_basis_th":"พื้นที่อาคารใน OSM x 0.5 / 3.5 ตร.ม. ต่อคน (Sphere) ยังไม่ได้ตรวจสอบ","counted_in_access_set":null,"location_confidence":null,"modelled_floods_at_peak":false,"modelled_freeboard_m":null}},
  {"type":"Feature","geometry":{"type":"Point","coordinates":[99.913447,20.441102]},"properties":{"site_set":"candidate","id":"C049","name":"","name_en":null,"kind":"worship","osm_source":"OSM way/1112444544","modelled_eligible":true,"modelled_ineligible_reasons":"","coverage_rank":1,"in_knee_plan":true,"in_robust_core":true,"capacity_rank":17,"estimated_capacity":79,"capacity_basis":"OSM footprint x 0.5 / 3.5 m2 (Sphere), unverified","capacity_basis_th":"พื้นที่อาคารใน OSM x 0.5 / 3.5 ตร.ม. ต่อคน (Sphere) ยังไม่ได้ตรวจสอบ","counted_in_access_set":null,"location_confidence":null,"modelled_floods_at_peak":false,"modelled_freeboard_m":1.97}},
  {"type":"Feature","geometry":{"type":"Point","coordinates":[99.94763,20.435488]},"properties":{"site_set":"candidate","id":"C050","name":"","name_en":null,"kind":"worship","osm_source":"OSM way/1112594073","modelled_eligible":true,"modelled_ineligible_reasons":"","coverage_rank":9,"in_knee_plan":false,"in_robust_core":false,"capacity_rank":null,"estimated_capacity":62,"capacity_basis":"OSM footprint x 0.5 / 3.5 m2 (Sphere), unverified","capacity_basis_th":"พื้นที่อาคารใน OSM x 0.5 / 3.5 ตร.ม. ต่อคน (Sphere) ยังไม่ได้ตรวจสอบ","counted_in_access_set":null,"location_confidence":null,"modelled_floods_at_peak":false,"modelled_freeboard_m":null}},
  {"type":"Feature","geometry":{"type":"Point","coordinates":[99.864891,20.426945]},"properties":{"site_set":"candidate","id":"C051","name":"","name_en":null,"kind":"worship","osm_source":"OSM way/1119105458","modelled_eligible":true,"modelled_ineligible_reasons":"","coverage_rank":null,"in_knee_plan":false,"in_robust_core":false,"capacity_rank":null,"estimated_capacity":94,"capacity_basis":"OSM footprint x 0.5 / 3.5 m2 (Sphere), unverified","capacity_basis_th":"พื้นที่อาคารใน OSM x 0.5 / 3.5 ตร.ม. ต่อคน (Sphere) ยังไม่ได้ตรวจสอบ","counted_in_access_set":null,"location_confidence":null,"modelled_floods_at_peak":false,"modelled_freeboard_m":null}},
  {"type":"Feature","geometry":{"type":"Point","coordinates":[100.035619,20.280764]},"properties":{"site_set":"candidate","id":"C052","name":"","name_en":null,"kind":"worship","osm_source":"OSM way/1230432524","modelled_eligible":false,"modelled_ineligible_reasons":"no_road_within_400m","coverage_rank":null,"in_knee_plan":false,"in_robust_core":false,"capacity_rank":null,"estimated_capacity":41,"capacity_basis":"OSM footprint x 0.5 / 3.5 m2 (Sphere), unverified","capacity_basis_th":"พื้นที่อาคารใน OSM x 0.5 / 3.5 ตร.ม. ต่อคน (Sphere) ยังไม่ได้ตรวจสอบ","counted_in_access_set":null,"location_confidence":null,"modelled_floods_at_peak":false,"modelled_freeboard_m":null}},
  {"type":"Feature","geometry":{"type":"Point","coordinates":[99.893169,20.326782]},"properties":{"site_set":"candidate","id":"C053","name":"วัดมงคลธรรมกายาราม","name_en":null,"kind":"worship","osm_source":"OSM way/1428020845","modelled_eligible":true,"modelled_ineligible_reasons":"","coverage_rank":null,"in_knee_plan":false,"in_robust_core":false,"capacity_rank":null,"estimated_capacity":181,"capacity_basis":"OSM footprint x 0.5 / 3.5 m2 (Sphere), unverified","capacity_basis_th":"พื้นที่อาคารใน OSM x 0.5 / 3.5 ตร.ม. ต่อคน (Sphere) ยังไม่ได้ตรวจสอบ","counted_in_access_set":null,"location_confidence":null,"modelled_floods_at_peak":false,"modelled_freeboard_m":3.83}},
  {"type":"Feature","geometry":{"type":"Point","coordinates":[99.893207,20.325884]},"properties":{"site_set":"candidate","id":"C054","name":"วัดมงคลธรรมกายาราม","name_en":null,"kind":"worship","osm_source":"OSM way/1428020847","modelled_eligible":true,"modelled_ineligible_reasons":"","coverage_rank":null,"in_knee_plan":false,"in_robust_core":false,"capacity_rank":null,"estimated_capacity":225,"capacity_basis":"OSM footprint x 0.5 / 3.5 m2 (Sphere), unverified","capacity_basis_th":"พื้นที่อาคารใน OSM x 0.5 / 3.5 ตร.ม. ต่อคน (Sphere) ยังไม่ได้ตรวจสอบ","counted_in_access_set":null,"location_confidence":null,"modelled_floods_at_peak":false,"modelled_freeboard_m":3.86}},
  {"type":"Feature","geometry":{"type":"Point","coordinates":[99.890415,20.324888]},"properties":{"site_set":"candidate","id":"C055","name":"วัดมงคลธรรมกายาราม","name_en":null,"kind":"worship","osm_source":"OSM way/1428020851","modelled_eligible":true,"modelled_ineligible_reasons":"","coverage_rank":null,"in_knee_plan":false,"in_robust_core":false,"capacity_rank":null,"estimated_capacity":58,"capacity_basis":"OSM footprint x 0.5 / 3.5 m2 (Sphere), unverified","capacity_basis_th":"พื้นที่อาคารใน OSM x 0.5 / 3.5 ตร.ม. ต่อคน (Sphere) ยังไม่ได้ตรวจสอบ","counted_in_access_set":null,"location_confidence":null,"modelled_floods_at_peak":false,"modelled_freeboard_m":null}},
  {"type":"Feature","geometry":{"type":"Point","coordinates":[99.890444,20.325637]},"properties":{"site_set":"candidate","id":"C056","name":"วัดมงคลธรรมกายาราม","name_en":null,"kind":"worship","osm_source":"OSM way/1428020854","modelled_eligible":true,"modelled_ineligible_reasons":"","coverage_rank":null,"in_knee_plan":false,"in_robust_core":false,"capacity_rank":null,"estimated_capacity":40,"capacity_basis":"OSM footprint x 0.5 / 3.5 m2 (Sphere), unverified","capacity_basis_th":"พื้นที่อาคารใน OSM x 0.5 / 3.5 ตร.ม. ต่อคน (Sphere) ยังไม่ได้ตรวจสอบ","counted_in_access_set":null,"location_confidence":null,"modelled_floods_at_peak":false,"modelled_freeboard_m":null}},
  {"type":"Feature","geometry":{"type":"Point","coordinates":[99.891577,20.324926]},"properties":{"site_set":"candidate","id":"C057","name":"วัดมงคลธรรมกายาราม","name_en":null,"kind":"worship","osm_source":"OSM way/1428020856","modelled_eligible":true,"modelled_ineligible_reasons":"","coverage_rank":null,"in_knee_plan":false,"in_robust_core":false,"capacity_rank":null,"estimated_capacity":93,"capacity_basis":"OSM footprint x 0.5 / 3.5 m2 (Sphere), unverified","capacity_basis_th":"พื้นที่อาคารใน OSM x 0.5 / 3.5 ตร.ม. ต่อคน (Sphere) ยังไม่ได้ตรวจสอบ","counted_in_access_set":null,"location_confidence":null,"modelled_floods_at_peak":false,"modelled_freeboard_m":null}},
  {"type":"Feature","geometry":{"type":"Point","coordinates":[99.89233,20.325265]},"properties":{"site_set":"candidate","id":"C058","name":"วัดมงคลธรรมกายาราม","name_en":null,"kind":"worship","osm_source":"OSM way/1428020858","modelled_eligible":true,"modelled_ineligible_reasons":"","coverage_rank":null,"in_knee_plan":false,"in_robust_core":false,"capacity_rank":null,"estimated_capacity":40,"capacity_basis":"OSM footprint x 0.5 / 3.5 m2 (Sphere), unverified","capacity_basis_th":"พื้นที่อาคารใน OSM x 0.5 / 3.5 ตร.ม. ต่อคน (Sphere) ยังไม่ได้ตรวจสอบ","counted_in_access_set":null,"location_confidence":null,"modelled_floods_at_peak":false,"modelled_freeboard_m":null}},
  {"type":"Feature","geometry":{"type":"Point","coordinates":[99.854946,20.258458]},"properties":{"site_set":"candidate","id":"C059","name":"","name_en":null,"kind":"school","osm_source":"OSM way/1473783323","modelled_eligible":false,"modelled_ineligible_reasons":"no_road_within_400m","coverage_rank":null,"in_knee_plan":false,"in_robust_core":false,"capacity_rank":null,"estimated_capacity":null,"capacity_basis":"unknown","capacity_basis_th":"ไม่ทราบ","counted_in_access_set":null,"location_confidence":null,"modelled_floods_at_peak":false,"modelled_freeboard_m":null}},
  {"type":"Feature","geometry":{"type":"Point","coordinates":[99.856409,20.26375]},"properties":{"site_set":"candidate","id":"C060","name":"วัดสันกอง","name_en":null,"kind":"worship","osm_source":"OSM node/2172382588","modelled_eligible":true,"modelled_ineligible_reasons":"","coverage_rank":null,"in_knee_plan":false,"in_robust_core":false,"capacity_rank":null,"estimated_capacity":null,"capacity_basis":"unknown","capacity_basis_th":"ไม่ทราบ","counted_in_access_set":null,"location_confidence":null,"modelled_floods_at_peak":false,"modelled_freeboard_m":null}},
  {"type":"Feature","geometry":{"type":"Point","coordinates":[99.835101,20.269081]},"properties":{"site_set":"candidate","id":"C061","name":"วัดห้วยน้ำขุ่น","name_en":null,"kind":"worship","osm_source":"OSM node/2172382589","modelled_eligible":true,"modelled_ineligible_reasons":"","coverage_rank":null,"in_knee_plan":false,"in_robust_core":false,"capacity_rank":null,"estimated_capacity":null,"capacity_basis":"unknown","capacity_basis_th":"ไม่ทราบ","counted_in_access_set":null,"location_confidence":null,"modelled_floods_at_peak":false,"modelled_freeboard_m":null}},
  {"type":"Feature","geometry":{"type":"Point","coordinates":[99.851143,20.25998]},"properties":{"site_set":"candidate","id":"C062","name":"วัดห้วยไร่","name_en":null,"kind":"worship","osm_source":"OSM node/2172485095","modelled_eligible":false,"modelled_ineligible_reasons":"no_road_within_400m","coverage_rank":null,"in_knee_plan":false,"in_robust_core":false,"capacity_rank":null,"estimated_capacity":null,"capacity_basis":"unknown","capacity_basis_th":"ไม่ทราบ","counted_in_access_set":null,"location_confidence":null,"modelled_floods_at_peak":false,"modelled_freeboard_m":null}},
  {"type":"Feature","geometry":{"type":"Point","coordinates":[99.862579,20.274877]},"properties":{"site_set":"candidate","id":"C063","name":"สำนักงานเทศบาลตำบลห้วยไคร้","name_en":null,"kind":"government","osm_source":"OSM node/2174005760","modelled_eligible":true,"modelled_ineligible_reasons":"","coverage_rank":null,"in_knee_plan":false,"in_robust_core":false,"capacity_rank":null,"estimated_capacity":null,"capacity_basis":"unknown","capacity_basis_th":"ไม่ทราบ","counted_in_access_set":null,"location_confidence":null,"modelled_floods_at_peak":false,"modelled_freeboard_m":null}},
  {"type":"Feature","geometry":{"type":"Point","coordinates":[99.861776,20.276153]},"properties":{"site_set":"candidate","id":"C064","name":"โรงเรียนบ้านห้วยไคร้","name_en":null,"kind":"school","osm_source":"OSM node/2174005761","modelled_eligible":true,"modelled_ineligible_reasons":"","coverage_rank":null,"in_knee_plan":false,"in_robust_core":false,"capacity_rank":null,"estimated_capacity":null,"capacity_basis":"unknown","capacity_basis_th":"ไม่ทราบ","counted_in_access_set":null,"location_confidence":null,"modelled_floods_at_peak":false,"modelled_freeboard_m":null}},
  {"type":"Feature","geometry":{"type":"Point","coordinates":[99.863276,20.274356]},"properties":{"site_set":"candidate","id":"C065","name":"คริสตจักรประชากิตติสุข ภาคที่2","name_en":null,"kind":"worship","osm_source":"OSM node/2174011124","modelled_eligible":true,"modelled_ineligible_reasons":"","coverage_rank":null,"in_knee_plan":false,"in_robust_core":false,"capacity_rank":null,"estimated_capacity":null,"capacity_basis":"unknown","capacity_basis_th":"ไม่ทราบ","counted_in_access_set":null,"location_confidence":null,"modelled_floods_at_peak":false,"modelled_freeboard_m":null}},
  {"type":"Feature","geometry":{"type":"Point","coordinates":[99.863871,20.278874]},"properties":{"site_set":"candidate","id":"C066","name":"วัดห้วยไคร้หลวง","name_en":null,"kind":"worship","osm_source":"OSM node/2174022716","modelled_eligible":true,"modelled_ineligible_reasons":"","coverage_rank":null,"in_knee_plan":false,"in_robust_core":false,"capacity_rank":null,"estimated_capacity":null,"capacity_basis":"unknown","capacity_basis_th":"ไม่ทราบ","counted_in_access_set":null,"location_confidence":null,"modelled_floods_at_peak":false,"modelled_freeboard_m":null}},
  {"type":"Feature","geometry":{"type":"Point","coordinates":[99.881298,20.313034]},"properties":{"site_set":"candidate","id":"C067","name":"โรงเรียนบ้านโป่ง","name_en":null,"kind":"school","osm_source":"OSM node/2174067529","modelled_eligible":true,"modelled_ineligible_reasons":"","coverage_rank":null,"in_knee_plan":false,"in_robust_core":false,"capacity_rank":null,"estimated_capacity":null,"capacity_basis":"unknown","capacity_basis_th":"ไม่ทราบ","counted_in_access_set":null,"location_confidence":null,"modelled_floods_at_peak":false,"modelled_freeboard_m":null}},
  {"type":"Feature","geometry":{"type":"Point","coordinates":[99.885564,20.386877]},"properties":{"site_set":"candidate","id":"C068","name":"โรงเรียนบ้านน้ำจำ","name_en":null,"kind":"school","osm_source":"OSM node/2193414929","modelled_eligible":true,"modelled_ineligible_reasons":"","coverage_rank":null,"in_knee_plan":false,"in_robust_core":false,"capacity_rank":11,"estimated_capacity":null,"capacity_basis":"unknown","capacity_basis_th":"ไม่ทราบ","counted_in_access_set":null,"location_confidence":null,"modelled_floods_at_peak":false,"modelled_freeboard_m":null}},
  {"type":"Feature","geometry":{"type":"Point","coordinates":[99.884225,20.430311]},"properties":{"site_set":"candidate","id":"C069","name":"ตรวจคนเข้าเมืองจังหวัดเชียงราย","name_en":null,"kind":"government","osm_source":"OSM node/2193469948","modelled_eligible":true,"modelled_ineligible_reasons":"","coverage_rank":null,"in_knee_plan":false,"in_robust_core":false,"capacity_rank":null,"estimated_capacity":62,"capacity_basis":"OSM footprint x 0.5 / 3.5 m2 (Sphere), unverified","capacity_basis_th":"พื้นที่อาคารใน OSM x 0.5 / 3.5 ตร.ม. ต่อคน (Sphere) ยังไม่ได้ตรวจสอบ","counted_in_access_set":null,"location_confidence":null,"modelled_floods_at_peak":false,"modelled_freeboard_m":null}},
  {"type":"Feature","geometry":{"type":"Point","coordinates":[99.952821,20.382452]},"properties":{"site_set":"candidate","id":"C070","name":"โรงเรียนบ้านสันถนน","name_en":null,"kind":"school","osm_source":"OSM node/2207472330","modelled_eligible":true,"modelled_ineligible_reasons":"","coverage_rank":null,"in_knee_plan":false,"in_robust_core":false,"capacity_rank":12,"estimated_capacity":null,"capacity_basis":"unknown","capacity_basis_th":"ไม่ทราบ","counted_in_access_set":null,"location_confidence":null,"modelled_floods_at_peak":false,"modelled_freeboard_m":5.84}},
  {"type":"Feature","geometry":{"type":"Point","coordinates":[99.947379,20.385982]},"properties":{"site_set":"candidate","id":"C071","name":"วัดมรรคาราม","name_en":null,"kind":"worship","osm_source":"OSM node/2207485393","modelled_eligible":true,"modelled_ineligible_reasons":"","coverage_rank":12,"in_knee_plan":false,"in_robust_core":false,"capacity_rank":19,"estimated_capacity":null,"capacity_basis":"unknown","capacity_basis_th":"ไม่ทราบ","counted_in_access_set":null,"location_confidence":null,"modelled_floods_at_peak":false,"modelled_freeboard_m":5.9}},
  {"type":"Feature","geometry":{"type":"Point","coordinates":[99.934887,20.395432]},"properties":{"site_set":"candidate","id":"C072","name":"","name_en":null,"kind":"worship","osm_source":"OSM node/2207485396","modelled_eligible":true,"modelled_ineligible_reasons":"","coverage_rank":7,"in_knee_plan":true,"in_robust_core":true,"capacity_rank":20,"estimated_capacity":null,"capacity_basis":"unknown","capacity_basis_th":"ไม่ทราบ","counted_in_access_set":null,"location_confidence":null,"modelled_floods_at_peak":false,"modelled_freeboard_m":4.55}},
  {"type":"Feature","geometry":{"type":"Point","coordinates":[99.967213,20.3667]},"properties":{"site_set":"candidate","id":"C073","name":"โรงเรียนบ้านสันธาตุ","name_en":null,"kind":"school","osm_source":"OSM node/2207495991","modelled_eligible":true,"modelled_ineligible_reasons":"","coverage_rank":8,"in_knee_plan":true,"in_robust_core":false,"capacity_rank":4,"estimated_capacity":null,"capacity_basis":"unknown","capacity_basis_th":"ไม่ทราบ","counted_in_access_set":null,"location_confidence":null,"modelled_floods_at_peak":false,"modelled_freeboard_m":3.99}},
  {"type":"Feature","geometry":{"type":"Point","coordinates":[99.967402,20.367727]},"properties":{"site_set":"candidate","id":"C074","name":"วัดเจติยาราม(สันธาตุ)","name_en":null,"kind":"worship","osm_source":"OSM node/2207495992","modelled_eligible":true,"modelled_ineligible_reasons":"","coverage_rank":null,"in_knee_plan":false,"in_robust_core":false,"capacity_rank":21,"estimated_capacity":null,"capacity_basis":"unknown","capacity_basis_th":"ไม่ทราบ","counted_in_access_set":null,"location_confidence":null,"modelled_floods_at_peak":false,"modelled_freeboard_m":4.77}},
  {"type":"Feature","geometry":{"type":"Point","coordinates":[99.989259,20.26915]},"properties":{"site_set":"candidate","id":"C075","name":"โรงเรียนชุมชนบ้านป่าสักน้อย","name_en":null,"kind":"school","osm_source":"OSM node/2212090162","modelled_eligible":false,"modelled_ineligible_reasons":"no_road_within_400m","coverage_rank":null,"in_knee_plan":false,"in_robust_core":false,"capacity_rank":null,"estimated_capacity":null,"capacity_basis":"unknown","capacity_basis_th":"ไม่ทราบ","counted_in_access_set":null,"location_confidence":null,"modelled_floods_at_peak":false,"modelled_freeboard_m":null}},
  {"type":"Feature","geometry":{"type":"Point","coordinates":[99.989423,20.275642]},"properties":{"site_set":"candidate","id":"C076","name":"วัดป่าสักน้อย","name_en":null,"kind":"worship","osm_source":"OSM node/2212554069","modelled_eligible":false,"modelled_ineligible_reasons":"no_road_within_400m","coverage_rank":null,"in_knee_plan":false,"in_robust_core":false,"capacity_rank":null,"estimated_capacity":null,"capacity_basis":"unknown","capacity_basis_th":"ไม่ทราบ","counted_in_access_set":null,"location_confidence":null,"modelled_floods_at_peak":false,"modelled_freeboard_m":4.26}},
  {"type":"Feature","geometry":{"type":"Point","coordinates":[100.022846,20.285563]},"properties":{"site_set":"candidate","id":"C077","name":"วัดดอยจำปี","name_en":null,"kind":"worship","osm_source":"OSM node/2327229543","modelled_eligible":false,"modelled_ineligible_reasons":"no_road_within_400m","coverage_rank":null,"in_knee_plan":false,"in_robust_core":false,"capacity_rank":null,"estimated_capacity":null,"capacity_basis":"unknown","capacity_basis_th":"ไม่ทราบ","counted_in_access_set":null,"location_confidence":null,"modelled_floods_at_peak":false,"modelled_freeboard_m":null}},
  {"type":"Feature","geometry":{"type":"Point","coordinates":[99.983565,20.258763]},"properties":{"site_set":"candidate","id":"C078","name":"","name_en":null,"kind":"worship","osm_source":"OSM node/2327257129","modelled_eligible":false,"modelled_ineligible_reasons":"no_road_within_400m","coverage_rank":null,"in_knee_plan":false,"in_robust_core":false,"capacity_rank":null,"estimated_capacity":null,"capacity_basis":"unknown","capacity_basis_th":"ไม่ทราบ","counted_in_access_set":null,"location_confidence":null,"modelled_floods_at_peak":false,"modelled_freeboard_m":null}},
  {"type":"Feature","geometry":{"type":"Point","coordinates":[99.851848,20.39891]},"properties":{"site_set":"candidate","id":"C079","name":"","name_en":null,"kind":"school","osm_source":"OSM node/3218696030","modelled_eligible":true,"modelled_ineligible_reasons":"","coverage_rank":null,"in_knee_plan":false,"in_robust_core":false,"capacity_rank":null,"estimated_capacity":null,"capacity_basis":"unknown","capacity_basis_th":"ไม่ทราบ","counted_in_access_set":null,"location_confidence":null,"modelled_floods_at_peak":false,"modelled_freeboard_m":null}},
  {"type":"Feature","geometry":{"type":"Point","coordinates":[99.867546,20.419888]},"properties":{"site_set":"candidate","id":"C080","name":"เจดีย์วัดผาแตก","name_en":null,"kind":"worship","osm_source":"OSM node/3730218855","modelled_eligible":true,"modelled_ineligible_reasons":"","coverage_rank":null,"in_knee_plan":false,"in_robust_core":false,"capacity_rank":null,"estimated_capacity":null,"capacity_basis":"unknown","capacity_basis_th":"ไม่ทราบ","counted_in_access_set":null,"location_confidence":null,"modelled_floods_at_peak":false,"modelled_freeboard_m":null}},
  {"type":"Feature","geometry":{"type":"Point","coordinates":[99.88653,20.279687]},"properties":{"site_set":"candidate","id":"C081","name":"","name_en":null,"kind":"worship","osm_source":"OSM node/4527119261","modelled_eligible":true,"modelled_ineligible_reasons":"","coverage_rank":null,"in_knee_plan":false,"in_robust_core":false,"capacity_rank":null,"estimated_capacity":null,"capacity_basis":"unknown","capacity_basis_th":"ไม่ทราบ","counted_in_access_set":null,"location_confidence":null,"modelled_floods_at_peak":false,"modelled_freeboard_m":null}},
  {"type":"Feature","geometry":{"type":"Point","coordinates":[99.868845,20.299276]},"properties":{"site_set":"candidate","id":"C082","name":"","name_en":null,"kind":"worship","osm_source":"OSM node/4527119262","modelled_eligible":true,"modelled_ineligible_reasons":"","coverage_rank":null,"in_knee_plan":false,"in_robust_core":false,"capacity_rank":null,"estimated_capacity":null,"capacity_basis":"unknown","capacity_basis_th":"ไม่ทราบ","counted_in_access_set":null,"location_confidence":null,"modelled_floods_at_peak":false,"modelled_freeboard_m":null}},
  {"type":"Feature","geometry":{"type":"Point","coordinates":[99.882024,20.305946]},"properties":{"site_set":"candidate","id":"C083","name":"","name_en":null,"kind":"worship","osm_source":"OSM node/4527119263","modelled_eligible":true,"modelled_ineligible_reasons":"","coverage_rank":11,"in_knee_plan":false,"in_robust_core":false,"capacity_rank":22,"estimated_capacity":null,"capacity_basis":"unknown","capacity_basis_th":"ไม่ทราบ","counted_in_access_set":null,"location_confidence":null,"modelled_floods_at_peak":false,"modelled_freeboard_m":2.51}},
  {"type":"Feature","geometry":{"type":"Point","coordinates":[99.905982,20.354305]},"properties":{"site_set":"candidate","id":"C084","name":"วัดหนองอ้อ","name_en":null,"kind":"worship","osm_source":"OSM node/4527119264","modelled_eligible":true,"modelled_ineligible_reasons":"","coverage_rank":4,"in_knee_plan":true,"in_robust_core":true,"capacity_rank":23,"estimated_capacity":null,"capacity_basis":"unknown","capacity_basis_th":"ไม่ทราบ","counted_in_access_set":null,"location_confidence":null,"modelled_floods_at_peak":false,"modelled_freeboard_m":2.0}},
  {"type":"Feature","geometry":{"type":"Point","coordinates":[99.930782,20.369255]},"properties":{"site_set":"candidate","id":"C085","name":"","name_en":null,"kind":"worship","osm_source":"OSM node/4527119265","modelled_eligible":true,"modelled_ineligible_reasons":"","coverage_rank":10,"in_knee_plan":false,"in_robust_core":false,"capacity_rank":24,"estimated_capacity":null,"capacity_basis":"unknown","capacity_basis_th":"ไม่ทราบ","counted_in_access_set":null,"location_confidence":null,"modelled_floods_at_peak":false,"modelled_freeboard_m":2.81}},
  {"type":"Feature","geometry":{"type":"Point","coordinates":[99.886613,20.386671]},"properties":{"site_set":"candidate","id":"C086","name":"วัดน้ำจำ","name_en":null,"kind":"worship","osm_source":"OSM node/4527145792","modelled_eligible":true,"modelled_ineligible_reasons":"","coverage_rank":null,"in_knee_plan":false,"in_robust_core":false,"capacity_rank":null,"estimated_capacity":null,"capacity_basis":"unknown","capacity_basis_th":"ไม่ทราบ","counted_in_access_set":null,"location_confidence":null,"modelled_floods_at_peak":false,"modelled_freeboard_m":null}},
  {"type":"Feature","geometry":{"type":"Point","coordinates":[99.881734,20.44101]},"properties":{"site_set":"candidate","id":"C087","name":"Chao Por Tham Kob Shrine","name_en":null,"kind":"worship","osm_source":"OSM node/4713340389","modelled_eligible":true,"modelled_ineligible_reasons":"","coverage_rank":null,"in_knee_plan":false,"in_robust_core":false,"capacity_rank":null,"estimated_capacity":null,"capacity_basis":"unknown","capacity_basis_th":"ไม่ทราบ","counted_in_access_set":null,"location_confidence":null,"modelled_floods_at_peak":false,"modelled_freeboard_m":3.1}},
  {"type":"Feature","geometry":{"type":"Point","coordinates":[99.88703,20.446271]},"properties":{"site_set":"candidate","id":"C088","name":"","name_en":null,"kind":"worship","osm_source":"OSM node/4876388921","modelled_eligible":false,"modelled_ineligible_reasons":"floods_or_under_freeboard_at_peak","coverage_rank":null,"in_knee_plan":false,"in_robust_core":false,"capacity_rank":null,"estimated_capacity":null,"capacity_basis":"unknown","capacity_basis_th":"ไม่ทราบ","counted_in_access_set":null,"location_confidence":null,"modelled_floods_at_peak":true,"modelled_freeboard_m":-2.2}},
  {"type":"Feature","geometry":{"type":"Point","coordinates":[99.871823,20.315748]},"properties":{"site_set":"candidate","id":"C089","name":"","name_en":null,"kind":"worship","osm_source":"OSM node/4904993721","modelled_eligible":true,"modelled_ineligible_reasons":"","coverage_rank":null,"in_knee_plan":false,"in_robust_core":false,"capacity_rank":null,"estimated_capacity":null,"capacity_basis":"unknown","capacity_basis_th":"ไม่ทราบ","counted_in_access_set":null,"location_confidence":null,"modelled_floods_at_peak":false,"modelled_freeboard_m":null}},
  {"type":"Feature","geometry":{"type":"Point","coordinates":[99.855012,20.283718]},"properties":{"site_set":"candidate","id":"C090","name":"ถ้ำป่าสารภี","name_en":null,"kind":"worship","osm_source":"OSM node/6280453785","modelled_eligible":true,"modelled_ineligible_reasons":"","coverage_rank":null,"in_knee_plan":false,"in_robust_core":false,"capacity_rank":null,"estimated_capacity":null,"capacity_basis":"unknown","capacity_basis_th":"ไม่ทราบ","counted_in_access_set":null,"location_confidence":null,"modelled_floods_at_peak":false,"modelled_freeboard_m":null}},
  {"type":"Feature","geometry":{"type":"Point","coordinates":[99.862988,20.289682]},"properties":{"site_set":"candidate","id":"C091","name":"หมู่บ้านเก้าหลัง","name_en":null,"kind":"community","osm_source":"OSM node/6304951685","modelled_eligible":true,"modelled_ineligible_reasons":"","coverage_rank":null,"in_knee_plan":false,"in_robust_core":false,"capacity_rank":null,"estimated_capacity":null,"capacity_basis":"unknown","capacity_basis_th":"ไม่ทราบ","counted_in_access_set":null,"location_confidence":null,"modelled_floods_at_peak":false,"modelled_freeboard_m":null}},
  {"type":"Feature","geometry":{"type":"Point","coordinates":[99.838214,20.262966]},"properties":{"site_set":"candidate","id":"C092","name":"สำนักสงฆ์บ่อน้ำทิพย์","name_en":null,"kind":"worship","osm_source":"OSM node/6375494588","modelled_eligible":false,"modelled_ineligible_reasons":"no_road_within_400m","coverage_rank":null,"in_knee_plan":false,"in_robust_core":false,"capacity_rank":null,"estimated_capacity":null,"capacity_basis":"unknown","capacity_basis_th":"ไม่ทราบ","counted_in_access_set":null,"location_confidence":null,"modelled_floods_at_peak":false,"modelled_freeboard_m":null}},
  {"type":"Feature","geometry":{"type":"Point","coordinates":[100.029236,20.303123]},"properties":{"site_set":"candidate","id":"C093","name":"วัดสันมะเค็ด","name_en":null,"kind":"worship","osm_source":"OSM node/6395095387","modelled_eligible":false,"modelled_ineligible_reasons":"no_road_within_400m","coverage_rank":null,"in_knee_plan":false,"in_robust_core":false,"capacity_rank":null,"estimated_capacity":null,"capacity_basis":"unknown","capacity_basis_th":"ไม่ทราบ","counted_in_access_set":null,"location_confidence":null,"modelled_floods_at_peak":false,"modelled_freeboard_m":2.95}},
  {"type":"Feature","geometry":{"type":"Point","coordinates":[99.945429,20.324154]},"properties":{"site_set":"candidate","id":"C094","name":"วัดสันปูเลย","name_en":null,"kind":"worship","osm_source":"OSM node/6395095585","modelled_eligible":true,"modelled_ineligible_reasons":"","coverage_rank":5,"in_knee_plan":true,"in_robust_core":true,"capacity_rank":25,"estimated_capacity":null,"capacity_basis":"unknown","capacity_basis_th":"ไม่ทราบ","counted_in_access_set":null,"location_confidence":null,"modelled_floods_at_peak":false,"modelled_freeboard_m":2.72}},
  {"type":"Feature","geometry":{"type":"Point","coordinates":[99.972476,20.302501]},"properties":{"site_set":"candidate","id":"C095","name":"วัดศรีบุญยืน","name_en":null,"kind":"worship","osm_source":"OSM node/6395095586","modelled_eligible":false,"modelled_ineligible_reasons":"no_road_within_400m","coverage_rank":null,"in_knee_plan":false,"in_robust_core":false,"capacity_rank":null,"estimated_capacity":null,"capacity_basis":"unknown","capacity_basis_th":"ไม่ทราบ","counted_in_access_set":null,"location_confidence":null,"modelled_floods_at_peak":false,"modelled_freeboard_m":null}},
  {"type":"Feature","geometry":{"type":"Point","coordinates":[99.957555,20.306957]},"properties":{"site_set":"candidate","id":"C096","name":"วัดสะนสลี","name_en":null,"kind":"worship","osm_source":"OSM node/6395095587","modelled_eligible":true,"modelled_ineligible_reasons":"","coverage_rank":null,"in_knee_plan":false,"in_robust_core":false,"capacity_rank":null,"estimated_capacity":null,"capacity_basis":"unknown","capacity_basis_th":"ไม่ทราบ","counted_in_access_set":null,"location_confidence":null,"modelled_floods_at_peak":false,"modelled_freeboard_m":3.03}},
  {"type":"Feature","geometry":{"type":"Point","coordinates":[99.880146,20.44534]},"properties":{"site_set":"candidate","id":"C097","name":"","name_en":null,"kind":"government","osm_source":"OSM node/6633038095","modelled_eligible":false,"modelled_ineligible_reasons":"floods_or_under_freeboard_at_peak","coverage_rank":null,"in_knee_plan":false,"in_robust_core":false,"capacity_rank":null,"estimated_capacity":null,"capacity_basis":"unknown","capacity_basis_th":"ไม่ทราบ","counted_in_access_set":null,"location_confidence":null,"modelled_floods_at_peak":true,"modelled_freeboard_m":-0.75}},
  {"type":"Feature","geometry":{"type":"Point","coordinates":[99.833746,20.322795]},"properties":{"site_set":"candidate","id":"C098","name":"","name_en":null,"kind":"worship","osm_source":"OSM node/7257635224","modelled_eligible":true,"modelled_ineligible_reasons":"","coverage_rank":null,"in_knee_plan":false,"in_robust_core":false,"capacity_rank":null,"estimated_capacity":null,"capacity_basis":"unknown","capacity_basis_th":"ไม่ทราบ","counted_in_access_set":null,"location_confidence":null,"modelled_floods_at_peak":false,"modelled_freeboard_m":null}},
  {"type":"Feature","geometry":{"type":"Point","coordinates":[99.859456,20.273221]},"properties":{"site_set":"candidate","id":"C099","name":"โรงเรียนอนุบาลมานิตวิทยา","name_en":null,"kind":"school","osm_source":"OSM node/7358917586","modelled_eligible":true,"modelled_ineligible_reasons":"","coverage_rank":null,"in_knee_plan":false,"in_robust_core":false,"capacity_rank":null,"estimated_capacity":null,"capacity_basis":"unknown","capacity_basis_th":"ไม่ทราบ","counted_in_access_set":null,"location_confidence":null,"modelled_floods_at_peak":false,"modelled_freeboard_m":null}},
  {"type":"Feature","geometry":{"type":"Point","coordinates":[99.860195,20.271705]},"properties":{"site_set":"candidate","id":"C100","name":"โรงเรียนมานิตวิทยา","name_en":null,"kind":"school","osm_source":"OSM node/7358917985","modelled_eligible":true,"modelled_ineligible_reasons":"","coverage_rank":null,"in_knee_plan":false,"in_robust_core":false,"capacity_rank":null,"estimated_capacity":null,"capacity_basis":"unknown","capacity_basis_th":"ไม่ทราบ","counted_in_access_set":null,"location_confidence":null,"modelled_floods_at_peak":false,"modelled_freeboard_m":null}},
  {"type":"Feature","geometry":{"type":"Point","coordinates":[99.843705,20.276088]},"properties":{"site_set":"candidate","id":"C101","name":"วัดศาลาเชิงดอย","name_en":null,"kind":"worship","osm_source":"OSM node/7365786285","modelled_eligible":true,"modelled_ineligible_reasons":"","coverage_rank":null,"in_knee_plan":false,"in_robust_core":false,"capacity_rank":null,"estimated_capacity":null,"capacity_basis":"unknown","capacity_basis_th":"ไม่ทราบ","counted_in_access_set":null,"location_confidence":null,"modelled_floods_at_peak":false,"modelled_freeboard_m":null}},
  {"type":"Feature","geometry":{"type":"Point","coordinates":[100.021564,20.390653]},"properties":{"site_set":"candidate","id":"C102","name":"","name_en":null,"kind":"worship","osm_source":"OSM node/10179234653","modelled_eligible":false,"modelled_ineligible_reasons":"no_road_within_400m","coverage_rank":null,"in_knee_plan":false,"in_robust_core":false,"capacity_rank":null,"estimated_capacity":null,"capacity_basis":"unknown","capacity_basis_th":"ไม่ทราบ","counted_in_access_set":null,"location_confidence":null,"modelled_floods_at_peak":false,"modelled_freeboard_m":6.2}},
  {"type":"Feature","geometry":{"type":"Point","coordinates":[99.833304,20.326188]},"properties":{"site_set":"candidate","id":"C103","name":"","name_en":null,"kind":"worship","osm_source":"OSM node/11176962598","modelled_eligible":true,"modelled_ineligible_reasons":"","coverage_rank":null,"in_knee_plan":false,"in_robust_core":false,"capacity_rank":null,"estimated_capacity":null,"capacity_basis":"unknown","capacity_basis_th":"ไม่ทราบ","counted_in_access_set":null,"location_confidence":null,"modelled_floods_at_peak":false,"modelled_freeboard_m":null}},
  {"type":"Feature","geometry":{"type":"Point","coordinates":[100.018961,20.38808]},"properties":{"site_set":"candidate","id":"C104","name":"วัดพระธาตุดอยเวียงแก้ว(ครูบาบุญชุ่ม)","name_en":null,"kind":"worship","osm_source":"OSM node/12278753413","modelled_eligible":false,"modelled_ineligible_reasons":"no_road_within_400m","coverage_rank":null,"in_knee_plan":false,"in_robust_core":false,"capacity_rank":null,"estimated_capacity":null,"capacity_basis":"unknown","capacity_basis_th":"ไม่ทราบ","counted_in_access_set":null,"location_confidence":null,"modelled_floods_at_peak":false,"modelled_freeboard_m":null}},
  {"type":"Feature","geometry":{"type":"Point","coordinates":[100.027728,20.377875]},"properties":{"site_set":"candidate","id":"C105","name":"โรงเรียนบ้านเวียงแก้ว","name_en":null,"kind":"school","osm_source":"OSM node/13323496101","modelled_eligible":false,"modelled_ineligible_reasons":"no_road_within_400m","coverage_rank":null,"in_knee_plan":false,"in_robust_core":false,"capacity_rank":null,"estimated_capacity":null,"capacity_basis":"unknown","capacity_basis_th":"ไม่ทราบ","counted_in_access_set":null,"location_confidence":null,"modelled_floods_at_peak":false,"modelled_freeboard_m":2.55}},
  {"type":"Feature","geometry":{"type":"Point","coordinates":[100.022357,20.37678]},"properties":{"site_set":"candidate","id":"C106","name":"วัดเวียงแก้ว","name_en":null,"kind":"worship","osm_source":"OSM node/13325166201","modelled_eligible":false,"modelled_ineligible_reasons":"no_road_within_400m","coverage_rank":null,"in_knee_plan":false,"in_robust_core":false,"capacity_rank":null,"estimated_capacity":null,"capacity_basis":"unknown","capacity_basis_th":"ไม่ทราบ","counted_in_access_set":null,"location_confidence":null,"modelled_floods_at_peak":false,"modelled_freeboard_m":null}},
  {"type":"Feature","geometry":{"type":"Point","coordinates":[99.987367,20.367975]},"properties":{"site_set":"candidate","id":"C107","name":"สำนักงานองค์การบริหารส่วนตำบลศรีเมืองชุม","name_en":null,"kind":"government","osm_source":"OSM node/13325257201","modelled_eligible":true,"modelled_ineligible_reasons":"","coverage_rank":3,"in_knee_plan":true,"in_robust_core":false,"capacity_rank":15,"estimated_capacity":null,"capacity_basis":"unknown","capacity_basis_th":"ไม่ทราบ","counted_in_access_set":null,"location_confidence":null,"modelled_floods_at_peak":false,"modelled_freeboard_m":0.75}},
  {"type":"Feature","geometry":{"type":"Point","coordinates":[99.988879,20.365272]},"properties":{"site_set":"candidate","id":"C108","name":"โรงเรียนสอนคนตาบอดแม่สาย","name_en":null,"kind":"school","osm_source":"OSM node/13325258501","modelled_eligible":false,"modelled_ineligible_reasons":"floods_or_under_freeboard_at_peak","coverage_rank":null,"in_knee_plan":false,"in_robust_core":false,"capacity_rank":null,"estimated_capacity":null,"capacity_basis":"unknown","capacity_basis_th":"ไม่ทราบ","counted_in_access_set":null,"location_confidence":null,"modelled_floods_at_peak":true,"modelled_freeboard_m":-1.51}},
  {"type":"Feature","geometry":{"type":"Point","coordinates":[99.847065,20.398914]},"properties":{"site_set":"candidate","id":"C109","name":"ศูนย์ปฏิบัติการ ชรบ.อพปร.บ้านผาหมี","name_en":null,"kind":"community","osm_source":"OSM node/13334892601","modelled_eligible":true,"modelled_ineligible_reasons":"","coverage_rank":null,"in_knee_plan":false,"in_robust_core":false,"capacity_rank":null,"estimated_capacity":null,"capacity_basis":"unknown","capacity_basis_th":"ไม่ทราบ","counted_in_access_set":null,"location_confidence":null,"modelled_floods_at_peak":false,"modelled_freeboard_m":null}},
  {"type":"Feature","geometry":{"type":"Point","coordinates":[99.851017,20.399391]},"properties":{"site_set":"candidate","id":"C110","name":"ศูนย์ชุมชนบ้านผาหมี","name_en":null,"kind":"community","osm_source":"OSM node/13334924301","modelled_eligible":true,"modelled_ineligible_reasons":"","coverage_rank":null,"in_knee_plan":false,"in_robust_core":false,"capacity_rank":null,"estimated_capacity":null,"capacity_basis":"unknown","capacity_basis_th":"ไม่ทราบ","counted_in_access_set":null,"location_confidence":null,"modelled_floods_at_peak":false,"modelled_freeboard_m":null}},
  {"type":"Feature","geometry":{"type":"Point","coordinates":[99.827599,20.350611]},"properties":{"site_set":"candidate","id":"C111","name":"ศูนย์การเรียนรู้ชาวไทยภูเขาบ้านเผาฮี้","name_en":null,"kind":"community","osm_source":"OSM node/13337290901","modelled_eligible":true,"modelled_ineligible_reasons":"","coverage_rank":null,"in_knee_plan":false,"in_robust_core":false,"capacity_rank":null,"estimated_capacity":null,"capacity_basis":"unknown","capacity_basis_th":"ไม่ทราบ","counted_in_access_set":null,"location_confidence":null,"modelled_floods_at_peak":false,"modelled_freeboard_m":null}},
  {"type":"Feature","geometry":{"type":"Point","coordinates":[99.870994,20.425939]},"properties":{"site_set":"candidate","id":"C112","name":"","name_en":null,"kind":"worship","osm_source":"OSM node/13518302219","modelled_eligible":true,"modelled_ineligible_reasons":"","coverage_rank":null,"in_knee_plan":false,"in_robust_core":false,"capacity_rank":null,"estimated_capacity":null,"capacity_basis":"unknown","capacity_basis_th":"ไม่ทราบ","counted_in_access_set":null,"location_confidence":null,"modelled_floods_at_peak":false,"modelled_freeboard_m":null}},
  {"type":"Feature","geometry":{"type":"Point","coordinates":[99.872797,20.436413]},"properties":{"site_set":"candidate","id":"C113","name":"สวนปฏิบัติธรรมดอยช้าง-งู","name_en":null,"kind":"worship","osm_source":"OSM node/13844545401","modelled_eligible":true,"modelled_ineligible_reasons":"","coverage_rank":null,"in_knee_plan":false,"in_robust_core":false,"capacity_rank":null,"estimated_capacity":null,"capacity_basis":"unknown","capacity_basis_th":"ไม่ทราบ","counted_in_access_set":null,"location_confidence":null,"modelled_floods_at_peak":false,"modelled_freeboard_m":null}},
  {"type":"Feature","geometry":{"type":"Point","coordinates":[99.8843199,20.4265331]},"properties":{"site_set":"reported_2024","id":"R01","name":"ศูนย์พักพิงเทศบาลตำบลแม่สาย (สำนักงานเทศบาลตำบลแม่สาย)","name_en":"Mae Sai Subdistrict Municipality Office shelter and relief centre","kind":"government_office","osm_source":null,"modelled_eligible":null,"modelled_ineligible_reasons":null,"coverage_rank":null,"in_knee_plan":null,"in_robust_core":null,"capacity_rank":null,"estimated_capacity":null,"capacity_basis":null,"capacity_basis_th":null,"counted_in_access_set":true,"location_confidence":"high","modelled_floods_at_peak":false,"modelled_freeboard_m":null}},
  {"type":"Feature","geometry":{"type":"Point","coordinates":[99.8799546,20.4266647]},"properties":{"site_set":"reported_2024","id":"R02","name":"ศูนย์พักพิงชั่วคราว วัดพรหมวิหาร","name_en":"Wat Phrom Wihan temporary shelter","kind":"temple","osm_source":null,"modelled_eligible":null,"modelled_ineligible_reasons":null,"coverage_rank":null,"in_knee_plan":null,"in_robust_core":null,"capacity_rank":null,"estimated_capacity":null,"capacity_basis":null,"capacity_basis_th":null,"counted_in_access_set":true,"location_confidence":"high","modelled_floods_at_peak":false,"modelled_freeboard_m":null}},
  {"type":"Feature","geometry":{"type":"Point","coordinates":[99.8734839,20.4418139]},"properties":{"site_set":"reported_2024","id":"R03","name":"ศูนย์พักพิงวัดถ้ำผาจม","name_en":"Wat Tham Pha Chom shelter","kind":"temple","osm_source":null,"modelled_eligible":null,"modelled_ineligible_reasons":null,"coverage_rank":null,"in_knee_plan":null,"in_robust_core":null,"capacity_rank":null,"estimated_capacity":null,"capacity_basis":null,"capacity_basis_th":null,"counted_in_access_set":true,"location_confidence":"high","modelled_floods_at_peak":false,"modelled_freeboard_m":null}},
  {"type":"Feature","geometry":{"type":"Point","coordinates":[99.8922898,20.4374279]},"properties":{"site_set":"reported_2024","id":"R04","name":"ศูนย์พักพิงวัดเหมืองแดง","name_en":"Wat Mueang Daeng shelter","kind":"temple","osm_source":null,"modelled_eligible":null,"modelled_ineligible_reasons":null,"coverage_rank":null,"in_knee_plan":null,"in_robust_core":null,"capacity_rank":null,"estimated_capacity":null,"capacity_basis":null,"capacity_basis_th":null,"counted_in_access_set":false,"location_confidence":"high","modelled_floods_at_peak":false,"modelled_freeboard_m":3.85}},
  {"type":"Feature","geometry":{"type":"Point","coordinates":[99.8832196,20.4281122]},"properties":{"site_set":"reported_2024","id":"R05","name":"ที่ว่าการอำเภอแม่สาย (ศูนย์บัญชาการเหตุการณ์ฯ / โรงครัว)","name_en":"Mae Sai District Office (incident command centre and relief kitchens)","kind":"government_office","osm_source":null,"modelled_eligible":null,"modelled_ineligible_reasons":null,"coverage_rank":null,"in_knee_plan":null,"in_robust_core":null,"capacity_rank":null,"estimated_capacity":null,"capacity_basis":null,"capacity_basis_th":null,"counted_in_access_set":false,"location_confidence":"high","modelled_floods_at_peak":false,"modelled_freeboard_m":null}},
  {"type":"Feature","geometry":{"type":"Point","coordinates":[99.9134634,20.4400387]},"properties":{"site_set":"reported_2024","id":"R06","name":"ศูนย์พักพิงเทศบาลตำบลแม่สายมิตรภาพ","name_en":"Mae Sai Mittraphap Subdistrict Municipality shelter","kind":"government_office","osm_source":null,"modelled_eligible":null,"modelled_ineligible_reasons":null,"coverage_rank":null,"in_knee_plan":null,"in_robust_core":null,"capacity_rank":null,"estimated_capacity":null,"capacity_basis":null,"capacity_basis_th":null,"counted_in_access_set":true,"location_confidence":"low","modelled_floods_at_peak":false,"modelled_freeboard_m":2.7}},
  {"type":"Feature","geometry":{"type":"Point","coordinates":[99.886613,20.3866708]},"properties":{"site_set":"reported_2024","id":"R07","name":"ศูนย์พักพิงวัดน้ำจำ","name_en":"Wat Nam Cham shelter","kind":"temple","osm_source":null,"modelled_eligible":null,"modelled_ineligible_reasons":null,"coverage_rank":null,"in_knee_plan":null,"in_robust_core":null,"capacity_rank":null,"estimated_capacity":null,"capacity_basis":null,"capacity_basis_th":null,"counted_in_access_set":true,"location_confidence":"high","modelled_floods_at_peak":false,"modelled_freeboard_m":null}},
  {"type":"Feature","geometry":{"type":"Point","coordinates":[99.8852323,20.3785453]},"properties":{"site_set":"reported_2024","id":"R08","name":"ศูนย์พักพิงหอประชุม อบต.โป่งผา","name_en":"Pong Pha SAO assembly hall shelter","kind":"stadium_or_hall","osm_source":null,"modelled_eligible":null,"modelled_ineligible_reasons":null,"coverage_rank":null,"in_knee_plan":null,"in_robust_core":null,"capacity_rank":null,"estimated_capacity":null,"capacity_basis":null,"capacity_basis_th":null,"counted_in_access_set":true,"location_confidence":"medium","modelled_floods_at_peak":false,"modelled_freeboard_m":null}},
  {"type":"Feature","geometry":{"type":"Point","coordinates":[99.892,20.3256]},"properties":{"site_set":"reported_2024","id":"R10","name":"ศูนย์พักพิงวัดมงคลธรรมกายาราม","name_en":"Wat Mongkhon Thammakayaram shelter","kind":"temple","osm_source":null,"modelled_eligible":null,"modelled_ineligible_reasons":null,"coverage_rank":null,"in_knee_plan":null,"in_robust_core":null,"capacity_rank":null,"estimated_capacity":null,"capacity_basis":null,"capacity_basis_th":null,"counted_in_access_set":true,"location_confidence":"high","modelled_floods_at_peak":false,"modelled_freeboard_m":null}},
  {"type":"Feature","geometry":{"type":"Point","coordinates":[99.9674018,20.3677273]},"properties":{"site_set":"reported_2024","id":"R11","name":"ศูนย์พักพิงวัดเจติยาราม / วัดสันธาตุ","name_en":"Wat Chetiyaram (Wat San That) shelter","kind":"temple","osm_source":null,"modelled_eligible":null,"modelled_ineligible_reasons":null,"coverage_rank":null,"in_knee_plan":null,"in_robust_core":null,"capacity_rank":null,"estimated_capacity":null,"capacity_basis":null,"capacity_basis_th":null,"counted_in_access_set":true,"location_confidence":"high","modelled_floods_at_peak":false,"modelled_freeboard_m":4.77}},
  {"type":"Feature","geometry":{"type":"Point","coordinates":[99.943898,20.428004]},"properties":{"site_set":"reported_2024","id":"R12","name":"ศูนย์พักพิงวัดหิรัญญาวาส","name_en":"Wat Hiranyawat shelter","kind":"temple","osm_source":null,"modelled_eligible":null,"modelled_ineligible_reasons":null,"coverage_rank":null,"in_knee_plan":null,"in_robust_core":null,"capacity_rank":null,"estimated_capacity":null,"capacity_basis":null,"capacity_basis_th":null,"counted_in_access_set":true,"location_confidence":"medium","modelled_floods_at_peak":false,"modelled_freeboard_m":null}},
  {"type":"Feature","geometry":{"type":"Point","coordinates":[99.9551471,20.4396879]},"properties":{"site_set":"reported_2024","id":"R15","name":"ศูนย์พักพิงบ้านป่าแดง","name_en":"Ban Pa Daeng (village) shelter","kind":"other","osm_source":null,"modelled_eligible":null,"modelled_ineligible_reasons":null,"coverage_rank":null,"in_knee_plan":null,"in_robust_core":null,"capacity_rank":null,"estimated_capacity":null,"capacity_basis":null,"capacity_basis_th":null,"counted_in_access_set":true,"location_confidence":"low","modelled_floods_at_peak":false,"modelled_freeboard_m":null}},
  {"type":"Feature","geometry":{"type":"Point","coordinates":[99.8321376,20.3613384]},"properties":{"site_set":"reported_2024","id":"R16","name":"ศูนย์พักพิงโบสถ์คริสต์บ้านผาฮี้ (15 ก.ย. ระบุเพียง 'โบสถ์คริสต์')","name_en":"Christian church shelter, Ban Pha Hi","kind":"other","osm_source":null,"modelled_eligible":null,"modelled_ineligible_reasons":null,"coverage_rank":null,"in_knee_plan":null,"in_robust_core":null,"capacity_rank":null,"estimated_capacity":null,"capacity_basis":null,"capacity_basis_th":null,"counted_in_access_set":true,"location_confidence":"low","modelled_floods_at_peak":false,"modelled_freeboard_m":null}},
  {"type":"Feature","geometry":{"type":"Point","coordinates":[99.9675875,20.4097369]},"properties":{"site_set":"reported_2024","id":"R18","name":"ศูนย์พักพิงวัดสันหลวง","name_en":"Wat San Luang shelter","kind":"temple","osm_source":null,"modelled_eligible":null,"modelled_ineligible_reasons":null,"coverage_rank":null,"in_knee_plan":null,"in_robust_core":null,"capacity_rank":null,"estimated_capacity":null,"capacity_basis":null,"capacity_basis_th":null,"counted_in_access_set":true,"location_confidence":"low","modelled_floods_at_peak":false,"modelled_freeboard_m":7.25}},
  {"type":"Feature","geometry":{"type":"Point","coordinates":[99.900292,20.382234]},"properties":{"site_set":"reported_2024","id":"R19","name":"ศูนย์พักพิงบ้านเอื้ออาทรแม่สาย 1 (ในความดูแลของกระทรวง พม.)","name_en":"Baan Ua-Arthorn Mae Sai 1 housing project shelter (Ministry of Social Development and Human Security, MSDHS)","kind":"other","osm_source":null,"modelled_eligible":null,"modelled_ineligible_reasons":null,"coverage_rank":null,"in_knee_plan":null,"in_robust_core":null,"capacity_rank":null,"estimated_capacity":null,"capacity_basis":null,"capacity_basis_th":null,"counted_in_access_set":false,"location_confidence":"low","modelled_floods_at_peak":false,"modelled_freeboard_m":null}}
 ]
}
