{
  "type": "FeatureCollection",
  "name": "aoi-05_chao_phraya_bang_ban_sena",
  "crs": {
    "type": "name",
    "properties": {
      "name": "urn:ogc:def:crs:OGC:1.3:CRS84"
    }
  },
  "features": [
    {
      "type": "Feature",
      "properties": {
        "aoi_id": "AOI-05",
        "slug": "chao_phraya_bang_ban_sena",
        "name": "Lower Chao Phraya - Bang Ban / Sena, Phra Nakhon Si Ayutthaya",
        "name_th": "บางบาล / เสนา จังหวัดพระนครศรีอยุธยา",
        "priority": "P1",
        "event_id": "chao_phraya_2024",
        "event_name": "Lower Chao Phraya seasonal flooding, 2024 and 2025",
        "province": "Phra Nakhon Si Ayutthaya",
        "district": "Bang Ban and Sena",
        "adm3_covered": "Bang Ban and Sena subdistricts on the Chao Phraya / Noi River reach",
        "derivation": "Newly proposed for this request. Not yet present in committed FloodGuard evidence. Selected because this reach of the lower Chao Phraya floods almost every monsoon and is a flat alluvial floodplain.",
        "purpose": "Third development event with a genuinely different hydrology, and the only AOI in this request where near-clear optical imagery during the flood season is confirmed to exist.",
        "bbox_wgs84": [
          100.4,
          14.25,
          100.52,
          14.37
        ],
        "approx_width_km": 12.9,
        "approx_height_km": 13.3,
        "approx_area_sq_km": 171.6,
        "approx_theos2_pms_scenes": 4,
        "requested_windows": [
          {
            "window_id": "W1-event-2024",
            "label": "Flood event window 2024",
            "start": "2024-10-07",
            "end": "2024-11-15",
            "max_cloud_pct": 25,
            "portal_scene_cloud_filter_pct": 75,
            "expectation": "high",
            "revision": "narrowed and cloud limit lowered from 80%",
            "measured_evidence": "2024-11-11 at 6.5% AOI cloud (AOI-05) and 0.8% (AOI-06); 2024-10-12 at 11.2%; 2024-10-17 at 13.8%.",
            "note": "The best flood-period optical opportunity in this request. Clear imagery during the flood season demonstrably exists here, which is not true for Mae Sai or Hat Yai."
          },
          {
            "window_id": "W2-event-2025",
            "label": "Flood event window 2025",
            "start": "2025-10-15",
            "end": "2025-11-20",
            "max_cloud_pct": 70,
            "portal_scene_cloud_filter_pct": 90,
            "expectation": "low",
            "revision": "narrowed, cloud limit lowered, priority reduced",
            "measured_evidence": "2025 was markedly cloudier. AOI-06 best 2025-11-16 at 3.4% and 2025-10-22 at 17.5%; AOI-05 best in-window only 42.7%.",
            "note": "Second seasonal repeat, useful as an independent event fold, but clearly lower value than the 2024 window."
          },
          {
            "window_id": "W3-dry",
            "label": "Dry-season clear baseline",
            "start": "2025-01-15",
            "end": "2025-02-20",
            "max_cloud_pct": 10,
            "portal_scene_cloud_filter_pct": 55,
            "expectation": "very_high",
            "revision": "narrowed from 2025-01-01 to 2025-03-31",
            "measured_evidence": "2025-02-04 at 0.1%, 2025-02-19 at 0.1%, 2025-02-14 at 0.2%, 2025-01-20 at 0.3% AOI cloud (AOI-06).",
            "note": "Central plain dry season; clear acquisitions are near certain."
          }
        ],
        "project": "FloodGuard Thailand",
        "request_id": "FG-THEOS2-REQ-001",
        "request_version": "v2-cloud-scouted",
        "requested_on": "2026-09-17",
        "crs": "EPSG:4326 (WGS84)",
        "preferred_product": "ORTHO PMS, 4-band (B/G/R/NIR)",
        "cloud_metric": "max_cloud_pct is the AOI-clipped Sentinel-2 SCL measurement from scripts/scout_theos2_aoi_cloud.py and is what determines whether an acquisition is usable. portal_scene_cloud_filter_pct is the scene-level value to enter in the GISTDA ordering portal, which filters over the whole satellite footprint rather than the AOI; entering the AOI value there would discard usable dates. See outputs/theos2_aoi_cloud_scout.csv and outputs/theos2_portal_cloud_thresholds.csv.",
        "operational_status": "non_operational_research_prototype",
        "official_warning": false,
        "redistribution_intent": "None. Imagery stays in a controlled workspace outside version control. Only derived, checksum-tracked evidence is committed."
      },
      "geometry": {
        "type": "Polygon",
        "coordinates": [
          [
            [
              100.4,
              14.25
            ],
            [
              100.52,
              14.25
            ],
            [
              100.52,
              14.37
            ],
            [
              100.4,
              14.37
            ],
            [
              100.4,
              14.25
            ]
          ]
        ]
      }
    }
  ]
}
