{
  "type": "FeatureCollection",
  "features": [
    {
      "type": "Feature",
      "properties": {
        "name": "AOI-01 mae sai core"
      },
      "geometry": {
        "type": "Polygon",
        "coordinates": [
          [
            [
              99.8384,
              20.3705
            ],
            [
              99.9441,
              20.3705
            ],
            [
              99.9441,
              20.4563
            ],
            [
              99.8384,
              20.4563
            ],
            [
              99.8384,
              20.3705
            ]
          ]
        ]
      }
    }
  ]
}
