{
  "type": "FeatureCollection",
  "features": [
    {
      "type": "Feature",
      "properties": {
        "name": "AOI-02 mae sai district"
      },
      "geometry": {
        "type": "Polygon",
        "coordinates": [
          [
            [
              99.8107,
              20.2577
            ],
            [
              100.0368,
              20.2577
            ],
            [
              100.0368,
              20.4651
            ],
            [
              99.8107,
              20.4651
            ],
            [
              99.8107,
              20.2577
            ]
          ]
        ]
      }
    }
  ]
}
