{"type":"FeatureCollection","name":"mae_sai_modeled_access_hotspots","features":[{"type":"Feature","properties":{"subdistrict_id":"TH570901","subdistrict_name":"Mae Sai","people_losing_15_min_access":960.018,"people_losing_30_min_access":0.0,"people_losing_60_min_access":0.0,"equity_gap_ratio":1.0,"candidate_status":"no_modeled_30_minute_loss","confidence_class":"low","source_timestamp":"2024-09-15T23:16:01Z","assumptions":"Candidate OSM routing with heuristic Sentinel-1 road disruption. OSM shelters/facilities are unverified candidates, not official emergency sites.","warning_text":"Modeled access-loss candidate only. Not an observed service outage and not an official warning."},"geometry":{"type":"Point","coordinates":[99.91422181147612,20.430647286407474]}},{"type":"Feature","properties":{"subdistrict_id":"TH570902","subdistrict_name":"Huai Khrai","people_losing_15_min_access":718.017,"people_losing_30_min_access":0.0,"people_losing_60_min_access":0.0,"equity_gap_ratio":1.0,"candidate_status":"no_modeled_30_minute_loss","confidence_class":"low","source_timestamp":"2024-09-15T23:16:01Z","assumptions":"Candidate OSM routing with heuristic Sentinel-1 road disruption. OSM shelters/facilities are unverified candidates, not official emergency sites.","warning_text":"Modeled access-loss candidate only. Not an observed service outage and not an official warning."},"geometry":{"type":"Point","coordinates":[99.8642256840784,20.292253307434308]}},{"type":"Feature","properties":{"subdistrict_id":"TH570903","subdistrict_name":"Ko Chang","people_losing_15_min_access":4377.993,"people_losing_30_min_access":189.949,"people_losing_60_min_access":0.0,"equity_gap_ratio":2.018,"candidate_status":"modeled_access_loss_candidate","confidence_class":"low","source_timestamp":"2024-09-15T23:16:01Z","assumptions":"Candidate OSM routing with heuristic Sentinel-1 road disruption. OSM shelters/facilities are unverified candidates, not official emergency sites.","warning_text":"Modeled access-loss candidate only. Not an observed service outage and not an official warning."},"geometry":{"type":"Point","coordinates":[99.97635271864374,20.418617446010654]}},{"type":"Feature","properties":{"subdistrict_id":"TH570904","subdistrict_name":"Pong Pha","people_losing_15_min_access":74.812,"people_losing_30_min_access":0.0,"people_losing_60_min_access":0.0,"equity_gap_ratio":1.0,"candidate_status":"no_modeled_30_minute_loss","confidence_class":"low","source_timestamp":"2024-09-15T23:16:01Z","assumptions":"Candidate OSM routing with heuristic Sentinel-1 road disruption. OSM shelters/facilities are unverified candidates, not official emergency sites.","warning_text":"Modeled access-loss candidate only. Not an observed service outage and not an official warning."},"geometry":{"type":"Point","coordinates":[99.89137727043838,20.366601766099144]}},{"type":"Feature","properties":{"subdistrict_id":"TH570905","subdistrict_name":"Si Mueang Chum","people_losing_15_min_access":363.63,"people_losing_30_min_access":0.0,"people_losing_60_min_access":0.0,"equity_gap_ratio":1.0,"candidate_status":"no_modeled_30_minute_loss","confidence_class":"low","source_timestamp":"2024-09-15T23:16:01Z","assumptions":"Candidate OSM routing with heuristic Sentinel-1 road disruption. OSM shelters/facilities are unverified candidates, not official emergency sites.","warning_text":"Modeled access-loss candidate only. Not an observed service outage and not an official warning."},"geometry":{"type":"Point","coordinates":[99.95717307362709,20.378143793119577]}},{"type":"Feature","properties":{"subdistrict_id":"TH570906","subdistrict_name":"Wiang Phang Kham","people_losing_15_min_access":0.0,"people_losing_30_min_access":0.0,"people_losing_60_min_access":0.0,"equity_gap_ratio":1.0,"candidate_status":"no_modeled_30_minute_loss","confidence_class":"low","source_timestamp":"2024-09-15T23:16:01Z","assumptions":"Candidate OSM routing with heuristic Sentinel-1 road disruption. OSM shelters/facilities are unverified candidates, not official emergency sites.","warning_text":"Modeled access-loss candidate only. Not an observed service outage and not an official warning."},"geometry":{"type":"Point","coordinates":[99.87529473615751,20.408658898495897]}},{"type":"Feature","properties":{"subdistrict_id":"TH570908","subdistrict_name":"Ban Dai","people_losing_15_min_access":852.439,"people_losing_30_min_access":0.0,"people_losing_60_min_access":0.0,"equity_gap_ratio":1.0,"candidate_status":"no_modeled_30_minute_loss","confidence_class":"low","source_timestamp":"2024-09-15T23:16:01Z","assumptions":"Candidate OSM routing with heuristic Sentinel-1 road disruption. OSM shelters/facilities are unverified candidates, not official emergency sites.","warning_text":"Modeled access-loss candidate only. Not an observed service outage and not an official warning."},"geometry":{"type":"Point","coordinates":[99.93594283601195,20.316230211617118]}},{"type":"Feature","properties":{"subdistrict_id":"TH570909","subdistrict_name":"Pong Ngam","people_losing_15_min_access":616.773,"people_losing_30_min_access":0.0,"people_losing_60_min_access":0.0,"equity_gap_ratio":1.0,"candidate_status":"no_modeled_30_minute_loss","confidence_class":"low","source_timestamp":"2024-09-15T23:16:01Z","assumptions":"Candidate OSM routing with heuristic Sentinel-1 road disruption. OSM shelters/facilities are unverified candidates, not official emergency sites.","warning_text":"Modeled access-loss candidate only. Not an observed service outage and not an official warning."},"geometry":{"type":"Point","coordinates":[99.86693184136281,20.333877947505247]}}]}