{"type":"FeatureCollection","name":"mae_sai_candidate_facilities","features":[{"type":"Feature","properties":{"facility_id":"OSM-11566575669","facility_type":"shelter_candidate","facility_name":"","amenity":"shelter","subdistrict_id":"TH570909","subdistrict_name":"Pong Ngam","snap_distance_m":3.2,"candidate_status":"unverified_osm_candidate","confidence_class":"low","source_name":"OpenStreetMap Thailand via Geofabrik","source_timestamp":"2026-07-09T14:53:08Z","assumptions":"OSM-tagged candidate facility; not verified as an official emergency shelter or currently operating service.","warning_text":"Candidate facility context only. Not a confirmed emergency facility or shelter."},"geometry":{"type":"Point","coordinates":[99.826353,20.3509601]}},{"type":"Feature","properties":{"facility_id":"OSM-13325258501","facility_type":"school","facility_name":"โรงเรียนสอนคนตาบอดแม่สาย","amenity":"school","subdistrict_id":"TH570905","subdistrict_name":"Si Mueang Chum","snap_distance_m":15.3,"candidate_status":"unverified_osm_candidate","confidence_class":"low","source_name":"OpenStreetMap Thailand via Geofabrik","source_timestamp":"2026-07-09T14:53:08Z","assumptions":"OSM-tagged candidate facility; not verified as an official emergency shelter or currently operating service.","warning_text":"Candidate facility context only. Not a confirmed emergency facility or shelter."},"geometry":{"type":"Point","coordinates":[99.988879,20.3652724]}},{"type":"Feature","properties":{"facility_id":"OSM-13327552901","facility_type":"emergency_service","facility_name":"ตำรวจหน่วยบริการประชาชนบายพาส","amenity":"police","subdistrict_id":"TH570901","subdistrict_name":"Mae Sai","snap_distance_m":54.4,"candidate_status":"unverified_osm_candidate","confidence_class":"low","source_name":"OpenStreetMap Thailand via Geofabrik","source_timestamp":"2026-07-09T14:53:08Z","assumptions":"OSM-tagged candidate facility; not verified as an official emergency shelter or currently operating service.","warning_text":"Candidate facility context only. Not a confirmed emergency facility or shelter."},"geometry":{"type":"Point","coordinates":[99.9151215,20.4103767]}},{"type":"Feature","properties":{"facility_id":"OSM-13334892601","facility_type":"community_facility","facility_name":"ศูนย์ปฏิบัติการ ชรบ.อพปร.บ้านผาหมี","amenity":"community_centre","subdistrict_id":"TH570906","subdistrict_name":"Wiang Phang Kham","snap_distance_m":10.4,"candidate_status":"unverified_osm_candidate","confidence_class":"low","source_name":"OpenStreetMap Thailand via Geofabrik","source_timestamp":"2026-07-09T14:53:08Z","assumptions":"OSM-tagged candidate facility; not verified as an official emergency shelter or currently operating service.","warning_text":"Candidate facility context only. Not a confirmed emergency facility or shelter."},"geometry":{"type":"Point","coordinates":[99.847065,20.3989143]}},{"type":"Feature","properties":{"facility_id":"OSM-13334924301","facility_type":"community_facility","facility_name":"ศูนย์ชุมชนบ้านผาหมี","amenity":"community_centre","subdistrict_id":"TH570906","subdistrict_name":"Wiang Phang Kham","snap_distance_m":13.7,"candidate_status":"unverified_osm_candidate","confidence_class":"low","source_name":"OpenStreetMap Thailand via Geofabrik","source_timestamp":"2026-07-09T14:53:08Z","assumptions":"OSM-tagged candidate facility; not verified as an official emergency shelter or currently operating service.","warning_text":"Candidate facility context only. Not a confirmed emergency facility or shelter."},"geometry":{"type":"Point","coordinates":[99.8510167,20.399391]}},{"type":"Feature","properties":{"facility_id":"OSM-13334942801","facility_type":"healthcare","facility_name":"โรงพยาบาลส่งเสริมสุขภาพตำบลบ้านผาหมี","amenity":"clinic","subdistrict_id":"TH570906","subdistrict_name":"Wiang Phang Kham","snap_distance_m":41.8,"candidate_status":"unverified_osm_candidate","confidence_class":"low","source_name":"OpenStreetMap Thailand via Geofabrik","source_timestamp":"2026-07-09T14:53:08Z","assumptions":"OSM-tagged candidate facility; not verified as an official emergency shelter or currently operating service.","warning_text":"Candidate facility context only. Not a confirmed emergency facility or shelter."},"geometry":{"type":"Point","coordinates":[99.8522424,20.3983491]}},{"type":"Feature","properties":{"facility_id":"OSM-13337290901","facility_type":"community_facility","facility_name":"ศูนย์การเรียนรู้ชาวไทยภูเขาบ้านเผาฮี้","amenity":"community_centre","subdistrict_id":"TH570909","subdistrict_name":"Pong Ngam","snap_distance_m":7.2,"candidate_status":"unverified_osm_candidate","confidence_class":"low","source_name":"OpenStreetMap Thailand via Geofabrik","source_timestamp":"2026-07-09T14:53:08Z","assumptions":"OSM-tagged candidate facility; not verified as an official emergency shelter or currently operating service.","warning_text":"Candidate facility context only. Not a confirmed emergency facility or shelter."},"geometry":{"type":"Point","coordinates":[99.8275992,20.350611]}},{"type":"Feature","properties":{"facility_id":"OSM-13441903001","facility_type":"emergency_service","facility_name":"Tourist Police","amenity":"police","subdistrict_id":"TH570901","subdistrict_name":"Mae Sai","snap_distance_m":62.9,"candidate_status":"unverified_osm_candidate","confidence_class":"low","source_name":"OpenStreetMap Thailand via Geofabrik","source_timestamp":"2026-07-09T14:53:08Z","assumptions":"OSM-tagged candidate facility; not verified as an official emergency shelter or currently operating service.","warning_text":"Candidate facility context only. Not a confirmed emergency facility or shelter."},"geometry":{"type":"Point","coordinates":[99.8817446,20.4416377]}},{"type":"Feature","properties":{"facility_id":"OSM-13444489401","facility_type":"healthcare","facility_name":"พรประภาเภสัช","amenity":"pharmacy","subdistrict_id":"TH570901","subdistrict_name":"Mae Sai","snap_distance_m":10.2,"candidate_status":"unverified_osm_candidate","confidence_class":"low","source_name":"OpenStreetMap Thailand via Geofabrik","source_timestamp":"2026-07-09T14:53:08Z","assumptions":"OSM-tagged candidate facility; not verified as an official emergency shelter or currently operating service.","warning_text":"Candidate facility context only. Not a confirmed emergency facility or shelter."},"geometry":{"type":"Point","coordinates":[99.883266,20.4413221]}},{"type":"Feature","properties":{"facility_id":"OSM-1485439457","facility_type":"shelter_candidate","facility_name":"","amenity":"shelter","subdistrict_id":"TH570909","subdistrict_name":"Pong Ngam","snap_distance_m":11.0,"candidate_status":"unverified_osm_candidate","confidence_class":"low","source_name":"OpenStreetMap Thailand via Geofabrik","source_timestamp":"2026-07-09T14:53:08Z","assumptions":"OSM-tagged candidate facility; not verified as an official emergency shelter or currently operating service.","warning_text":"Candidate facility context only. Not a confirmed emergency facility or shelter."},"geometry":{"type":"Point","coordinates":[99.825304,20.3525236]}},{"type":"Feature","properties":{"facility_id":"OSM-2174005761","facility_type":"school","facility_name":"โรงเรียนบ้านห้วยไคร้","amenity":"school","subdistrict_id":"TH570902","subdistrict_name":"Huai Khrai","snap_distance_m":44.4,"candidate_status":"unverified_osm_candidate","confidence_class":"low","source_name":"OpenStreetMap Thailand via Geofabrik","source_timestamp":"2026-07-09T14:53:08Z","assumptions":"OSM-tagged candidate facility; not verified as an official emergency shelter or currently operating service.","warning_text":"Candidate facility context only. Not a confirmed emergency facility or shelter."},"geometry":{"type":"Point","coordinates":[99.8617764,20.2761526]}},{"type":"Feature","properties":{"facility_id":"OSM-2174059464","facility_type":"healthcare","facility_name":"โรงพยาบาลส่งเสริมสุขภาพตำบล","amenity":"clinic","subdistrict_id":"TH570902","subdistrict_name":"Huai Khrai","snap_distance_m":64.4,"candidate_status":"unverified_osm_candidate","confidence_class":"low","source_name":"OpenStreetMap Thailand via Geofabrik","source_timestamp":"2026-07-09T14:53:08Z","assumptions":"OSM-tagged candidate facility; not verified as an official emergency shelter or currently operating service.","warning_text":"Candidate facility context only. Not a confirmed emergency facility or shelter."},"geometry":{"type":"Point","coordinates":[99.8646825,20.2769361]}},{"type":"Feature","properties":{"facility_id":"OSM-2174067529","facility_type":"school","facility_name":"โรงเรียนบ้านโป่ง","amenity":"school","subdistrict_id":"TH570909","subdistrict_name":"Pong Ngam","snap_distance_m":46.4,"candidate_status":"unverified_osm_candidate","confidence_class":"low","source_name":"OpenStreetMap Thailand via Geofabrik","source_timestamp":"2026-07-09T14:53:08Z","assumptions":"OSM-tagged candidate facility; not verified as an official emergency shelter or currently operating service.","warning_text":"Candidate facility context only. Not a confirmed emergency facility or shelter."},"geometry":{"type":"Point","coordinates":[99.881298,20.3130342]}},{"type":"Feature","properties":{"facility_id":"OSM-2174080832","facility_type":"healthcare","facility_name":"โรงพยาบาลส่งเสริมสุขภาพตำบล","amenity":"clinic","subdistrict_id":"TH570909","subdistrict_name":"Pong Ngam","snap_distance_m":27.4,"candidate_status":"unverified_osm_candidate","confidence_class":"low","source_name":"OpenStreetMap Thailand via Geofabrik","source_timestamp":"2026-07-09T14:53:08Z","assumptions":"OSM-tagged candidate facility; not verified as an official emergency shelter or currently operating service.","warning_text":"Candidate facility context only. Not a confirmed emergency facility or shelter."},"geometry":{"type":"Point","coordinates":[99.8812122,20.3172476]}},{"type":"Feature","properties":{"facility_id":"OSM-2193400988","facility_type":"healthcare","facility_name":"โรงพยาบาลส่งเสริมสุขภาพตำบล","amenity":"clinic","subdistrict_id":"TH570904","subdistrict_name":"Pong Pha","snap_distance_m":16.3,"candidate_status":"unverified_osm_candidate","confidence_class":"low","source_name":"OpenStreetMap Thailand via Geofabrik","source_timestamp":"2026-07-09T14:53:08Z","assumptions":"OSM-tagged candidate facility; not verified as an official emergency shelter or currently operating service.","warning_text":"Candidate facility context only. Not a confirmed emergency facility or shelter."},"geometry":{"type":"Point","coordinates":[99.8852792,20.3670577]}},{"type":"Feature","properties":{"facility_id":"OSM-2193414929","facility_type":"school","facility_name":"โรงเรียนบ้านน้ำจำ","amenity":"school","subdistrict_id":"TH570904","subdistrict_name":"Pong Pha","snap_distance_m":25.8,"candidate_status":"unverified_osm_candidate","confidence_class":"low","source_name":"OpenStreetMap Thailand via Geofabrik","source_timestamp":"2026-07-09T14:53:08Z","assumptions":"OSM-tagged candidate facility; not verified as an official emergency shelter or currently operating service.","warning_text":"Candidate facility context only. Not a confirmed emergency facility or shelter."},"geometry":{"type":"Point","coordinates":[99.8855639,20.3868768]}},{"type":"Feature","properties":{"facility_id":"OSM-2193469978","facility_type":"emergency_service","facility_name":"","amenity":"police","subdistrict_id":"TH570906","subdistrict_name":"Wiang Phang Kham","snap_distance_m":27.7,"candidate_status":"unverified_osm_candidate","confidence_class":"low","source_name":"OpenStreetMap Thailand via Geofabrik","source_timestamp":"2026-07-09T14:53:08Z","assumptions":"OSM-tagged candidate facility; not verified as an official emergency shelter or currently operating service.","warning_text":"Candidate facility context only. Not a confirmed emergency facility or shelter."},"geometry":{"type":"Point","coordinates":[99.8831031,20.4261522]}},{"type":"Feature","properties":{"facility_id":"OSM-2207472330","facility_type":"school","facility_name":"โรงเรียนบ้านสันถนน","amenity":"school","subdistrict_id":"TH570905","subdistrict_name":"Si Mueang Chum","snap_distance_m":51.6,"candidate_status":"unverified_osm_candidate","confidence_class":"low","source_name":"OpenStreetMap Thailand via Geofabrik","source_timestamp":"2026-07-09T14:53:08Z","assumptions":"OSM-tagged candidate facility; not verified as an official emergency shelter or currently operating service.","warning_text":"Candidate facility context only. Not a confirmed emergency facility or shelter."},"geometry":{"type":"Point","coordinates":[99.9528208,20.3824516]}},{"type":"Feature","properties":{"facility_id":"OSM-2207495991","facility_type":"school","facility_name":"โรงเรียนบ้านสันธาตุ","amenity":"school","subdistrict_id":"TH570905","subdistrict_name":"Si Mueang Chum","snap_distance_m":30.6,"candidate_status":"unverified_osm_candidate","confidence_class":"low","source_name":"OpenStreetMap Thailand via Geofabrik","source_timestamp":"2026-07-09T14:53:08Z","assumptions":"OSM-tagged candidate facility; not verified as an official emergency shelter or currently operating service.","warning_text":"Candidate facility context only. Not a confirmed emergency facility or shelter."},"geometry":{"type":"Point","coordinates":[99.9672125,20.3666997]}},{"type":"Feature","properties":{"facility_id":"OSM-2207495993","facility_type":"emergency_service","facility_name":"","amenity":"police","subdistrict_id":"TH570905","subdistrict_name":"Si Mueang Chum","snap_distance_m":27.9,"candidate_status":"unverified_osm_candidate","confidence_class":"low","source_name":"OpenStreetMap Thailand via Geofabrik","source_timestamp":"2026-07-09T14:53:08Z","assumptions":"OSM-tagged candidate facility; not verified as an official emergency shelter or currently operating service.","warning_text":"Candidate facility context only. Not a confirmed emergency facility or shelter."},"geometry":{"type":"Point","coordinates":[99.9581027,20.3696857]}},{"type":"Feature","properties":{"facility_id":"OSM-3218696030","facility_type":"school","facility_name":"","amenity":"school","subdistrict_id":"TH570906","subdistrict_name":"Wiang Phang Kham","snap_distance_m":18.6,"candidate_status":"unverified_osm_candidate","confidence_class":"low","source_name":"OpenStreetMap Thailand via Geofabrik","source_timestamp":"2026-07-09T14:53:08Z","assumptions":"OSM-tagged candidate facility; not verified as an official emergency shelter or currently operating service.","warning_text":"Candidate facility context only. Not a confirmed emergency facility or shelter."},"geometry":{"type":"Point","coordinates":[99.8518477,20.3989096]}},{"type":"Feature","properties":{"facility_id":"OSM-4526416790","facility_type":"shelter_candidate","facility_name":"ไร่บ่าวน้อย","amenity":"shelter","subdistrict_id":"TH570904","subdistrict_name":"Pong Pha","snap_distance_m":65.1,"candidate_status":"unverified_osm_candidate","confidence_class":"low","source_name":"OpenStreetMap Thailand via Geofabrik","source_timestamp":"2026-07-09T14:53:08Z","assumptions":"OSM-tagged candidate facility; not verified as an official emergency shelter or currently operating service.","warning_text":"Candidate facility context only. Not a confirmed emergency facility or shelter."},"geometry":{"type":"Point","coordinates":[99.8754617,20.3796359]}},{"type":"Feature","properties":{"facility_id":"OSM-5041556226","facility_type":"shelter_candidate","facility_name":"","amenity":"shelter","subdistrict_id":"TH570901","subdistrict_name":"Mae Sai","snap_distance_m":50.3,"candidate_status":"unverified_osm_candidate","confidence_class":"low","source_name":"OpenStreetMap Thailand via Geofabrik","source_timestamp":"2026-07-09T14:53:08Z","assumptions":"OSM-tagged candidate facility; not verified as an official emergency shelter or currently operating service.","warning_text":"Candidate facility context only. Not a confirmed emergency facility or shelter."},"geometry":{"type":"Point","coordinates":[99.8903617,20.4260019]}},{"type":"Feature","properties":{"facility_id":"OSM-5041556227","facility_type":"shelter_candidate","facility_name":"","amenity":"shelter","subdistrict_id":"TH570901","subdistrict_name":"Mae Sai","snap_distance_m":40.6,"candidate_status":"unverified_osm_candidate","confidence_class":"low","source_name":"OpenStreetMap Thailand via Geofabrik","source_timestamp":"2026-07-09T14:53:08Z","assumptions":"OSM-tagged candidate facility; not verified as an official emergency shelter or currently operating service.","warning_text":"Candidate facility context only. Not a confirmed emergency facility or shelter."},"geometry":{"type":"Point","coordinates":[99.8902351,20.4262165]}},{"type":"Feature","properties":{"facility_id":"OSM-5260253643","facility_type":"healthcare","facility_name":"ร้านขายยา พญานาคเภสัช","amenity":"pharmacy","subdistrict_id":"TH570909","subdistrict_name":"Pong Ngam","snap_distance_m":29.5,"candidate_status":"unverified_osm_candidate","confidence_class":"low","source_name":"OpenStreetMap Thailand via Geofabrik","source_timestamp":"2026-07-09T14:53:08Z","assumptions":"OSM-tagged candidate facility; not verified as an official emergency shelter or currently operating service.","warning_text":"Candidate facility context only. Not a confirmed emergency facility or shelter."},"geometry":{"type":"Point","coordinates":[99.8828083,20.3238742]}},{"type":"Feature","properties":{"facility_id":"OSM-6304951685","facility_type":"community_facility","facility_name":"หมู่บ้านเก้าหลัง","amenity":"community_centre","subdistrict_id":"TH570902","subdistrict_name":"Huai Khrai","snap_distance_m":4.5,"candidate_status":"unverified_osm_candidate","confidence_class":"low","source_name":"OpenStreetMap Thailand via Geofabrik","source_timestamp":"2026-07-09T14:53:08Z","assumptions":"OSM-tagged candidate facility; not verified as an official emergency shelter or currently operating service.","warning_text":"Candidate facility context only. Not a confirmed emergency facility or shelter."},"geometry":{"type":"Point","coordinates":[99.8629884,20.2896817]}},{"type":"Feature","properties":{"facility_id":"OSM-6376938985","facility_type":"emergency_service","facility_name":"สถานีควบคุมไฟป่าดอยตุง","amenity":"fire_station","subdistrict_id":"TH570902","subdistrict_name":"Huai Khrai","snap_distance_m":786.7,"candidate_status":"unverified_osm_candidate","confidence_class":"low","source_name":"OpenStreetMap Thailand via Geofabrik","source_timestamp":"2026-07-09T14:53:08Z","assumptions":"OSM-tagged candidate facility; not verified as an official emergency shelter or currently operating service.","warning_text":"Candidate facility context only. Not a confirmed emergency facility or shelter."},"geometry":{"type":"Point","coordinates":[99.8214954,20.3199805]}},{"type":"Feature","properties":{"facility_id":"OSM-6382206185","facility_type":"shelter_candidate","facility_name":"","amenity":"shelter","subdistrict_id":"TH570902","subdistrict_name":"Huai Khrai","snap_distance_m":15.5,"candidate_status":"unverified_osm_candidate","confidence_class":"low","source_name":"OpenStreetMap Thailand via Geofabrik","source_timestamp":"2026-07-09T14:53:08Z","assumptions":"OSM-tagged candidate facility; not verified as an official emergency shelter or currently operating service.","warning_text":"Candidate facility context only. Not a confirmed emergency facility or shelter."},"geometry":{"type":"Point","coordinates":[99.8580688,20.2830123]}},{"type":"Feature","properties":{"facility_id":"OSM-6386943287","facility_type":"shelter_candidate","facility_name":"","amenity":"shelter","subdistrict_id":"TH570902","subdistrict_name":"Huai Khrai","snap_distance_m":216.5,"candidate_status":"unverified_osm_candidate","confidence_class":"low","source_name":"OpenStreetMap Thailand via Geofabrik","source_timestamp":"2026-07-09T14:53:08Z","assumptions":"OSM-tagged candidate facility; not verified as an official emergency shelter or currently operating service.","warning_text":"Candidate facility context only. Not a confirmed emergency facility or shelter."},"geometry":{"type":"Point","coordinates":[99.856352,20.2855914]}},{"type":"Feature","properties":{"facility_id":"OSM-6386943486","facility_type":"shelter_candidate","facility_name":"","amenity":"shelter","subdistrict_id":"TH570902","subdistrict_name":"Huai Khrai","snap_distance_m":69.2,"candidate_status":"unverified_osm_candidate","confidence_class":"low","source_name":"OpenStreetMap Thailand via Geofabrik","source_timestamp":"2026-07-09T14:53:08Z","assumptions":"OSM-tagged candidate facility; not verified as an official emergency shelter or currently operating service.","warning_text":"Candidate facility context only. Not a confirmed emergency facility or shelter."},"geometry":{"type":"Point","coordinates":[99.8576435,20.2827301]}},{"type":"Feature","properties":{"facility_id":"OSM-6387061889","facility_type":"shelter_candidate","facility_name":"","amenity":"shelter","subdistrict_id":"TH570902","subdistrict_name":"Huai Khrai","snap_distance_m":13.9,"candidate_status":"unverified_osm_candidate","confidence_class":"low","source_name":"OpenStreetMap Thailand via Geofabrik","source_timestamp":"2026-07-09T14:53:08Z","assumptions":"OSM-tagged candidate facility; not verified as an official emergency shelter or currently operating service.","warning_text":"Candidate facility context only. Not a confirmed emergency facility or shelter."},"geometry":{"type":"Point","coordinates":[99.8589239,20.280603]}},{"type":"Feature","properties":{"facility_id":"OSM-6387061890","facility_type":"shelter_candidate","facility_name":"","amenity":"shelter","subdistrict_id":"TH570902","subdistrict_name":"Huai Khrai","snap_distance_m":32.1,"candidate_status":"unverified_osm_candidate","confidence_class":"low","source_name":"OpenStreetMap Thailand via Geofabrik","source_timestamp":"2026-07-09T14:53:08Z","assumptions":"OSM-tagged candidate facility; not verified as an official emergency shelter or currently operating service.","warning_text":"Candidate facility context only. Not a confirmed emergency facility or shelter."},"geometry":{"type":"Point","coordinates":[99.855482,20.2761171]}},{"type":"Feature","properties":{"facility_id":"OSM-6387066085","facility_type":"shelter_candidate","facility_name":"","amenity":"shelter","subdistrict_id":"TH570902","subdistrict_name":"Huai Khrai","snap_distance_m":32.6,"candidate_status":"unverified_osm_candidate","confidence_class":"low","source_name":"OpenStreetMap Thailand via Geofabrik","source_timestamp":"2026-07-09T14:53:08Z","assumptions":"OSM-tagged candidate facility; not verified as an official emergency shelter or currently operating service.","warning_text":"Candidate facility context only. Not a confirmed emergency facility or shelter."},"geometry":{"type":"Point","coordinates":[99.8581652,20.2800438]}},{"type":"Feature","properties":{"facility_id":"OSM-6388482785","facility_type":"shelter_candidate","facility_name":"กระท่อมกลางนา","amenity":"shelter","subdistrict_id":"TH570904","subdistrict_name":"Pong Pha","snap_distance_m":311.5,"candidate_status":"unverified_osm_candidate","confidence_class":"low","source_name":"OpenStreetMap Thailand via Geofabrik","source_timestamp":"2026-07-09T14:53:08Z","assumptions":"OSM-tagged candidate facility; not verified as an official emergency shelter or currently operating service.","warning_text":"Candidate facility context only. Not a confirmed emergency facility or shelter."},"geometry":{"type":"Point","coordinates":[99.8894397,20.3398211]}},{"type":"Feature","properties":{"facility_id":"OSM-6388482985","facility_type":"shelter_candidate","facility_name":"กระท่อมในสวนปาล์ม","amenity":"shelter","subdistrict_id":"TH570904","subdistrict_name":"Pong Pha","snap_distance_m":11.2,"candidate_status":"unverified_osm_candidate","confidence_class":"low","source_name":"OpenStreetMap Thailand via Geofabrik","source_timestamp":"2026-07-09T14:53:08Z","assumptions":"OSM-tagged candidate facility; not verified as an official emergency shelter or currently operating service.","warning_text":"Candidate facility context only. Not a confirmed emergency facility or shelter."},"geometry":{"type":"Point","coordinates":[99.8766082,20.3755998]}},{"type":"Feature","properties":{"facility_id":"OSM-6395095385","facility_type":"shelter_candidate","facility_name":"กนะท่อมปลายนา","amenity":"shelter","subdistrict_id":"TH570909","subdistrict_name":"Pong Ngam","snap_distance_m":82.8,"candidate_status":"unverified_osm_candidate","confidence_class":"low","source_name":"OpenStreetMap Thailand via Geofabrik","source_timestamp":"2026-07-09T14:53:08Z","assumptions":"OSM-tagged candidate facility; not verified as an official emergency shelter or currently operating service.","warning_text":"Candidate facility context only. Not a confirmed emergency facility or shelter."},"geometry":{"type":"Point","coordinates":[99.9179267,20.345502]}},{"type":"Feature","properties":{"facility_id":"OSM-6395095685","facility_type":"shelter_candidate","facility_name":"","amenity":"shelter","subdistrict_id":"TH570908","subdistrict_name":"Ban Dai","snap_distance_m":13.5,"candidate_status":"unverified_osm_candidate","confidence_class":"low","source_name":"OpenStreetMap Thailand via Geofabrik","source_timestamp":"2026-07-09T14:53:08Z","assumptions":"OSM-tagged candidate facility; not verified as an official emergency shelter or currently operating service.","warning_text":"Candidate facility context only. Not a confirmed emergency facility or shelter."},"geometry":{"type":"Point","coordinates":[99.9542021,20.3108643]}},{"type":"Feature","properties":{"facility_id":"OSM-6395095785","facility_type":"shelter_candidate","facility_name":"","amenity":"shelter","subdistrict_id":"TH570908","subdistrict_name":"Ban Dai","snap_distance_m":8.7,"candidate_status":"unverified_osm_candidate","confidence_class":"low","source_name":"OpenStreetMap Thailand via Geofabrik","source_timestamp":"2026-07-09T14:53:08Z","assumptions":"OSM-tagged candidate facility; not verified as an official emergency shelter or currently operating service.","warning_text":"Candidate facility context only. Not a confirmed emergency facility or shelter."},"geometry":{"type":"Point","coordinates":[99.9562887,20.3094549]}},{"type":"Feature","properties":{"facility_id":"OSM-7194811385","facility_type":"shelter_candidate","facility_name":"","amenity":"shelter","subdistrict_id":"TH570904","subdistrict_name":"Pong Pha","snap_distance_m":10.2,"candidate_status":"unverified_osm_candidate","confidence_class":"low","source_name":"OpenStreetMap Thailand via Geofabrik","source_timestamp":"2026-07-09T14:53:08Z","assumptions":"OSM-tagged candidate facility; not verified as an official emergency shelter or currently operating service.","warning_text":"Candidate facility context only. Not a confirmed emergency facility or shelter."},"geometry":{"type":"Point","coordinates":[99.8863633,20.3523059]}},{"type":"Feature","properties":{"facility_id":"OSM-7358917585","facility_type":"emergency_service","facility_name":"หน่วยตำรวจบริการประชาชนห้วยไคร้","amenity":"police","subdistrict_id":"TH570902","subdistrict_name":"Huai Khrai","snap_distance_m":11.6,"candidate_status":"unverified_osm_candidate","confidence_class":"low","source_name":"OpenStreetMap Thailand via Geofabrik","source_timestamp":"2026-07-09T14:53:08Z","assumptions":"OSM-tagged candidate facility; not verified as an official emergency shelter or currently operating service.","warning_text":"Candidate facility context only. Not a confirmed emergency facility or shelter."},"geometry":{"type":"Point","coordinates":[99.8611476,20.2706547]}},{"type":"Feature","properties":{"facility_id":"OSM-7358917586","facility_type":"school","facility_name":"โรงเรียนอนุบาลมานิตวิทยา","amenity":"kindergarten","subdistrict_id":"TH570902","subdistrict_name":"Huai Khrai","snap_distance_m":24.3,"candidate_status":"unverified_osm_candidate","confidence_class":"low","source_name":"OpenStreetMap Thailand via Geofabrik","source_timestamp":"2026-07-09T14:53:08Z","assumptions":"OSM-tagged candidate facility; not verified as an official emergency shelter or currently operating service.","warning_text":"Candidate facility context only. Not a confirmed emergency facility or shelter."},"geometry":{"type":"Point","coordinates":[99.8594557,20.2732205]}},{"type":"Feature","properties":{"facility_id":"OSM-7358917985","facility_type":"school","facility_name":"โรงเรียนมานิตวิทยา","amenity":"school","subdistrict_id":"TH570902","subdistrict_name":"Huai Khrai","snap_distance_m":50.1,"candidate_status":"unverified_osm_candidate","confidence_class":"low","source_name":"OpenStreetMap Thailand via Geofabrik","source_timestamp":"2026-07-09T14:53:08Z","assumptions":"OSM-tagged candidate facility; not verified as an official emergency shelter or currently operating service.","warning_text":"Candidate facility context only. Not a confirmed emergency facility or shelter."},"geometry":{"type":"Point","coordinates":[99.8601945,20.2717048]}}]}