{
  "type": "FeatureCollection",
  "name": "priority_subdistricts",
  "features": [
    {
      "type": "Feature",
      "properties": {
        "subdistrict_id": "FG-TB-001",
        "subdistrict_name": "River Market",
        "flood_likelihood_0_100": 88,
        "exposure_0_100": 86,
        "access_gap_0_100": 82,
        "road_criticality_0_100": 64,
        "vulnerability_context_0_100": 77,
        "confidence_class": "high",
        "source_name": "synthetic_fixture",
        "source_timestamp": "2026-06-29T00:00:00Z",
        "assumptions": "Open synthetic fixture for FPPS scoring tests",
        "total_population": 12400,
        "vulnerable_population": 3100,
        "fpps_0_100": 81.6,
        "action_class": "A",
        "top_reason": "High exposure and access loss require life-safety action.",
        "baseline_people_losing_30_min_access": 100.0,
        "baseline_equity_gap_ratio": 1.0,
        "temporary_shelter_people_losing_30_min_access": 100.0,
        "temporary_shelter_change_people_losing_30_min_access": 0.0,
        "temporary_shelter_equity_gap_ratio": 1.0,
        "temporary_shelter_change_equity_gap_ratio": 0.0,
        "road_closure_people_losing_30_min_access": 100.0,
        "road_closure_change_people_losing_30_min_access": 0.0,
        "road_closure_equity_gap_ratio": 1.0,
        "road_closure_change_equity_gap_ratio": 0.0,
        "fusion_flood_probability_0_1": 0.9045000000000001,
        "fusion_candidate_mode": "SAR + optical",
        "decision_layer_use_status": "research_sidecar_not_used_by_fpps",
        "selected_optical_candidate_id": "S2-FIXTURE-CLEAR-001",
        "selected_optical_source_family": "sentinel2",
        "fusion_fallback_reason": "none",
        "fallback_equivalence_status": "not_applicable_fused",
        "fusion_source_timestamp": "2026-06-29T03:45:00Z",
        "fusion_confidence_class": "high",
        "fusion_assumptions": "Synthetic SAR encoder probability derived from the fixture flood-likelihood field Optical candidate S2-FIXTURE-CLEAR-001: Synthetic clear optical encoder probability for contract demonstration only Separate encoder probabilities combined by versioned late fusion. Research-only; no improvement claim.",
        "quality_policy_sha256": "d11fd49f561972193e12a0bbaf99f0c1857436340c4d840917df34da09bcb7b4",
        "model_contract_sha256": "efa433635d9e0bcd09fb8212988eabdf577a7889261107080217dfdfb4b37e5e",
        "historical_susceptibility_0_100": 87.45,
        "historical_susceptibility_class": "high",
        "historical_explanation": "Top contribution: Global flood history (16.6 points); available feature-weight coverage 100%.",
        "historical_top_driver": "global_flood_history_0_1",
        "historical_available_weight_0_1": 1.0,
        "historical_missing_features": "",
        "historical_conflict_status": "none",
        "historical_conflict_warning": "No strong current-SAR versus historical-context conflict under the declared policy.",
        "context_label": "Historical susceptibility/context",
        "context_boundary": "Not observed current flooding. Not a forecast.",
        "eligible_as_current_flood": false,
        "eligible_as_forecast": false,
        "eligible_to_replace_event_sar": false,
        "model_method": "transparent_monotonic_additive_baseline",
        "calibration_status": "uncalibrated_requires_basin_event_target_corpus",
        "historical_source_timestamp": "2025-12-31T00:00:00Z",
        "historical_confidence_class": "high",
        "historical_assumptions": "Synthetic normalized historical context features for demonstration only Historical context is auxiliary only; it does not replace event-time SAR evidence."
      },
      "geometry": {
        "type": "Polygon",
        "coordinates": [
          [
            [
              100.0,
              18.0
            ],
            [
              100.02,
              18.0
            ],
            [
              100.02,
              18.02
            ],
            [
              100.0,
              18.02
            ],
            [
              100.0,
              18.0
            ]
          ]
        ]
      }
    },
    {
      "type": "Feature",
      "properties": {
        "subdistrict_id": "FG-TB-002",
        "subdistrict_name": "Bridge Junction",
        "flood_likelihood_0_100": 71,
        "exposure_0_100": 48,
        "access_gap_0_100": 62,
        "road_criticality_0_100": 91,
        "vulnerability_context_0_100": 45,
        "confidence_class": "medium",
        "source_name": "synthetic_fixture",
        "source_timestamp": "2026-06-29T00:00:00Z",
        "assumptions": "Open synthetic fixture for FPPS scoring tests",
        "total_population": 8200,
        "vulnerable_population": 1460,
        "fpps_0_100": 63.85,
        "action_class": "B",
        "top_reason": "Critical routes and access loss threaten isolation.",
        "baseline_people_losing_30_min_access": 30.0,
        "baseline_equity_gap_ratio": 5.999,
        "temporary_shelter_people_losing_30_min_access": 0.0,
        "temporary_shelter_change_people_losing_30_min_access": -30.0,
        "temporary_shelter_equity_gap_ratio": 1.0,
        "temporary_shelter_change_equity_gap_ratio": -4.999,
        "road_closure_people_losing_30_min_access": 80.0,
        "road_closure_change_people_losing_30_min_access": 50.0,
        "road_closure_equity_gap_ratio": 1.0,
        "road_closure_change_equity_gap_ratio": -4.999,
        "fusion_flood_probability_0_1": 0.71,
        "fusion_candidate_mode": "SAR only",
        "decision_layer_use_status": "research_sidecar_not_used_by_fpps",
        "selected_optical_candidate_id": "",
        "selected_optical_source_family": "",
        "fusion_fallback_reason": "no_eligible_optical_candidate;sentinel2:S2-FIXTURE-CLOUD-002:cloud_shadow_exceeds_limit|valid_fraction_below_limit",
        "fallback_equivalence_status": "passed",
        "fusion_source_timestamp": "2026-06-29T00:00:00Z",
        "fusion_confidence_class": "medium",
        "fusion_assumptions": "Synthetic SAR encoder probability derived from the fixture flood-likelihood field Optical evidence did not pass the declared fusion policy; the SAR probability is preserved exactly. Research-only; no fusion-improvement claim.",
        "quality_policy_sha256": "d11fd49f561972193e12a0bbaf99f0c1857436340c4d840917df34da09bcb7b4",
        "model_contract_sha256": "efa433635d9e0bcd09fb8212988eabdf577a7889261107080217dfdfb4b37e5e",
        "historical_susceptibility_0_100": 66.28,
        "historical_susceptibility_class": "moderate",
        "historical_explanation": "Top contribution: Global flood history (12.2 points); available feature-weight coverage 100%.",
        "historical_top_driver": "global_flood_history_0_1",
        "historical_available_weight_0_1": 1.0,
        "historical_missing_features": "",
        "historical_conflict_status": "none",
        "historical_conflict_warning": "No strong current-SAR versus historical-context conflict under the declared policy.",
        "context_label": "Historical susceptibility/context",
        "context_boundary": "Not observed current flooding. Not a forecast.",
        "eligible_as_current_flood": false,
        "eligible_as_forecast": false,
        "eligible_to_replace_event_sar": false,
        "model_method": "transparent_monotonic_additive_baseline",
        "calibration_status": "uncalibrated_requires_basin_event_target_corpus",
        "historical_source_timestamp": "2025-12-31T00:00:00Z",
        "historical_confidence_class": "medium",
        "historical_assumptions": "Synthetic normalized historical context features for demonstration only Historical context is auxiliary only; it does not replace event-time SAR evidence."
      },
      "geometry": {
        "type": "Polygon",
        "coordinates": [
          [
            [
              100.02,
              18.0
            ],
            [
              100.04,
              18.0
            ],
            [
              100.04,
              18.02
            ],
            [
              100.02,
              18.02
            ],
            [
              100.02,
              18.0
            ]
          ]
        ]
      }
    },
    {
      "type": "Feature",
      "properties": {
        "subdistrict_id": "FG-TB-003",
        "subdistrict_name": "Clinic Basin",
        "flood_likelihood_0_100": 68,
        "exposure_0_100": 67,
        "access_gap_0_100": 55,
        "road_criticality_0_100": 44,
        "vulnerability_context_0_100": 58,
        "confidence_class": "medium",
        "source_name": "synthetic_fixture",
        "source_timestamp": "2026-06-29T00:00:00Z",
        "assumptions": "Open synthetic fixture for FPPS scoring tests",
        "total_population": 5600,
        "vulnerable_population": 1800,
        "fpps_0_100": 60.55,
        "action_class": "C",
        "top_reason": "Exposure and access loss threaten essential services.",
        "baseline_people_losing_30_min_access": 60.0,
        "baseline_equity_gap_ratio": 1.0,
        "temporary_shelter_people_losing_30_min_access": 60.0,
        "temporary_shelter_change_people_losing_30_min_access": 0.0,
        "temporary_shelter_equity_gap_ratio": 1.0,
        "temporary_shelter_change_equity_gap_ratio": 0.0,
        "road_closure_people_losing_30_min_access": 60.0,
        "road_closure_change_people_losing_30_min_access": 0.0,
        "road_closure_equity_gap_ratio": 1.0,
        "road_closure_change_equity_gap_ratio": 0.0,
        "fusion_flood_probability_0_1": 0.68,
        "fusion_candidate_mode": "SAR only",
        "decision_layer_use_status": "research_sidecar_not_used_by_fpps",
        "selected_optical_candidate_id": "",
        "selected_optical_source_family": "",
        "fusion_fallback_reason": "no_eligible_optical_candidate;sentinel2:S2-FIXTURE-LATE-003:temporal_offset_exceeds_limit",
        "fallback_equivalence_status": "passed",
        "fusion_source_timestamp": "2026-06-29T00:00:00Z",
        "fusion_confidence_class": "medium",
        "fusion_assumptions": "Synthetic SAR encoder probability derived from the fixture flood-likelihood field Optical evidence did not pass the declared fusion policy; the SAR probability is preserved exactly. Research-only; no fusion-improvement claim.",
        "quality_policy_sha256": "d11fd49f561972193e12a0bbaf99f0c1857436340c4d840917df34da09bcb7b4",
        "model_contract_sha256": "efa433635d9e0bcd09fb8212988eabdf577a7889261107080217dfdfb4b37e5e",
        "historical_susceptibility_0_100": 60.26,
        "historical_susceptibility_class": "moderate",
        "historical_explanation": "Top contribution: Global flood history (11.0 points); available feature-weight coverage 100%.",
        "historical_top_driver": "global_flood_history_0_1",
        "historical_available_weight_0_1": 1.0,
        "historical_missing_features": "",
        "historical_conflict_status": "none",
        "historical_conflict_warning": "No strong current-SAR versus historical-context conflict under the declared policy.",
        "context_label": "Historical susceptibility/context",
        "context_boundary": "Not observed current flooding. Not a forecast.",
        "eligible_as_current_flood": false,
        "eligible_as_forecast": false,
        "eligible_to_replace_event_sar": false,
        "model_method": "transparent_monotonic_additive_baseline",
        "calibration_status": "uncalibrated_requires_basin_event_target_corpus",
        "historical_source_timestamp": "2025-12-31T00:00:00Z",
        "historical_confidence_class": "medium",
        "historical_assumptions": "Synthetic normalized historical context features for demonstration only Historical context is auxiliary only; it does not replace event-time SAR evidence."
      },
      "geometry": {
        "type": "Polygon",
        "coordinates": [
          [
            [
              100.0,
              18.02
            ],
            [
              100.02,
              18.02
            ],
            [
              100.02,
              18.04
            ],
            [
              100.0,
              18.04
            ],
            [
              100.0,
              18.02
            ]
          ]
        ]
      }
    },
    {
      "type": "Feature",
      "properties": {
        "subdistrict_id": "FG-TB-004",
        "subdistrict_name": "Canal Fringe",
        "flood_likelihood_0_100": 54,
        "exposure_0_100": 42,
        "access_gap_0_100": 28,
        "road_criticality_0_100": 35,
        "vulnerability_context_0_100": 50,
        "confidence_class": "high",
        "source_name": "synthetic_fixture",
        "source_timestamp": "2026-06-29T00:00:00Z",
        "assumptions": "Open synthetic fixture for FPPS scoring tests",
        "total_population": 3900,
        "vulnerable_population": 760,
        "fpps_0_100": 42.55,
        "action_class": "D",
        "top_reason": "Highest driver is flood likelihood (54.0/100).",
        "baseline_people_losing_30_min_access": 0.0,
        "baseline_equity_gap_ratio": 1.0,
        "temporary_shelter_people_losing_30_min_access": 0.0,
        "temporary_shelter_change_people_losing_30_min_access": 0.0,
        "temporary_shelter_equity_gap_ratio": 1.0,
        "temporary_shelter_change_equity_gap_ratio": 0.0,
        "road_closure_people_losing_30_min_access": 0.0,
        "road_closure_change_people_losing_30_min_access": 0.0,
        "road_closure_equity_gap_ratio": 1.0,
        "road_closure_change_equity_gap_ratio": 0.0,
        "fusion_flood_probability_0_1": 0.484,
        "fusion_candidate_mode": "SAR + optical",
        "decision_layer_use_status": "research_sidecar_not_used_by_fpps",
        "selected_optical_candidate_id": "S2-FIXTURE-CLEAR-004",
        "selected_optical_source_family": "sentinel2",
        "fusion_fallback_reason": "none",
        "fallback_equivalence_status": "not_applicable_fused",
        "fusion_source_timestamp": "2026-06-29T00:00:00Z",
        "fusion_confidence_class": "medium",
        "fusion_assumptions": "Synthetic SAR encoder probability derived from the fixture flood-likelihood field Optical candidate S2-FIXTURE-CLEAR-004: Synthetic eligible Sentinel-2 candidate demonstrating independent candidate selection Separate encoder probabilities combined by versioned late fusion. Research-only; no improvement claim.",
        "quality_policy_sha256": "d11fd49f561972193e12a0bbaf99f0c1857436340c4d840917df34da09bcb7b4",
        "model_contract_sha256": "efa433635d9e0bcd09fb8212988eabdf577a7889261107080217dfdfb4b37e5e",
        "historical_susceptibility_0_100": 74.05,
        "historical_susceptibility_class": "high",
        "historical_explanation": "Top contribution: Global flood history (13.1 points); available feature-weight coverage 100%.",
        "historical_top_driver": "global_flood_history_0_1",
        "historical_available_weight_0_1": 1.0,
        "historical_missing_features": "",
        "historical_conflict_status": "none",
        "historical_conflict_warning": "No strong current-SAR versus historical-context conflict under the declared policy.",
        "context_label": "Historical susceptibility/context",
        "context_boundary": "Not observed current flooding. Not a forecast.",
        "eligible_as_current_flood": false,
        "eligible_as_forecast": false,
        "eligible_to_replace_event_sar": false,
        "model_method": "transparent_monotonic_additive_baseline",
        "calibration_status": "uncalibrated_requires_basin_event_target_corpus",
        "historical_source_timestamp": "2025-12-31T00:00:00Z",
        "historical_confidence_class": "high",
        "historical_assumptions": "Synthetic normalized historical context features for demonstration only Historical context is auxiliary only; it does not replace event-time SAR evidence."
      },
      "geometry": {
        "type": "Polygon",
        "coordinates": [
          [
            [
              100.02,
              18.02
            ],
            [
              100.04,
              18.02
            ],
            [
              100.04,
              18.04
            ],
            [
              100.02,
              18.04
            ],
            [
              100.02,
              18.02
            ]
          ]
        ]
      }
    },
    {
      "type": "Feature",
      "properties": {
        "subdistrict_id": "FG-TB-005",
        "subdistrict_name": "Unverified Hillside",
        "flood_likelihood_0_100": 92,
        "exposure_0_100": 88,
        "access_gap_0_100": 84,
        "road_criticality_0_100": 79,
        "vulnerability_context_0_100": 80,
        "confidence_class": "low",
        "source_name": "synthetic_fixture",
        "source_timestamp": "2026-06-29T00:00:00Z",
        "assumptions": "Low confidence row should be monitored before action",
        "total_population": 2400,
        "vulnerable_population": 630,
        "fpps_0_100": 86.25,
        "action_class": "E",
        "top_reason": "Monitor and verify because confidence is low.",
        "baseline_people_losing_30_min_access": 0.0,
        "baseline_equity_gap_ratio": null,
        "temporary_shelter_people_losing_30_min_access": 0.0,
        "temporary_shelter_change_people_losing_30_min_access": 0.0,
        "temporary_shelter_equity_gap_ratio": null,
        "temporary_shelter_change_equity_gap_ratio": null,
        "road_closure_people_losing_30_min_access": 0.0,
        "road_closure_change_people_losing_30_min_access": 0.0,
        "road_closure_equity_gap_ratio": null,
        "road_closure_change_equity_gap_ratio": null,
        "fusion_flood_probability_0_1": 0.92,
        "fusion_candidate_mode": "SAR only",
        "decision_layer_use_status": "research_sidecar_not_used_by_fpps",
        "selected_optical_candidate_id": "",
        "selected_optical_source_family": "",
        "fusion_fallback_reason": "no_optical_candidate",
        "fallback_equivalence_status": "passed",
        "fusion_source_timestamp": "2026-06-29T00:00:00Z",
        "fusion_confidence_class": "low",
        "fusion_assumptions": "Synthetic SAR encoder probability derived from the fixture flood-likelihood field Optical evidence did not pass the declared fusion policy; the SAR probability is preserved exactly. Research-only; no fusion-improvement claim.",
        "quality_policy_sha256": "d11fd49f561972193e12a0bbaf99f0c1857436340c4d840917df34da09bcb7b4",
        "model_contract_sha256": "efa433635d9e0bcd09fb8212988eabdf577a7889261107080217dfdfb4b37e5e",
        "historical_susceptibility_0_100": 12.000001,
        "historical_susceptibility_class": "low",
        "historical_explanation": "Top contribution: Global flood history (2.4 points); available feature-weight coverage 91%.",
        "historical_top_driver": "global_flood_history_0_1",
        "historical_available_weight_0_1": 0.91,
        "historical_missing_features": "drainage_density_0_1|soil_runoff_potential_0_1",
        "historical_conflict_status": "current_sar_high_historical_low",
        "historical_conflict_warning": "Current SAR is high while historical susceptibility is low. Verify terrain, radar shadow, urban artefacts, timing, and provenance; do not discard the current observation automatically.",
        "context_label": "Historical susceptibility/context",
        "context_boundary": "Not observed current flooding. Not a forecast.",
        "eligible_as_current_flood": false,
        "eligible_as_forecast": false,
        "eligible_to_replace_event_sar": false,
        "model_method": "transparent_monotonic_additive_baseline",
        "calibration_status": "uncalibrated_requires_basin_event_target_corpus",
        "historical_source_timestamp": "2025-12-31T00:00:00Z",
        "historical_confidence_class": "low",
        "historical_assumptions": "Synthetic steep-hillside context with missing drainage and soil inputs for conflict demonstration Historical context is auxiliary only; it does not replace event-time SAR evidence."
      },
      "geometry": {
        "type": "Polygon",
        "coordinates": [
          [
            [
              100.04,
              18.0
            ],
            [
              100.06,
              18.0
            ],
            [
              100.06,
              18.02
            ],
            [
              100.04,
              18.02
            ],
            [
              100.04,
              18.0
            ]
          ]
        ]
      }
    }
  ],
  "crs": {
    "type": "name",
    "properties": {
      "name": "urn:ogc:def:crs:OGC:1.3:CRS84"
    }
  }
}